Id,Name,Country,City,Latitude,Longitude
0,The Amble Inn,US,Fennville,42.621235,-86.21178
5,Days Inn Tallulah,US,Tallulah,32.38469,-91.19936
8589934595,Spinners Tailspin Inn,US,Kankakee,41.09319,-87.86923
17179869185,Fireline Hotel,US,Palmerton,40.80952,-75.65106
25769803778,The Governor Hotel,US,Portland,45.52085,-122.6828
34359738368,Eden Park Guest House,US,Takoma Park,38.97528,-77.00991
34359738372,Knights Inn - Wilmington,US,Wilmington,41.34598,-88.1956
42949672963,Edgewater Inn & Cottages,US,Eagle River,45.914957,-89.274311
42949672968,Residence Inn By Marriott Hartford Downtown,US,Hartford,41.76808,-72.67297
51539607553,Hampton Inn & Suites Fort Worth-west-i-30,US,Fort Worth,32.73509,-97.43459
60129542145,Mt Gardner Inn,US,Winthrop,48.470364,-120.17681
68719476737,Four Points By Sheraton Memphis Southwind,US,Memphis,35.03692,-89.7989
77309411330,Hampton Inn & Suites Syracuse/carrier Circle,US,East Syracuse,43.09081892,
77309411335,Clarion Inn Strasburg - Lancaster,US,Strasburg,39.987151,-76.176214
94489280512,Econo Lodge,US,Maumee,41.58826,-83.66668
1.03079E+11,Monterey Beach Dunes Inn,US,Marina,36.69925,-121.805553
1.20259E+11,Holiday Inn Rutland-killington Area,US,Rutland,43.59359,-72.962371
1.28849E+11,Haltom Inn,US,Haltom City,32.788714,-97.279915
1.28849E+11,Sunset Inn,US,Worthington,43.62909,-95.58076
1.37439E+11,Ambiance,US,Franklin Park,41.930763,-87.884415
1.46029E+11,Landmark Inn Lakes-mountain Region,US,Laconia,43.52591,-71.46874
1.46029E+11,Best Western,US,Deming,32.266278,-107.79062
1.63209E+11,Hotel Roc Lago Rojo,US,Abbeville,36.610974,-4.503823
1.63209E+11,Super 8 Crete Ne,US,Crete,40.62246,-96.98471
1.80389E+11,Best Western,US,Brookfield,39.765741,-93.079983
1.97568E+11,Hyatt Regency Kathmandu,US,Alliance,27.7216,85.355959
1.97568E+11,Four Seasons Hotel St. Louis,US,Saint Louis,38.633021,-90.184037
2.06158E+11,Days Inn Bangor Airport,US,Bangor,44.791314,-68.810204
2.06158E+11,Summit At Big Sky,US,Big Sky,45.28646,-111.3932
2.14748E+11,La Quinta,US,Prattville,32.485813,-86.40931
2.23338E+11,Pine Shadows Motel,US,West Yellowstone,44.663464,-111.110565
2.49108E+11,Regency Inn Motel,US,Perry,36.288362,-97.329861
2.57698E+11,Samui Cliff View Resort & Spa,US,Eden,9.486392,100.065182
2.66288E+11,Comfort Inn and Suites Bend,US,Bend,44.05227,-121.26361
2.83468E+11,Old Wheeler Hotel,US,Wheeler,45.68964,-123.88225
2.92058E+11,Centennial Bed and Breakfast,US,Holland,42.78621,-86.106875
2.92058E+11,Inturotel Esmeralda Park,US,Ridgefield Park,39.37752,3.23729
3.00648E+11,Days Inn North Columbia Ft. Jackson,US,Blythewood,34.21438,-80.97437
3.17828E+11,Silver Run Cabins,US,Yellville,36.105263,-92.610975
3.26418E+11,Best Western Owasso Inn & Suites,US,Owasso,36.265007,-95.846871
3.43597E+11,Hampton Inn Bloomington West,US,Bloomington,40.487383,-89.035188
3.52187E+11,Budget Inn South,US,Fort Lauderdale,26.10565,-80.136986
3.69367E+11,Greektown Casino,US,Detroit,42.334646,-83.041229
3.69367E+11,Holiday Inn Express & Suites South Portland,US,South Portland,43.64021565,-70.33737787
3.77957E+11,Mericana Motel,US,Fort Madison,40.62387,-91.37009
3.86547E+11,Hampton Inn Grand Junction Downtown/historic Main Street,US,Grand Junction,39.067321,-108.569141
3.95137E+11,Americas Best Value Inn - Medical Center/airport,US,El Paso,31.77634,-106.43274
4.03727E+11,Shoshone Lodge,US,Cody,44.51714,-109.0812
4.03727E+11,Eldorado Inn,US,Baker City,44.78164,-117.81462
4.20907E+11,The Kinney - Venice Beach,US,Marina Del Rey,33.987299,-118.45369
4.29497E+11,Robins Roost Cabins,US,Hill City,43.943866,-103.534561
4.38087E+11,Bellaire Motel Lodge,US,Port Sanilac,43.429146,-82.54247
4.46677E+11,Extended Stay America - Los Angeles - Ontario Airport,US,Ontario,34.068836,-117.563225
4.55267E+11,Ramada,US,Laurel,31.693611,-89.13289
4.55267E+11,Innisbrook,US,Palm Harbor,28.10667,-82.739915
4.63856E+11,Tidewater Inn,US,West Yarmouth,41.657447,-70.261804
4.72446E+11,Meadow Farm Bed and Breakfast,US,Northwood,43.262497,-71.24301
4.89626E+11,Days Inn Branson / Near The Strip,US,Branson,36.65133,-93.26739
4.89626E+11,Motel 6,US,Sierra Vista,31.554729,-110.281579
4.98216E+11,Liberty Lodge,US,Hayward,46.08463,-91.21697
5.06806E+11,Royal Dutch Inn,US,Dutch Harbor,53.854797,-166.55904
5.15396E+11,Super 8 Worthington Minnesota,US,Worthington,43.635653,-95.621864
5.41166E+11,Martin Mason Hotel,US,Deadwood,44.376034,-103.7299
5.49756E+11,Little Paradise Hotel,US,Palm Springs,33.802822,-116.54269
5.58346E+11,Holiday Inn Express Gatesville,US,Gatesville,31.433666,-97.7154
5.66936E+11,Gran Melia Victoria,US,Clifton,39.5639,2.62598
5.75526E+11,Thunderbird Executive Inn and Conference Center,US,Glendale,33.620773,-112.185661
5.75526E+11,Alpine Motel,US,Providence,41.84353,-71.42781
5.84116E+11,Hunting Lodge,US,Finleyville,40.252094,-80.00437
5.92705E+11,Outside Inn,US,Las Vegas,36.15889,-115.31277
6.18475E+11,Candlewood Suites Fort Smith,US,Fort Smith,35.3481292,-94.34935539
6.27065E+11,Economy Inn,US,Harrisonburg,38.478158,-78.821924
6.52835E+11,Saddleback Motor Inn,US,Rangeley,44.965683,-70.64271
6.52835E+11,Super 8 Bradenton Sarasota Area,US,Bradenton,27.424069,-82.575539
6.61425E+11,Village Lodge,US,Ruidoso,33.351721,-105.674432
6.61425E+11,Holiday Inn Express,US,Bowlinggreen,41.374331,-83.608374
6.78605E+11,Holiday Inn Express Hotel and Suites Hesperia,US,Hesperia,34.42794,-117.38383
6.87195E+11,Holiday Inn Victorville,US,Victorville,34.50722,-117.32561
6.95785E+11,Courtyard Burlington Harbor,US,Burlington,44.47912,-73.21863
7.12965E+11,Big Mountain Lodge,US,Whitefish,48.391121,-114.335838
7.21555E+11,Comfort Inn and Suites,US,Black River Falls,44.29782,-90.82021
7.30144E+11,Super 8 Blackwell Ok,US,Blackwell,36.8115,-97.29803
7.47324E+11,"Holiday Inn Express Howe (sturgis, Mi)",US,Howe,ad_..,
7.55914E+11,Rapid City Days Inn,US,Rapid City,44.07962,-103.24987
7.64504E+11,Econo Lodge,US,London,37.145106,-84.108375
7.73094E+11,Residence Inn Burlington Colchester,US,Colchester,44.51407,-73.18283
7.81684E+11,Hamton Inn New Orleans Westbank,US,Harvey,29.889694,-90.0578
7.90274E+11,"La Posada Lodge & Casitas, An Ascend Hotel Collection Member",US,Tucson,32.31373,-110.977477
7.98864E+11,Bear Cove Inn,US,Saint Ignace,45.87557,-84.73229
8.07454E+11,1900 House,US,Narragansett,41.431695,-71.461518
8.16044E+11,Super 8 Ithaca,US,Ithaca,42.436007,-76.508315
8.16044E+11,40 Berkeley Hostel,US,Boston,42.346133,-71.071032
8.24634E+11,Extended Stay America Philadelphia - Exton,US,Exton,40.362305,-75.62609
8.24634E+11,Days Inn Lincolnton,US,Lincolnton,35.47112,-81.23998
8.33224E+11,Miami Executive Hotel,US,Miami,25.76433,-80.26619
8.41814E+11,Mccamly Plaza Hotel,US,Battle Creek,42.312,-85.19201
8.41814E+11,Candlewood Suites Eugene Springfield,US,Eugene,44.04401959,-123.0476193
8.50404E+11,Extended Stay America - Columbia - Northwest Harbison,US,Irmo,34.09128,-81.16052
8.58993E+11,Comfort Suites Mount Vernon,US,Mount Vernon,120009883.8,-88.9489
8.58993E+11,River Oaks Golf Villas,US,Myrtle Beach,33.72237,-78.92113
8.76173E+11,Excellence Riviera Cancun - Adults Only - All Inclusive,US,Mont Belvieu,20.87549,-86.86814
8.93353E+11,Briarcliff,US,Great Barrington,42.238323,-73.33482
8.93353E+11,Tmc Resort Rentals,US,Montgomery,30.40422,-95.63431
9.01943E+11,The Merritt Center and Lodge,US,Payson,34.25475,-3.8438E+11
9.10533E+11,Four Seasons Country Inn,US,Glasgow,36.954535,-85.961849
9.19123E+11,Best Western University Inn & Suites,US,Forest Grove,45.52078,-123.07752
9.36303E+11,Arion,US,Ramey,37.812115,23.774569
9.44893E+11,Doubletree By Hilton Hotel Bay City - Riverfront,US,Bay City,43.596927,-83.891054
9.44893E+11,Melia Paris Champs-elys��es,US,Irving,48.868568,2.282725
9.53483E+11,Holiday Inn Express Eagle,US,Eagle,,-106.830495
9.62073E+11,Americas Best Value Inn,US,Galesburg,40.94788,-90.37126
9.62073E+11,Candlewood Suites Indianapolis Northwest,US,Indianapolis,39.888268,-86.26509
9.70663E+11,Holiday Inn Express Hotel and Suites Raleigh-wakefield,US,Raleigh,35.95036,-78.54278
9.70663E+11,Hotel Roc Flamingo,US,Abbeville,36.62315,-4.50121
9.70663E+11,Holiday Inn Express Hotel and Suites Cambridge,US,Cambridge,42.373389,-71.081492
9.87842E+11,Country Inn & Suites By Carlson,US,Crystal Lake,42.228017,-88.297272
9.96432E+11,Red Carpet Inn,US,Oskaloosa,41.32402,-92.64586
9.96432E+11,Simoni's Fremont Inn,US,Stockton,37.955647,-121.327894
1.00502E+12,Roy-el Motel,US,Wapello,41.174864,-91.190254
1.01361E+12,Super 8 Pittsburgh/monroeville,US,Pittsburgh,40.4461,-79.7139
1.01361E+12,Pavilion Lodge,US,Avalon,33.3649,-118.3815
1.0222E+12,Microtel Inn Suites By Wyndham San Antonio By Seaworld,US,San Antonio,29.41358,-98.70959
1.03079E+12,Country Inns Suites,US,Iron Mountain,45.841633,-88.04958
1.03938E+12,Quality Inn,US,Dublin,37.07262,-80.69679
1.04797E+12,Country Inn & Suites By Carlson,US,Clinton,36.16315,-84.08504
1.05656E+12,Wilshire Inn Motel,US,Cushing,35.9856,-96.74215
1.06515E+12,Holiday Inn Express Hotel and Suites Memphis Southwind,US,Memphis,35.03565,-89.79881
1.07374E+12,Best Western Hotel Goldenmile Milan,US,Washington,45.42665054,9.071522086
1.08233E+12,Hampton Inn Virginia Beach Oceanfront North,US,Virginia Beach,36.859787,-75.978035
1.09951E+12,Harrah's Laughlin Hotel and Casino,US,Laughlin,35.144281,-114.577492
1.1081E+12,The Houstonian Hotel,US,Houston,29.768461,-95.459631
1.11669E+12,Quality Inn,US,Decatur,34.57757,-3.00602E+11
1.12528E+12,Motel 6,US,Buena Park,33.858124,-118.02875
1.13387E+12,Wyndham Vacation Resorts Towers On The Grove,US,North Myrtle Beach,33.82734,-78.645195
1.14246E+12,Terrace Inns Suites,US,El Cerrito,37.915024,-122.31116
1.15105E+12,Eldorado Suites Hotel,US,Bisbee,98496963.04,-109.91349
1.15105E+12,Clarion Suites Philadelphia,US,Philadelphia,39.95546,-75.15647
1.15105E+12,Atlanta Marriott Northwest At Galleria,US,Atlanta,33.89723,-84.46652
1.16823E+12,Knights Inn Eau Claire,US,Eau Claire,44.84402,
1.17682E+12,Gardena Terrace Inn,US,Gardena,33.886224,-118.309143
1.18541E+12,Point Randall Resort,US,Lake Ozark,38.206224,-92.665213
1.194E+12,Hilton Americas-houston,US,Houston,29.75143553,-95.36045909
1.20259E+12,Red Roof Inn St Louis - Troy,US,Troy,38.734557,-89.913938
1.21118E+12,Jellico Days Inn North Tennessee,US,Jellico,36.58786,-84.126875
1.21977E+12,Inroads Ireland Tours,US,Madison,43.072693,-89.439605
1.22836E+12,Super 8 Chicago O'hare Airport,US,Elk Grove Village,42.007953,-87.936614
1.23695E+12,Holiday Inn Express Henderson,US,Henderson,36.334415,-78.440755
1.25413E+12,Holiday Inn Express Hotel and Suites Va Beach Oceanfront,US,Virginia Beach,36.85497235,-75.97641885
1.26272E+12,Ambassador Inn Albuquerque,US,Albuquerque,35.114822,-106.62761
1.27131E+12,Super 8 Metropolis,US,Metropolis,37.162308,-88.690626
1.28849E+12,Sir Walter Raleigh Inns of Greenbelt,US,College Park,38.996452,-76.903755
1.29708E+12,Days Inn Newton,US,Newton,38.043312,-97.320388
1.29708E+12,Holiday Inn Express Hotel & Suites Bloomington-normal,US,Normal,40.51398,-88.952632
1.30567E+12,Comfort Inn,US,Bonita Springs,26.331369,-81.787918
1.30567E+12,Hampton Inn Abilene,US,Abilene,32.40399,-99.76546
1.31426E+12,Fh Hotel Villa Fiesole,US,Ames,43.801897,11.298293
1.32285E+12,Country Inn Walker,US,Walker,47.09124,-94.57172
1.32285E+12,Aspen Haus Bed and Breakfast,US,Healy,63.877674,-149.00726
1.32285E+12,Newark Budget Inn,US,Newark,40.057014,-82.41043
1.33144E+12,Hampton Inn Roanoke/salem,US,Salem,37.265157,-80.03187
1.34003E+12,Castle Kona Reef,US,Kailua Kona,19.629903,-155.988787
1.34862E+12,The Inn On Negley,US,Pittsburgh,40.453283,-79.931668
1.34862E+12,The Dec,US,Aberdeen,45.457684,-98.441345
1.35721E+12,Super 8 Van Horn,US,Van Horn,29.671524,-95.037971
1.3658E+12,Towneplace Suites Albany University Area,US,Albany,42.686743,-73.815101
1.37439E+12,Hotel Mc Call,US,Mccall,44.910785,-116.097702
1.38298E+12,Plaza Hotel and Casino - Las Vegas,US,Las Vegas,36.171617,-115.146375
1.39157E+12,Leakey Springs Cabins,US,Concan,,
1.40016E+12,Garden Bed and Breakfast,US,Deansboro,43.00021,-75.42649
1.40875E+12,Sam's Town Hotel & Gmblng Hall,US,Robinsonville,34.819119,-90.411665
1.41734E+12,Holiday Inn Express & Suites Portland,US,Portland,40.439227,-84.99398
1.41734E+12,Sand Dunes Motel,US,Mosca,37.65417,-105.87038
1.42593E+12,Motel 6,US,Gustine,37.11165,-121.01571
1.42593E+12,Avalon Hotel Group,US,Gonzales,30.22585,-90.92064
1.43452E+12,Sunset Inn,US,Oroville,39.504005,-121.569869
1.4517E+12,Boardroom Motel,US,Oakland,39.420506,-79.399055
1.46029E+12,La Quinta Inn-houston,US,Houston,29.773048,-95.206568
1.46888E+12,Inn At Queen Anne,US,Seattle,47.62332,-122.35542
1.46888E+12,Comfort Suites,US,Southfield,42.472016,-83.241718
1.47747E+12,Hotel Olcott,US,New York,,
1.49465E+12,Sheraton Baltimore North Hotels,US,Towson,39.40659,-76.60111
1.50324E+12,Warwick Denver,US,Denver,39.744501,-104.983568
1.51183E+12,Lake Raystown Resort Lodge & Conference Center,US,Entriken,40.340052,-78.200615
1.52901E+12,Canyon Gate Motel,US,Spearfish,44.476166,-103.84841
1.52901E+12,Sands Central Inn Hot Springs,US,Hot Springs National Park,34.49832,-93.05674
1.5376E+12,Comfort Inn,US,College Park,38.99565,-76.9319
1.54619E+12,Comfort Inn,US,Edinburg,26.33373,-98.248491
1.55478E+12,The Inn @ St. Botolph,US,Boston,,
1.56337E+12,Pelican Shores Inn,US,Lincoln City,44.98465469,-124.0137872
1.57196E+12,Sterling Motel,US,Austin,43.666462,-92.99311
1.58055E+12,Rangeland Court Motel & Rv,US,Moorcroft,44.264012,-104.95052
1.58914E+12,Octagon Inn,US,Navajo Dam,36.8921,-107.603
1.60632E+12,Hotel Vorbach,US,Ashburn,53.566245,9.988144
1.61491E+12,Beach Haven Vacation Rental House,US,Beach Haven,39.550227,-74.24943
1.6235E+12,Super 8 Columbia East,US,Columbia,38.961861,-92.24376
1.63209E+12,Hilton Garden Inn Oconomowoc,US,Oconomowoc,43.0719,-88.46372
1.65786E+12,Hilton Garden Inn Austin Nw - Arboretum,US,Austin,30.416106,-97.744278
1.65786E+12,Hampton Inn & Suites Douglas,US,Douglas,42.67756,-105.333191
1.66645E+12,Baymont Inn & Suites Griffin,US,Griffin,104273397.4,-84.29196
1.67504E+12,Wine Valley Lodge,US,Napa,38.283329,-122.288533
1.69222E+12,Best Western Plus-seaport Inn,US,New York,40.70806,-74.00145
1.7094E+12,Durango Travelodge,US,Durango,37.295963,-107.872714
1.71799E+12,Melia Paris Notre Dame,FR,Paris,48.8515198,8113099202
1.71799E+12,UNA Hotel Century,IT,Milan,45.4841371,9.2001623
1.72658E+12,Hampton by Hilton Amsterdam Centre East,NL,Amsterdam,52.3714428,4.9346331
1.73517E+12,K K Palais Hotel,AT,Vienna,48.2138096,16.3714293
1.74376E+12,Millennium Hotel Paris Opera,FR,Paris,48.8724588,2.3378004
1.74376E+12,Ch teau Monfort Relais Ch teaux,IT,Milan,45.4682358,31805654966
1.75235E+12,Hotel La Lanterne,FR,Paris,ad48.8489839_..,2.348383
1.75235E+12,Hotel Sans Souci Wien,AT,Vienna,48.204576,16.3563661
1.75235E+12,Hotel Portello Gruppo Minihotel,IT,Milan,45.4802503,9.1494925
1.76094E+12,Maison Albar Hotel Paris C line,FR,Paris,48.8606187,2.344401
1.76094E+12,Renaissance Paris Le Parc Trocadero Hotel,FR,Paris,48.8673099,2.2856528
1.76953E+12,Best Western Mornington Hotel Hyde Park,GB,Paddington,51.5119933,-0.1782794
1.76953E+12,Hilton Diagonal Mar Barcelona,ES,Barcelona,41.4084334,2.2178205
1.77812E+12,Covent Garden Hotel,GB,London,51.5145986,-0.1270336a
1.77812E+12,Hotel Johann Strauss,AT,Vienna,48.1949694,16.3692624
1.78671E+12,Hotel Dupond Smith,FR,Paris,48.857898,2.3571978
1.78671E+12,Suite Hotel 900 m zur Oper,AT,Vienna,48.1935235,16.3669145
1.7953E+12,Hotel Barcelona Universal,ES,Barcelona,41.375237,2.1684058
1.80389E+12,Shaftesbury Hyde Park International,GB,London,51.5123968,-0.186124
1.80389E+12,Apex City Of London Hotel,GB,London,51.5104624,-0.0795502
1.80389E+12,Hotel Vilamar,ES,Barcelona,41.3766732,2.1524478
1.81248E+12,Hilton Barcelona,ES,Barcelona,41.388682,2.1316368
1.81248E+12,Hotel Silver,IT,Milan,45.4589731,9.0687506
1.82966E+12,Park Plaza County Hall London,GB,London,51.5014001,-0.1160092
1.82966E+12,Senator Hotel Vienna,AT,Vienna,48.2195864,16.3255339
1.83825E+12,Mercure Paris Porte d Orleans,FR,Paris,48.8178079,2.3293636
1.84684E+12,Duquesa de Cardona,ES,Barcelona,41.3798658,2.1805271
1.85543E+12,Hotel Balmes,ES,Barcelona,41.3910621,2.1593373
1.86402E+12,Maxim Op ra,FR,Paris,48.8738557,2.3444232
1.86402E+12,Hotel Les Bains Paris,FR,Paris,48.863828,2.3519345
1.86402E+12,Arthotel ANA Boutique Six,AT,Vienna,48.1941905,16.3462578
1.87261E+12,Hotel Ciutadella Barcelona,ES,Barcelona,ad41.3837583_..,2.1846933
1.8812E+12,H tel De Sers Champs Elys es Paris,FR,Paris,48.8683593,2.3002117
1.88979E+12,Hotel Panache,FR,Paris,48.8732543,2.343239
1.88979E+12,La Clef Tour Eiffel,FR,Paris,48.8647019,2.2886425
1.89838E+12,Windermere Hotel,GB,London,51.4903724,-0.1459218
1.89838E+12,Hotel Lombardia,IT,Milan,45.4872511,9.2237385
1.90697E+12,Hotel West End,FR,Paris,48.8671391,2.3038447
1.91556E+12,Mercure Vienna First,AT,Vienna,48.2114567,16.3738677
1.92415E+12,Little Palace Hotel,FR,Paris,48.8675674,2.3539896
1.93274E+12,Petit Palais Hotel De Charme,IT,Milan,ad45.4559784_..,9.1871812
1.94133E+12,Royal Passeig de Gracia,ES,Barcelona,41.3946775,2.162638
1.94992E+12,Hotel Le Squara,FR,Paris,48.884165,2.3328261
1.95851E+12,Ofelias Hotel 4 Sup,ES,Barcelona,41.3957584,2.1822402
1.9671E+12,Vienna Sporthotel,AT,Vienna,48.191373,16.4082294
1.97568E+12,Le Tourville Eiffel,FR,Paris,48.8542681,2.3078116
1.97568E+12,Hotel Spa La Belle Juliette,FR,Paris,48.8474426,2.3223783
1.98427E+12,Hilton London Olympia,GB,London,51.4967399,-0.2064723
1.99286E+12,Monhotel Lounge SPA,FR,Paris,48.8743481,2.2897334
1.99286E+12,Das Opernring Hotel,AT,Vienna,48.2026449,16.3671054
2.00145E+12,Park Plaza London Park Royal,GB,London,51.527262,-0.282992
2.00145E+12,Hotel Serhs Rivoli Rambla,ES,Barcelona,41.3843222,2.1712893
2.00145E+12,Amsterdam Canal Residence,NL,Amsterdam,52.3594783,4.895853
2.01004E+12,H tel De Castiglione,FR,Paris,48.8691758,2.3205807
2.01863E+12,H tel Paris Bastille Boutet MGallery by Sofitel,FR,Paris,48.8519215,2.3839993
2.01863E+12,Pertschy Palais Hotel,AT,Vienna,48.2082256,16.3684123
2.02722E+12,Le Mathurin Hotel Spa,FR,Paris,48.8732068,2.3239015
2.02722E+12,IH Hotels Milano Ambasciatori,IT,Milan,142419297,9.1952727
2.02722E+12,Eurostars Bcn Design,ES,Barcelona,41.3907208,2.1660732
2.03581E+12,Arbor City,GB,London,51.5166755,-0.0697897
2.0444E+12,Grand Royale London Hyde Park,GB,London,51.5109945,-0.1863417
2.0444E+12,Timhotel Op ra Blanche Fontaine,FR,Paris,48.8825781,2.3334805
2.0444E+12,Hotel Well and Come,ES,Barcelona,41.3991773,2.1656134
2.06158E+12,NH Hesperia Barcelona Presidente,ES,Barcelona,41.3941338,2.1489569
2.07017E+12,Goodenough Club,GB,London,51.525535,-0.1180354
2.07876E+12,Hilton Vienna Plaza,AT,Vienna,48.2155236,16.3646858
2.08735E+12,The Waldorf Hilton,GB,London,51.5131979,-0.1174504
2.09594E+12,Lancaster London,GB,Paddington,51.5119446,-0.179939
2.10453E+12,41,GB,London,51.4981471,-0.1436492
2.11312E+12,Le 123 Elysees Astotel,FR,Paris,48.8730823,2.309659
2.11312E+12,Savoy Hotel Amsterdam,NL,Amsterdam,52.3497431,4.8911908
2.12171E+12,Grand Hotel Downtown,NL,Amsterdam,52.36513,4.8729422
2.12171E+12,UNA Hotel Scandinavia,IT,Milan,45.4859983,9.1637603
2.1303E+12,Mercer House B ria BCN,ES,Barcelona,41.3846844,2.1791065
2.13889E+12,Ambassadors Bloomsbury,GB,London,51.5266618,-0.1296571
2.13889E+12,Hotel Principe Di Savoia,IT,Milan,45.479888,9.1962982
2.14748E+12,Eurohotel Diagonal Port,ES,Barcelona,41.4006708,2.2087844
2.15607E+12,Hotel Chavanel,FR,Paris,48.8721692,2.3262681
2.15607E+12,AC Hotel Paris Porte Maillot by Marriott,FR,Paris,48.8820046,2.2818538
2.16466E+12,Select Hotel,FR,Paris,48.8483053,2.3425596
2.16466E+12,Hotel Le Sainte Beuve,FR,Paris,48.8438998,2.3294858
2.17325E+12,H tel Bel Ami,FR,Paris,48.8550298,2.3332104
2.18184E+12,Renaissance Paris Arc de Triomphe Hotel,FR,Paris,48.8772093,2.2968266
2.18184E+12,Hotel Eug ne en Ville,FR,Paris,48.8750119,2.3416769
2.18184E+12,Hotel Carrobbio,IT,Milan,45.4606597,9.1810947
2.19043E+12,Le Belmont Champs Elys es,FR,Paris,48.8691984,2.2979052
2.19043E+12,Austria Trend Hotel Doppio Wien,AT,Vienna,48.1854312,16.404884
2.19902E+12,Hotel De Vigny,FR,Paris,48.8738672,2.3005894
2.20761E+12,Negresco Princess 4 Sup,ES,Barcelona,41.3905166,2.1725643
2.2162E+12,Mercure Hotel Amsterdam City South,NL,Amsterdam,52.335182,4.9138688
2.23338E+12,Le Saint Hotel Paris,FR,Paris,48.8565421,2.3303504
2.24197E+12,Hotel Indigo London Tower Hill,GB,London,51.5128032,-0.07586
2.25056E+12,Park Grand London Hyde Park,GB,London,51.5157316,-0.1802179
2.25915E+12,Le Pavillon des Lettres,FR,Paris,48.8713699,2.3181191
2.25915E+12,Crowne Plaza London Docklands,,London,51.5083537,0.0198855
2.26774E+12,Best Western Seraphine Kensington Olympia,GB,London,51.4992791,-0.1973593
2.26774E+12,Balmoral Champs Elys es,FR,Paris,48.8759855,2.293938
2.26774E+12,Mercure London Bridge,GB,London,51.5052587,-0.099176
2.27633E+12,Le Pradey,FR,Paris,48.8645309,2.3315532
2.28492E+12,Le Senat,FR,Paris,48.8491427,2.3397118
2.28492E+12,St Pancras Renaissance Hotel London,GB,London,51.5267769,-0.1324905
2.28492E+12,Hotel Prinz Eugen,AT,Vienna,48.1877258,56576099523
2.29351E+12,London Marriott Hotel Grosvenor Square,GB,London,51.511579,-0.1500193
2.29351E+12,The Ned,GB,London,51.5135929,-0.0907833
2.3021E+12,Hotel Monge,FR,Paris,48.8447938,2.3524462
2.3021E+12,Jaz Amsterdam,NL,Amsterdam Zuidoost,52.314371,4.9388064
2.31069E+12,Park Plaza London Waterloo,GB,London,51.4982412,-0.1134715
2.31069E+12,NH Amsterdam Schiller,NL,Amsterdam,52.3657092,4.8966912
2.31928E+12,Hotel Mademoiselle,FR,Paris,48.8772493,2.3543043
2.31928E+12,The Ritz Carlton Vienna,AT,Vienna,48.2022742,16.3762615
2.32787E+12,The One Barcelona GL,ES,Barcelona,41.3961448,2.1631674
2.32787E+12,Sunotel Club Central,ES,Barcelona,41.38793,2.1568061
2.33646E+12,Hotel Villa Saxe Eiffel,FR,Paris,48.849758,2.3095213
2.33646E+12,Hotel Pension Baron am Schottentor,AT,Vienna,NA,NA
2.34505E+12,Novotel London Excel,GB,London,51.5077198,0.0229805
2.34505E+12,The Berkeley,GB,London,51.5020912,-0.1577795
2.35364E+12,Ohla Eixample,ES,Barcelona,41.3944574,2.1564353
2.36223E+12,Hilton Paris Opera,FR,Paris,48.8756604,2.3252075
2.36223E+12,Hotel Bellevue Wien,AT,Vienna,48.2264063,16.3600628
2.37082E+12,Belfast,FR,Paris,48.8756435,2.2938788
2.37082E+12,Plaza Tour Eiffel,FR,Paris,48.8645647,2.2821827
2.37082E+12,Hotel The Serras,ES,Barcelona,41.3801815,2.180688
2.37941E+12,Barcelona Princess,ES,Barcelona,41.4109715,2.2186535
2.37941E+12,NH Collection Barcelona Podium,ES,Barcelona,NA,NA
2.388E+12,11 Cadogan Gardens,GB,London,51.4936161,-0.1592347
2.388E+12,Best Western Plus 61 Paris Nation Hotel,FR,Paris 12,48.8465653,2.4102405
2.39659E+12,Hotel des Tuileries Relais du Silence,FR,Paris,48.8661705,2.331561
2.39659E+12,NH Collection Barcelona Gran Hotel Calder n,ES,Barcelona,41.3894654,2.1662651
2.40518E+12,DoubleTree By Hilton Milan,IT,Milan,45.5005657,9.1383663
2.41377E+12,Comfort Inn Suites Kings Cross St Pancras,GB,London,51.5289499,-0.1232979
2.41377E+12,Bianca Maria Palace Hotel,IT,Milan,45.4635445,9.2068649
2.42236E+12,Hotel Die Port van Cleve,NL,Amsterdam,52.3741426,4.8907741
2.43095E+12,H tel La Parizienne by Elegancia,FR,Paris 06,48.8450894,2.3209503
2.43954E+12,London Hilton on Park Lane,GB,London,51.5055513,-0.1501698
2.44813E+12,St Martins Lane A Morgans Original,GB,London,51.5104696,-0.1265824
2.44813E+12,Grand Hotel Wien,AT,Vienna,48.2021105,16.3720841
2.46531E+12,Best Western Le Jardin de Cluny,FR,Paris,48.8497553,2.3467616
2.4739E+12,Le Metropolitan a Tribute Portfolio Hotel,FR,Paris,48.8656973,2.2829776
2.48249E+12,The Nadler Victoria,GB,London,51.4990259,-0.1427453
2.48249E+12,Hotel Granados 83,ES,Barcelona,41.391843,2.156844
2.48249E+12,Hotel Balmoral,ES,Barcelona,41.3961294,2.1551626
2.49108E+12,Flemings Mayfair,GB,London,51.5064607,-0.1454198
2.49967E+12,Nell Hotel Suites,FR,Paris,48.8741002,2.3426357
2.49967E+12,Hotel D Este,IT,Milan,45.4510397,9.1920911
2.50826E+12,Primero Primera,ES,Barcelona,41.4002812,2.1297427
2.51685E+12,Seven Hotel,FR,Paris,152990212.1,2.3455528
2.51685E+12,Hotel Liberty,IT,Milan,45.4508673,9.1948659
2.52544E+12,Cotton House Hotel Autograph Collection,ES,Barcelona,41.3915897,2.1720108
2.53403E+12,Mercer Hotel Barcelona,ES,Barcelona,41.3827,2.1791999
2.53403E+12,AZIMUT Hotel Vienna,AT,Vienna,,16.3762765
2.55121E+12,The Victoria,GB,London,51.4611219,-0.2756216
2.55121E+12,Novotel Amsterdam City,NL,Amsterdam,52.333803,4.8884708
2.5598E+12,Mercure Vaugirard Paris Porte De Versailles,FR,Paris,48.8330649,2.2879617
2.56839E+12,Hilton London Euston,GB,London,51.5265189,-0.1303689
2.56839E+12,Novotel Paris Les Halles,FR,Paris,48.8607299,2.3465326
2.57698E+12,Roomz Vienna,AT,Vienna,NA,NA
2.58557E+12,Warwick Paris Former Warwick Champs Elysees,FR,Paris,48.8722019,2.3030866
2.58557E+12,Chambiges Elys es,FR,Paris,48.8668048,2.3039465
2.59416E+12,Best Western S vres Montparnasse,FR,Paris,48.843707,2.3155631
2.60275E+12,Hotel Trianon Rive Gauche,FR,Paris,48.8487675,2.3410376
2.60275E+12,Old Ship Inn Hackney,GB,London,51.5458476,-0.0554113
2.60275E+12,United Lodge Hotel and Apartments,GB,London,51.5743549,-0.0977567
2.61134E+12,Park Plaza Victoria London,GB,London,51.4942539,-0.1414756
2.61993E+12,Royal Saint Honore,FR,Paris,48.8658792,2.3298903
2.62852E+12,Le Relais Montmartre,FR,Paris,48.8854538,2.3335809
2.62852E+12,Holiday Inn Amsterdam,NL,Amsterdam,52.3351951,4.8885354
2.63711E+12,St James Hotel Club Mayfair,GB,London,51.5061587,-0.1402803
2.6457E+12,H tel F licien by Elegancia,FR,Paris,48.8493082,2.2743626
2.6457E+12,Grange Wellington Hotel,GB,London,51.4944319,-0.1363756
2.66288E+12,Okko Hotels Paris Porte De Versailles,FR,Paris,48.8327729,2.2787597
2.66288E+12,Hotel V Nesplein,NL,Amsterdam,52.3711037,4.8936787
2.67147E+12,H tel des Academies et des Arts,FR,Paris,48.8420669,2.3304091
2.68006E+12,Hotel VIU Milan,IT,Milan,45.488764,9.183057
2.68006E+12,Starhotels Echo,IT,Milan,45.4847398,9.2072916
2.68865E+12,Platine Hotel Spa,FR,Paris,48.8473459,2.2832408
2.68865E+12,Washington Mayfair Hotel,GB,London,51.5060237,-0.151078
2.70583E+12,Portobello House,GB,London,51.5199224,-0.2116636
2.70583E+12,Arioso,FR,Paris,48.8746066,2.3167195
2.72301E+12,Melia Paris Champs Elys es,FR,Paris,48.8688962,2.2827459
2.72301E+12,Renaissance Amsterdam Hotel,NL,Amsterdam,52.377955,4.894641
2.7316E+12,Novotel Paris Centre Bercy,FR,Paris,48.8384558,2.3805885
2.74019E+12,Best Western Op ra Batignolles,FR,Paris,48.8870573,2.3143297
2.74019E+12,The Dylan Amsterdam,NL,Amsterdam,164037082.1,4.8798713
2.74878E+12,H tel Westminster,FR,Paris,48.8693409,2.3310263
2.74878E+12,NH Carlton Amsterdam,NL,Amsterdam,52.3663727,4.8930505
2.76596E+12,Staybridge Suites London Vauxhall,GB,London,51.4891226,-0.1205639
2.76596E+12,Hotel Eiffel Blomet,FR,Paris,48.8416787,2.3022862
2.77455E+12,Mercure Paris Gare Montparnasse,FR,Paris,NA,NA
2.78314E+12,Hotel Le Placide Saint Germain Des Pr s,FR,Paris,48.8498439,2.3244253
2.78314E+12,Hotel OFF Paris Seine,FR,Paris,48.8427364,2.3672171
2.78314E+12,Hotel Da Vinci,IT,Milan,45.5331372,9.1711019
2.80032E+12,The Chamberlain,GB,London,51.5122457,-0.0757326
2.80032E+12,Hilton Amsterdam,NL,Amsterdam,ad52.351381_..,4.872723
2.80891E+12,Crowne Plaza London Kings Cross,GB,London,51.5263854,-0.1136042
2.8175E+12,Villa Opera Drouot,FR,Paris,48.8732231,2.3436097
2.8175E+12,Silken Concordia,ES,Barcelona,41.3747873,2.1611846
2.82609E+12,Exe Vienna,AT,Vienna,48.2149414,16.3365285
2.82609E+12,Ca Bianca Hotel Corte Del Naviglio,IT,Milan,45.443502,9.1377081
2.83468E+12,Amadi Park Hotel,NL,Amsterdam,52.364962,4.873495
2.84327E+12,Barcel Sants,ES,Barcelona,41.3798964,2.1412433
2.85186E+12,Legend Saint Germain by Elegancia,FR,Paris,48.8453774,2.3256427
2.85186E+12,Newhotel Roblin,FR,Paris,48.8714152,8027834409
2.86045E+12,Strand Palace Hotel,GB,London,51.5110993,-0.1208673
2.86904E+12,Mercure Secession Wien,AT,Vienna,48.200561,16.3647063
2.88622E+12,Holiday Inn Paris Saint Germain des Pr s,FR,Paris,48.846837,2.3258066
2.89481E+12,COQ Hotel Paris,FR,Paris,48.8328764,2.3572531
2.91199E+12,InterContinental London Park Lane,GB,London,51.5038632,-0.1504132
2.91199E+12,NH Amsterdam Museum Quarter,NL,Amsterdam,52.3560923,4.8858229
2.92058E+12,Hotel Malte Astotel,FR,Paris,48.8672474,2.33738
2.92917E+12,M by Montcalm Shoreditch London Tech City,GB,London,51.5278465,-0.0889473
2.92917E+12,UNA Hotel Cusani,IT,Milan,45.4684251,9.1834161
2.93776E+12,Castille Paris Starhotels Collezione,FR,Paris,48.8682978,2.3268027
2.94635E+12,H tel Bedford,FR,Paris,48.8720593,2.3236802
2.95494E+12,Hotel Plaza Elys es,FR,Paris,48.8746128,2.3056956
2.95494E+12,Suites H tel Helzear Montparnasse,FR,Paris,48.8346811,2.3255098
2.95494E+12,Hotel Capricorno,AT,Vienna,48.2111522,16.3788631
2.97212E+12,H tel Th r se,FR,Paris,48.8816306,2.2992146
2.98071E+12,The Franklin Hotel Starhotels Collezione,GB,London,51.4960283,-0.1686355
2.98071E+12,W Barcelona,ES,Barcelona,41.368437,2.1901534
2.9893E+12,HCC Regente,ES,Barcelona,ad41.3922919_..,2.1622256
2.99789E+12,NH Milano Palazzo Moscova,IT,Milan,45.480968,9.189977
3.00648E+12,Hotel Bristol A Luxury Collection Hotel,AT,Vienna,48.2024907,16.3702656
3.01507E+12,Antares Hotel Rubens,IT,Milan,45.4670579,9.1427822
3.02366E+12,Buddha Bar Hotel Paris,FR,Paris,48.8694695,2.3208564
3.03225E+12,H tel San R gis,FR,Paris,48.8665788,2.3084447
3.03225E+12,Best Western Madison Hotel,IT,Milan,45.4881471,9.2016609
3.04084E+12,Catalonia Catedral,ES,Barcelona,41.3846637,2.1740902
3.04943E+12,Hotel Scribe Paris Opera by Sofitel,FR,Paris,48.8704175,2.3296832
3.04943E+12,The Beaufort,GB,London,51.4978466,-0.164156
3.04943E+12,Hotel Mozart,IT,Milan,45.4834133,9.1666361
3.05802E+12,The Marylebone Hotel,GB,London,51.5180207,-0.1500567
3.06661E+12,The Tophams Hotel,GB,London,51.4957436,-0.1477528
3.06661E+12,Grand Ferdinand Vienna Your Hotel In The City Center,AT,Vienna,48.2022415,16.3749336
3.0752E+12,Le Dokhan s a Tribute Portfolio Hotel,FR,Paris,48.8663359,2.2867935
3.0752E+12,Silken Gran Hotel Havana,ES,Barcelona,41.3927101,2.1722139
3.08379E+12,Grosvenor House Suites by Jumeirah Living,GB,London,51.509841,-0.1552193
3.09238E+12,Holiday Inn Paris Notre Dame,FR,Paris,48.8528427,2.3422256
3.10097E+12,H tel Chaplain Paris Rive Gauche,FR,Paris,48.8427564,2.3305636
3.10956E+12,H tel de Banville,FR,Paris,48.8864673,2.2948911
3.10956E+12,The Piccadilly London West End,GB,London,51.5121957,-0.1318384
3.10956E+12,Catalonia Diagonal Centro,ES,Barcelona,41.3938632,2.1568039
3.11815E+12,Radisson Blu Edwardian Bloomsbury Street,GB,London,51.517608,-0.1276253
3.12674E+12,Le Burgundy Paris,FR,Paris,48.8680055,2.3260075
3.12674E+12,Park Inn by Radisson Uno City Vienna,AT,Vienna,48.2340799,16.4210093
3.14392E+12,The Montcalm Marble Arch,GB,London,51.5150522,-0.159239
3.14392E+12,M venpick Hotel Amsterdam City Centre,NL,Amsterdam,52.3781016,4.9142508
3.15251E+12,The Nadler Soho,GB,London,51.5147387,-0.1341108
3.15251E+12,Auteuil Tour Eiffel,FR,Paris,48.8506499,
3.1611E+12,A La Villa Madame,FR,Paris,48.8488608,2.3315257
3.16969E+12,Duret,FR,Paris,,2.286653
3.16969E+12,Novotel Milano Nord Ca Granda,IT,Milan,45.506502,9.1965192
3.17828E+12,Pestana Chelsea Bridge Hotel Spa,GB,London,51.4815995,-0.1481053
3.17828E+12,25hours Hotel beim MuseumsQuartier,AT,Vienna,48.2064745,16.3546297
3.18687E+12,Waldorf Madeleine,FR,Paris,48.8715828,2.3224853
3.18687E+12,Golden Tulip Bercy Gare de Lyon 209,FR,Paris,48.8393229,2.3892274
3.18687E+12,Alma Boutique Hotel,AT,Vienna,48.2112491,16.3776519
3.19546E+12,Hotel Parco di Sch nbrunn Vienna,AT,Vienna,48.1776236,16.3243588
3.20405E+12,Mandarin Oriental Paris,FR,Paris,48.8671889,2.326927
3.20405E+12,The Wittmore Adults Only,ES,Barcelona,41.380939,2.1796095
3.21264E+12,Luxury Suites Amsterdam,NL,Amsterdam,52.3702613,4.9032489
3.22123E+12,Francois 1er,FR,Paris,48.8701887,2.2997281
3.22123E+12,Catalonia Barcelona Plaza,ES,Barcelona,41.3750293,2.1491172
3.22982E+12,Olivia Balmes Hotel,ES,Barcelona,41.392095,2.158493
3.23841E+12,Le Relais M dicis,FR,Paris,48.8497618,2.3392336
3.247E+12,Hotel Astra Opera Astotel,FR,Paris,48.8718321,2.3278866
3.25559E+12,Hotel d Orsay Esprit de France,FR,Paris,48.8603599,2.3230778
3.25559E+12,Hotel Regina,AT,Vienna,48.2163343,16.3595536
3.26418E+12,Holiday Inn London Mayfair,GB,London,51.507746,-0.1422993
3.26418E+12,Hotel Erzherzog Rainer,AT,Vienna,48.1953229,16.3672882
3.27277E+12,Hotel Stendhal Place Vend me Paris MGallery by Sofitel,FR,Paris,48.8681455,2.3313064
3.28136E+12,NH Barcelona Stadium,ES,Barcelona,41.3812574,2.1269078
3.28994E+12,Victoire Germain,FR,Paris,48.853299,2.337993
3.29853E+12,H tel Amastan Paris,FR,Paris,48.8716831,2.3123759
3.30712E+12,H tel La Comtesse by Elegancia,FR,Paris,48.853865,2.3072019
3.31571E+12,The Corner Hotel,ES,Barcelona,41.3890578,2.1565948
3.3243E+12,The Cavendish London,GB,London,51.5077459,-0.1378733
3.3243E+12,Hotel Capitol Milano,IT,Milan,45.4661781,9.1588367
3.3243E+12,Hotel Kaiserin Elisabeth,AT,Vienna,48.2072348,16.372238
3.33289E+12,Four Seasons Hotel London at Park Lane,GB,London,51.504439,-0.149911
3.34148E+12,Col n Hotel Barcelona,ES,Barcelona,41.3849613,2.1756666
3.34148E+12,Thistle Euston,GB,Fitzrovia,51.5291423,-0.1372782
3.35007E+12,H tel Arvor Saint Georges,FR,Paris,48.8785454,2.3384866
3.35866E+12,Hotel La Place,GB,London,51.5215257,-0.1533039
3.35866E+12,H10 Urquinaona Plaza,ES,Barcelona,41.3892128,2.1726015
3.36725E+12,Hilton London Wembley,GB,London,51.5576962,-0.2835263
3.37584E+12,Villa d Estr es,FR,Paris,48.8535089,2.3425787
3.37584E+12,Abba Sants,ES,Barcelona,41.3825777,2.1400103
3.38443E+12,Holiday Inn Amsterdam Arena Towers,NL,Amsterdam Zuidoost,52.3096835,4.9422614
3.38443E+12,Good Hotel London,GB,London,51.5084195,0.0253216
3.39302E+12,Renaissance Paris Republique Hotel Spa,FR,Paris,48.8687804,2.3610196
3.39302E+12,Hotel Magna Pars Small Luxury Hotels of the World,IT,Milan,45.4524879,9.1669784
3.40161E+12,Rocco Forte Brown s Hotel,GB,London,51.5090558,-0.1421661
3.40161E+12,Hotel Spadari Al Duomo,IT,Milan,45.463579,9.1869092
3.4102E+12,Amba Hotel Marble Arch,GB,London,161371074.4,-0.1565506
3.41879E+12,Hotel Am Konzerthaus Vienna MGallery by Sofitel,AT,Vienna,48.1996129,16.3773546
3.41879E+12,The College Hotel,NL,Amsterdam,52.3527675,4.88373
3.42738E+12,Hampshire Hotel Amsterdam American,NL,Amsterdam,52.363889,4.881302
