Id	Name	Country	City	Latitude	Longitude	Allocation
2551210000000.0	Mercure Hotel Raphael Wien	AT	Vienna	48.1919288	16.3391395	('AT', 'Vienna')
2310690000000.0	Hotel Schild	AT	Vienna	48.251195	16.2989165	('AT', 'Vienna')
2740190000000.0	Schlosshotel R mischer Kaiser	AT	Vienna	48.2040859	16.3725046	('AT', 'Vienna')
2602750000000.0	Arthotel ANA Prime	AT	Vienna	48.1925582	16.3576071	('AT', 'Vienna')
2018630000000.0	Pertschy Palais Hotel	AT	Vienna	48.2082256	16.3684123	('AT', 'Vienna')
2336460000000.0	Holiday Inn Vienna City	AT	Vienna	48.1935593	16.3616098	('AT', 'Vienna')
1735170000000.0	Hotel Zeitgeist Vienna Hauptbahnhof	AT	Vienna	48.1829645	16.3776709	('AT', 'Vienna')
1760940000000.0	Hotel Royal	AT	Vienna	48.2078727	16.3724042	('AT', 'Vienna')
3066610000000.0	Grand Ferdinand Vienna Your Hotel In The City Center	AT	Vienna	48.2022415	16.3749336	('AT', 'Vienna')
2508260000000.0	Rainers Hotel Vienna	AT	Vienna	48.1791893	16.3625367	('AT', 'Vienna')
3418790000000.0	Hotel Am Konzerthaus Vienna MGallery by Sofitel	AT	Vienna	48.1996129	16.3773546	('AT', 'Vienna')
2534030000000.0	Hotel Gallitzinberg	AT	Vienna	48.2145071	16.2845042	('AT', 'Vienna')
1984270000000.0	Hotel Mercure Wien City	AT	Vienna	48.2152663	16.376103	('AT', 'Vienna')
2078760000000.0	Hilton Vienna Plaza	AT	Vienna	48.2155236	16.3646858	('AT', 'Vienna')
2551210000000.0	The Guesthouse Vienna	AT	Vienna	48.2051299	16.369036	('AT', 'Vienna')
2886220000000.0	Hotel Boltzmann	AT	Vienna	48.2216779	16.3567111	('AT', 'Vienna')
2345050000000.0	Fleming s Conference Hotel Wien	AT	Vienna	48.1995177	16.3388225	('AT', 'Vienna')
1932740000000.0	Hotel Das Tigra	AT	Vienna	48.2121772	16.3680771	('AT', 'Vienna')
2662880000000.0	Hotel Kavalier	AT	Vienna	48.1940487	16.2971831	('AT', 'Vienna')
3178280000000.0	Strandhotel Alte Donau	AT	Vienna	48.2390022	16.4292329	('AT', 'Vienna')
1915560000000.0	Mercure Vienna First	AT	Vienna	48.2114567	16.3738677	('AT', 'Vienna')
1803890000000.0	pentahotel Vienna	AT	Vienna	48.1899743	16.3567007	('AT', 'Vienna')
2473900000000.0	Hotel Corvinus	AT	Vienna	48.1990335	16.3525051	('AT', 'Vienna')
1812480000000.0	Hotel Stefanie	AT	Vienna	48.2142766	16.3801779	('AT', 'Vienna')
1967100000000.0	Vienna Sporthotel	AT	Vienna	48.191373	16.4082294	('AT', 'Vienna')
3195460000000.0	Hotel Parco di Sch nbrunn Vienna	AT	Vienna	48.1776236	16.3243588	('AT', 'Vienna')
1821070000000.0	Hotel Amadeus	AT	Vienna	48.2104468	16.3715781	('AT', 'Vienna')
2241970000000.0	Courtyard by Marriott Vienna Schoenbrunn	AT	Vienna	48.184732	16.3211959	('AT', 'Vienna')
2714420000000.0	Falkensteiner Hotel Wien Zentrum Schottenfeld	AT	Vienna	48.2048494	16.343618	('AT', 'Vienna')
2869040000000.0	Austria Trend Hotel Astoria Wien	AT	Vienna	48.2044655	16.3702399	('AT', 'Vienna')
1778120000000.0	Eurostars Embassy	AT	Vienna	48.1964001	16.3958668	('AT', 'Vienna')
2276330000000.0	Hilton Vienna	AT	Vienna	48.2062268	16.3833767	('AT', 'Vienna')
1992860000000.0	Das Opernring Hotel	AT	Vienna	48.2026449	16.3671054	('AT', 'Vienna')
2284920000000.0	Vienna Marriott Hotel	AT	Vienna	48.2050967	16.3770928	('AT', 'Vienna')
3118150000000.0	The Levante Parliament A Design Hotel	AT	Vienna	48.2083518	16.354532	('AT', 'Vienna')
1958510000000.0	Gartenhotel Altmannsdorf Hotel 1	AT	Vienna	48.1640345	16.3216061	('AT', 'Vienna')
2585570000000.0	Imperial Riding School Renaissance Vienna Hotel	AT	Vienna	48.1966396	16.3863822	('AT', 'Vienna')
2310690000000.0	Hotel Am Parkring	AT	Vienna	48.2056333	16.3778615	('AT', 'Vienna')
2886220000000.0	Saint SHERMIN bed breakfast champagne	AT	Vienna	48.1978409	16.367087	('AT', 'Vienna')
2826090000000.0	Hotel Mailberger Hof	AT	Vienna	48.204183	16.3726664	('AT', 'Vienna')
2637110000000.0	Der Wilhelmshof	AT	Vienna	48.2185837	16.3881339	('AT', 'Vienna')
3255590000000.0	Hotel Regina	AT	Vienna	48.2163343	16.3595536	('AT', 'Vienna')
2448130000000.0	Grand Hotel Wien	AT	Vienna	48.2021105	16.3720841	('AT', 'Vienna')
2319280000000.0	The Ritz Carlton Vienna	AT	Vienna	48.2022742	16.3762615	('AT', 'Vienna')
3178280000000.0	25hours Hotel beim MuseumsQuartier	AT	Vienna	48.2064745	16.3546297	('AT', 'Vienna')
2190430000000.0	Hotel Topazz	AT	Vienna	48.210285	16.373579	('AT', 'Vienna')
2851860000000.0	Hotel K nig von Ungarn	AT	Vienna	48.2082215	16.3751842	('AT', 'Vienna')
2817500000000.0	Best Western Premier Kaiserhof Wien	AT	Vienna	48.1975497	16.3686397	('AT', 'Vienna')
2362230000000.0	Hotel Bellevue Wien	AT	Vienna	48.2264063	16.3600628	('AT', 'Vienna')
2723010000000.0	Best Western Hotel Pension Arenberg Wien Zentrum	AT	Vienna	48.2107358	16.382147	('AT', 'Vienna')
2731600000000.0	Hotel Domizil	AT	Vienna	48.2080479	16.375612	('AT', 'Vienna')
2843270000000.0	Atlantis Hotel Vienna	AT	Vienna	48.2037451	16.3356767	('AT', 'Vienna')
3186870000000.0	Alma Boutique Hotel	AT	Vienna	48.2112491	16.3776519	('AT', 'Vienna')
3264180000000.0	Hotel Erzherzog Rainer	AT	Vienna	48.1953229	16.3672882	('AT', 'Vienna')
3178280000000.0	Hotel Beethoven Wien	AT	Vienna	48.2000165	16.3641802	('AT', 'Vienna')
2293510000000.0	FourSide Hotel Suites Vienna	AT	Vienna	48.2565936	16.4031426	('AT', 'Vienna')
2817500000000.0	Hilton Vienna Danube Waterfront	AT	Vienna	48.2140659	16.4217627	('AT', 'Vienna')
2911990000000.0	Austria Trend Hotel Anatol Wien	AT	Vienna	48.1945774	16.346356	('AT', 'Vienna')
2310690000000.0	Mercure Josefshof Wien	AT	Vienna	48.2085627	16.3541687	('AT', 'Vienna')
2018630000000.0	NH Danube City	AT	Vienna	48.2353789	16.4219737	('AT', 'Vienna')
2027220000000.0	Hotel Landhaus Fuhrgassl Huber	AT	Vienna	48.2508693	16.304957	('AT', 'Vienna')
2396590000000.0	Palais Coburg Residenz	AT	Vienna	48.2058584	16.3766545	('AT', 'Vienna')
2525440000000.0	Sofitel Vienna Stephansdom	AT	Vienna	48.212857	16.37986	('AT', 'Vienna')
2980710000000.0	Hotel Imperial A Luxury Collection Hotel	AT	Vienna	48.2012505	16.3731255	('AT', 'Vienna')
2190430000000.0	Austria Trend Hotel Doppio Wien	AT	Vienna	48.1854312	16.404884	('AT', 'Vienna')
3324300000000.0	Hotel Kaiserin Elisabeth	AT	Vienna	48.2072348	16.372238	('AT', 'Vienna')
2551210000000.0	Hotel Ambassador	AT	Vienna	48.2057193	16.3710878	('AT', 'Vienna')
2585570000000.0	The Harmonie Vienna	AT	Vienna	48.2199427	16.3598984	('AT', 'Vienna')
2886220000000.0	Small Luxury Hotel Altstadt Vienna	AT	Vienna	48.2047761	16.3512515	('AT', 'Vienna')
2869040000000.0	Austria Trend Hotel Park Royal Palace Vienna	AT	Vienna	48.191339	16.3165873	('AT', 'Vienna')
2851860000000.0	Hotel Sacher Wien	AT	Vienna	48.2038793	16.3698086	('AT', 'Vienna')
3126740000000.0	Park Inn by Radisson Uno City Vienna	AT	Vienna	48.2340799	16.4210093	('AT', 'Vienna')
2027220000000.0	DO CO Hotel Vienna	AT	Vienna	48.2082385	16.3715725	('AT', 'Vienna')
2173250000000.0	Aparthotel Adagio Vienna City	AT	Vienna	48.2110845	16.3838405	('AT', 'Vienna')
2233380000000.0	Hotel Lam e	AT	Vienna	48.2102677	16.3741269	('AT', 'Vienna')
1872610000000.0	Hotel Wandl	AT	Vienna	48.2097026	16.3703902	('AT', 'Vienna')
1812480000000.0	NH Collection Wien Zentrum	AT	Vienna	48.1979979	16.3483314	('AT', 'Vienna')
3143920000000.0	Austria Trend Hotel Europa Wien	AT	Vienna	48.2062103	16.3710387	('AT', 'Vienna')
3427380000000.0	Hotel de France Wien	AT	Vienna	48.2146623	16.3627994	('AT', 'Vienna')
3418790000000.0	Mercure Grand Hotel Biedermeier Wien	AT	Vienna	48.2038688	16.3887039	('AT', 'Vienna')
3427380000000.0	Hotel Vienna	AT	Vienna	48.2196722	16.3863588	('AT', 'Vienna')
1735170000000.0	K K Palais Hotel	AT	Vienna	48.2138096	16.3714293	('AT', 'Vienna')
3186870000000.0	Das Triest Hotel	AT	Vienna	48.1974036	16.3673003	('AT', 'Vienna')
3100970000000.0	Palais Hansen Kempinski Vienna	AT	Vienna	48.2163149	16.3685103	('AT', 'Vienna')
1898380000000.0	FourSide Hotel Vienna City Center	AT	Vienna	48.1825159	16.3322428	('AT', 'Vienna')
1752350000000.0	Hotel Sans Souci Wien	AT	Vienna	48.204576	16.3563661	('AT', 'Vienna')
3324300000000.0	Hotel Palais Strudlhof	AT	Vienna	48.2217697	16.3578738	('AT', 'Vienna')
1778120000000.0	Hotel Johann Strauss	AT	Vienna	48.1949694	16.3692624	('AT', 'Vienna')
3350070000000.0	Boutiquehotel Das Tyrol	AT	Vienna	48.2008957	16.3592496	('AT', 'Vienna')
2783140000000.0	Arion Cityhotel Vienna und Appartements	AT	Vienna	48.1585332	16.3451115	('AT', 'Vienna')
1889790000000.0	Le Meridien Vienna	AT	Vienna	48.2027296	16.3661211	('AT', 'Vienna')
2723010000000.0	BEST WESTERN PLUS Amedia Wien	AT	Vienna	48.1923791	16.3994512	('AT', 'Vienna')
2826090000000.0	Exe Vienna	AT	Vienna	48.2149414	16.3365285	('AT', 'Vienna')
3255590000000.0	Hotel Arkadenhof	AT	Vienna	48.2307014	16.3552189	('AT', 'Vienna')
1717990000000.0	Park Hyatt Vienna	AT	Vienna	48.2105243	16.3683592	('AT', 'Vienna')
3324300000000.0	Appartement Hotel an der Riemergasse	AT	Vienna	48.2071576	16.3765913	('AT', 'Vienna')
3350070000000.0	InterContinental Wien	AT	Vienna	48.2019865	16.3789934	('AT', 'Vienna')
3247000000000.0	Hotel J ger	AT	Vienna	48.2238463	16.3138357	('AT', 'Vienna')
3332890000000.0	Simm s Hotel	AT	Vienna	48.1790835	16.4116997	('AT', 'Vienna')
2293510000000.0	Steigenberger Hotel Herrenhof	AT	Vienna	48.2097958	16.3658705	('AT', 'Vienna')
1743760000000.0	Austria Trend Hotel Savoyen Vienna	AT	Vienna	48.1950444	16.3844751	('AT', 'Vienna')
3384430000000.0	Austria Trend Hotel Rathauspark Wien	AT	Vienna	48.2133054	16.3567884	('AT', 'Vienna')
2869040000000.0	Mercure Secession Wien	AT	Vienna	48.200561	16.3647063	('AT', 'Vienna')
3255590000000.0	Lindner Hotel Am Belvedere	AT	Vienna	48.1955998	16.3826989	('AT', 'Vienna')
1760940000000.0	Austria Trend Hotel Ananas Wien	AT	Vienna	48.1915401	16.3546263	('AT', 'Vienna')
3367250000000.0	JUFA Hotel Wien	AT	Vienna	48.1756283	16.4200957	('AT', 'Vienna')
3221230000000.0	NH Wien City	AT	Vienna	48.2002872	16.3547746	('AT', 'Vienna')
2164660000000.0	Hollmann Beletage Design Boutique	AT	Vienna	48.2105156	16.3760717	('AT', 'Vienna')
1778120000000.0	Falkensteiner Hotel Wien Margareten	AT	Vienna	48.1868107	16.3440157	('AT', 'Vienna')
1786710000000.0	Suite Hotel 900 m zur Oper	AT	Vienna	48.1935235	16.3669145	('AT', 'Vienna')
2954940000000.0	Hotel Capricorno	AT	Vienna	48.2111522	16.3788631	('AT', 'Vienna')
3341480000000.0	Hotel Rathaus Wein Design	AT	Vienna	48.2075294	16.3525967	('AT', 'Vienna')
2765960000000.0	Hotel Nestroy Wien	AT	Vienna	48.2178332	16.3821636	('AT', 'Vienna')
3247000000000.0	Hotel Am Schubertring	AT	Vienna	48.2017277	16.375463	('AT', 'Vienna')
1829660000000.0	Senator Hotel Vienna	AT	Vienna	48.2195864	16.3255339	('AT', 'Vienna')
1967100000000.0	Austria Trend Hotel Bosei Wien	AT	Vienna	48.1629737	16.3404024	('AT', 'Vienna')
2929170000000.0	IntercityHotel Wien	AT	Vienna	48.1965878	16.3413729	('AT', 'Vienna')
2920580000000.0	NH Wien Belvedere	AT	Vienna	48.1954348	16.383429	('AT', 'Vienna')
2448130000000.0	Am Spiegeln	AT	Vienna	48.1537005	16.2825822	('AT', 'Vienna')
1915560000000.0	The Ring Vienna s Casual Luxury Hotel	AT	Vienna	48.2017091	16.3710205	('AT', 'Vienna')
1803890000000.0	Novotel Wien City	AT	Vienna	48.2134246	16.3831309	('AT', 'Vienna')
2018630000000.0	Arthotel ANA Westbahn	AT	Vienna	48.1979514	16.336318	('AT', 'Vienna')
2010040000000.0	Hilton Garden Inn Vienna South	AT	Vienna	48.1667886	16.344908	('AT', 'Vienna')
1975680000000.0	Hotel ViennArt am Museumsquartier	AT	Vienna	48.2035677	16.356445	('AT', 'Vienna')
1864020000000.0	Arthotel ANA Boutique Six	AT	Vienna	48.1941905	16.3462578	('AT', 'Vienna')
1829660000000.0	Hotel Imlauer Wien	AT	Vienna	48.2176776	16.3821364	('AT', 'Vienna')
3006480000000.0	Hotel Bristol A Luxury Collection Hotel	AT	Vienna	48.2024907	16.3702656	('AT', 'Vienna')
3195460000000.0	Courtyard by Marriott Vienna Prater Messe	AT	Vienna	48.2130607	16.4133973	('AT', 'Vienna')
1889790000000.0	City Rooms	AT	Vienna	48.2133296	16.3471399	('AT', 'Vienna')
2654290000000.0	Mercure Wien Zentrum	AT	Vienna	48.2114087	16.3746469	('AT', 'Vienna')
3204050000000.0	Hotel Eitlj rg	AT	Vienna	48.1513676	16.4064709	('AT', 'Vienna')
3221230000000.0	Club Hotel Cortina	AT	Vienna	48.1877942	16.2727214	('AT', 'Vienna')
2018630000000.0	Austria Trend Parkhotel Sch nbrunn Wien	AT	Vienna	48.1866506	16.3023375	('AT', 'Vienna')
2637110000000.0	Leonardo Hotel Vienna	AT	Vienna	48.1945297	16.340327	('AT', 'Vienna')
1846840000000.0	Graben Hotel	AT	Vienna	48.2078955	16.3701084	('AT', 'Vienna')
2817500000000.0	Pakat Suites Hotel	AT	Vienna	48.19183	16.3770876	('AT', 'Vienna')
2843270000000.0	Barcel Sants	ES	Barcelona	41.3798964	2.1412433	('ES', 'Barcelona')
2379410000000.0	Onix Liceo	ES	Barcelona	41.3780229	2.1730782	('ES', 'Barcelona')
2396590000000.0	NH Collection Barcelona Gran Hotel Calder n	ES	Barcelona	41.3894654	2.1662651	('ES', 'Barcelona')
1717990000000.0	Acta Atrium Palace	ES	Barcelona	41.390913	2.1706981	('ES', 'Barcelona')
2826090000000.0	Claris Hotel Spa GL	ES	Barcelona	41.3944848	2.1651078	('ES', 'Barcelona')
2430950000000.0	Hotel Midmost	ES	Barcelona	41.3856173	2.1659487	('ES', 'Barcelona')
2113120000000.0	ABaC Restaurant Hotel Barcelona GL Monumento	ES	Barcelona	41.4106944	2.136294	('ES', 'Barcelona')
2954940000000.0	Sansi Diputacio	ES	Barcelona	41.3882234	2.1644551	('ES', 'Barcelona')
1855430000000.0	Crowne Plaza Barcelona Fira Center	ES	Barcelona	41.3725246	2.1540788	('ES', 'Barcelona')
2224790000000.0	Hotel Pulitzer	ES	Barcelona	41.386136	2.1682914	('ES', 'Barcelona')
1915560000000.0	U232 Hotel	ES	Barcelona	41.3895237	2.1490307	('ES', 'Barcelona')
2439540000000.0	Grand Hotel Central	ES	Barcelona	41.3849695	2.1776631	('ES', 'Barcelona')
2319280000000.0	Grupotel Gran Via 678	ES	Barcelona	41.392344	2.1729157	('ES', 'Barcelona')
3384430000000.0	Hotel 1898	ES	Barcelona	41.3834673	2.1712016	('ES', 'Barcelona')
2534030000000.0	Mercer Hotel Barcelona	ES	Barcelona	41.3827	2.1791999	('ES', 'Barcelona')
2327870000000.0	Alexandra Barcelona A DoubleTree by Hilton	ES	Barcelona	41.3931918	2.16152	('ES', 'Barcelona')
2525440000000.0	Cotton House Hotel Autograph Collection	ES	Barcelona	41.3915897	2.1720108	('ES', 'Barcelona')
3393020000000.0	Petit Palace Museum	ES	Barcelona	41.3888014	2.1653738	('ES', 'Barcelona')
1769530000000.0	Sansi Pedralbes	ES	Barcelona	41.39367	2.1115418	('ES', 'Barcelona')
2508260000000.0	Primero Primera	ES	Barcelona	41.4002812	2.1297427	('ES', 'Barcelona')
1881200000000.0	Exe Laietana Palace	ES	Barcelona	41.3833541	2.1794038	('ES', 'Barcelona')
2336460000000.0	Sall s Hotel Pere IV	ES	Barcelona	41.3969273	2.192267	('ES', 'Barcelona')
2516850000000.0	Eurostars Ramblas	ES	Barcelona	41.3780983	2.1762005	('ES', 'Barcelona')
3393020000000.0	Gran Hotel Barcino	ES	Barcelona	41.3830582	2.1778267	('ES', 'Barcelona')
3418790000000.0	HCC St Moritz	ES	Barcelona	41.3908486	2.1680745	('ES', 'Barcelona')
1992860000000.0	Alma Barcelona GL	ES	Barcelona	41.3945074	2.1632659	('ES', 'Barcelona')
3324300000000.0	Ilunion Bel Art	ES	Barcelona	41.4101934	2.1695574	('ES', 'Barcelona')
2765960000000.0	Catalonia Born	ES	Barcelona	41.3896916	2.1798661	('ES', 'Barcelona')
2482490000000.0	Hotel Balmoral	ES	Barcelona	41.3961294	2.1551626	('ES', 'Barcelona')
2817500000000.0	Silken Concordia	ES	Barcelona	41.3747873	2.1611846	('ES', 'Barcelona')
2482490000000.0	Hotel Granados 83	ES	Barcelona	41.391843	2.156844	('ES', 'Barcelona')
2027220000000.0	The Level at Melia Barcelona Sky	ES	Barcelona	41.406146	2.2008636	('ES', 'Barcelona')
2027220000000.0	Eurostars Cristal Palace	ES	Barcelona	41.3897945	2.1660575	('ES', 'Barcelona')
2843270000000.0	Mandarin Oriental Barcelona	ES	Barcelona	41.391393	2.1668467	('ES', 'Barcelona')
2379410000000.0	Barcelona Princess	ES	Barcelona	41.4109715	2.2186535	('ES', 'Barcelona')
2980710000000.0	Hotel Gran Derby Suites	ES	Barcelona	41.3900104	2.1422396	('ES', 'Barcelona')
2980710000000.0	Hotel Regina	ES	Barcelona	41.3858891	2.1681652	('ES', 'Barcelona')
3186870000000.0	Duquesa Suites Barcelona	ES	Barcelona	41.3810421	2.1814294	('ES', 'Barcelona')
1846840000000.0	Duquesa de Cardona	ES	Barcelona	41.3798658	2.1805271	('ES', 'Barcelona')
1855430000000.0	Hotel Balmes	ES	Barcelona	41.3910621	2.1593373	('ES', 'Barcelona')
2911990000000.0	H10 Itaca	ES	Barcelona	41.3810311	2.1455516	('ES', 'Barcelona')
2997890000000.0	Evenia Rossello	ES	Barcelona	41.3920254	2.1554675	('ES', 'Barcelona')
2903400000000.0	Hotel Neri	ES	Barcelona	41.3832498	2.1753483	('ES', 'Barcelona')
1864020000000.0	Petit Palace Barcelona	ES	Barcelona	41.3909816	2.1714938	('ES', 'Barcelona')
2800320000000.0	Abba Garden	ES	Barcelona	41.3854716	2.1018835	('ES', 'Barcelona')
1941330000000.0	Royal Passeig de Gracia	ES	Barcelona	41.3946775	2.162638	('ES', 'Barcelona')
1958510000000.0	Ofelias Hotel 4 Sup	ES	Barcelona	41.3957584	2.1822402	('ES', 'Barcelona')
1889790000000.0	Zenit Barcelona	ES	Barcelona	41.3949199	2.1468594	('ES', 'Barcelona')
1915560000000.0	Tryp Barcelona Apolo Hotel	ES	Barcelona	41.3747031	2.1707106	('ES', 'Barcelona')
2826090000000.0	Barcelona Hotel Colonial	ES	Barcelona	41.3822909	2.1807447	('ES', 'Barcelona')
3006480000000.0	Vincci Mae	ES	Barcelona	41.3933943	2.1461315	('ES', 'Barcelona')
1812480000000.0	Hilton Barcelona	ES	Barcelona	41.388682	2.1316368	('ES', 'Barcelona')
1803890000000.0	Hotel Vilamar	ES	Barcelona	41.3766732	2.1524478	('ES', 'Barcelona')
3281360000000.0	Petit Palace Boqueria Garden	ES	Barcelona	41.3812223	2.1739622	('ES', 'Barcelona')
3332890000000.0	Pol Grace Hotel	ES	Barcelona	41.4017465	2.1477365	('ES', 'Barcelona')
3324300000000.0	Sercotel Amister Art Hotel Barcelona	ES	Barcelona	41.3844072	2.1514584	('ES', 'Barcelona')
3212640000000.0	Pestana Arena Barcelona	ES	Barcelona	41.376801	2.1460443	('ES', 'Barcelona')
3204050000000.0	NH Sants Barcelona	ES	Barcelona	41.384591	2.1378107	('ES', 'Barcelona')
3384430000000.0	Ohla Barcelona	ES	Barcelona	41.3870479	2.174336	('ES', 'Barcelona')
3401610000000.0	H10 Art Gallery 4 Sup	ES	Barcelona	41.392018	2.157066	('ES', 'Barcelona')
3410200000000.0	Fairmont Rey Juan Carlos I	ES	Barcelona	41.3835246	2.1096141	('ES', 'Barcelona')
3418790000000.0	Room Mate Anna	ES	Barcelona	41.3929366	2.1653954	('ES', 'Barcelona')
3135330000000.0	Mercure Barcelona Condor	ES	Barcelona	41.3999934	2.1452467	('ES', 'Barcelona')
3092380000000.0	Vilana Hotel	ES	Barcelona	41.4047934	2.1288527	('ES', 'Barcelona')
1769530000000.0	Hilton Diagonal Mar Barcelona	ES	Barcelona	41.4084334	2.2178205	('ES', 'Barcelona')
1743760000000.0	Ayre Hotel Rosell n	ES	Barcelona	41.4047382	2.1727127	('ES', 'Barcelona')
3049430000000.0	Hotel Spa Villa Olimpica Suites	ES	Barcelona	41.3971434	2.1921947	('ES', 'Barcelona')
1795300000000.0	Hotel Barcelona Universal	ES	Barcelona	41.375237	2.1684058	('ES', 'Barcelona')
1924150000000.0	AC Hotel Irla a Marriott Lifestyle Hotel	ES	Barcelona	41.3948175	2.1434702	('ES', 'Barcelona')
3006480000000.0	Bcn Urban Hotels Gran Rosellon	ES	Barcelona	41.4226648	2.1464261	('ES', 'Barcelona')
2001450000000.0	Hotel Serhs Rivoli Rambla	ES	Barcelona	41.3843222	2.1712893	('ES', 'Barcelona')
2027220000000.0	Eurostars Bcn Design	ES	Barcelona	41.3907208	2.1660732	('ES', 'Barcelona')
2095940000000.0	Medinaceli	ES	Barcelona	41.3781685	2.1786627	('ES', 'Barcelona')
2327870000000.0	Condes de Barcelona	ES	Barcelona	41.3935497	2.1627098	('ES', 'Barcelona')
2319280000000.0	Aparthotel Mariano Cubi Barcelona	ES	Barcelona	41.3982129	2.1494179	('ES', 'Barcelona')
2302100000000.0	Room Mate Gerard	ES	Barcelona	41.3919114	2.1765438	('ES', 'Barcelona')
2293510000000.0	Hotel DO Pla a Reial G L	ES	Barcelona	41.3799929	2.1748256	('ES', 'Barcelona')
3040840000000.0	Eurostars Monumental	ES	Barcelona	41.4006653	2.1787089	('ES', 'Barcelona')
2336460000000.0	Roger de Ll ria	ES	Barcelona	41.3910786	2.1717285	('ES', 'Barcelona')
2276330000000.0	Hotel Espa a Ramblas	ES	Barcelona	41.3799209	2.1728181	('ES', 'Barcelona')
2207610000000.0	TWO Hotel Barcelona by Axel 4 Sup Adults Only	ES	Barcelona	41.37913	2.1561186	('ES', 'Barcelona')
2327870000000.0	Sunotel Club Central	ES	Barcelona	41.38793	2.1568061	('ES', 'Barcelona')
2156070000000.0	H10 Casanova	ES	Barcelona	41.3842608	2.1609471	('ES', 'Barcelona')
2353640000000.0	Ohla Eixample	ES	Barcelona	41.3944574	2.1564353	('ES', 'Barcelona')
2370820000000.0	Hotel The Serras	ES	Barcelona	41.3801815	2.180688	('ES', 'Barcelona')
2190430000000.0	Arenas Atiram Hotels	ES	Barcelona	41.3904305	2.1262314	('ES', 'Barcelona')
2327870000000.0	The One Barcelona GL	ES	Barcelona	41.3961448	2.1631674	('ES', 'Barcelona')
3075200000000.0	Hotel Grums Barcelona	ES	Barcelona	41.3727844	2.1721134	('ES', 'Barcelona')
2345050000000.0	H10 Port Vell 4 Sup	ES	Barcelona	41.3815625	2.1838458	('ES', 'Barcelona')
2207610000000.0	Negresco Princess 4 Sup	ES	Barcelona	41.3905166	2.1725643	('ES', 'Barcelona')
3161100000000.0	Aparthotel Arai 4 Superior	ES	Barcelona	41.3807517	2.1772425	('ES', 'Barcelona')
2044400000000.0	Hotel Well and Come	ES	Barcelona	41.3991773	2.1656134	('ES', 'Barcelona')
1967100000000.0	Hotel Bagu s	ES	Barcelona	41.3827894	2.1715636	('ES', 'Barcelona')
2061580000000.0	NH Hesperia Barcelona Presidente	ES	Barcelona	41.3941338	2.1489569	('ES', 'Barcelona')
2534030000000.0	Barcel Raval	ES	Barcelona	41.3790126	2.1696339	('ES', 'Barcelona')
3152510000000.0	Silken Ramblas	ES	Barcelona	41.3830117	2.1700699	('ES', 'Barcelona')
2516850000000.0	H10 Cubik 4 Sup	ES	Barcelona	41.388024	2.1731556	('ES', 'Barcelona')
2499670000000.0	Guitart Grand Passage	ES	Barcelona	41.3936071	2.1504611	('ES', 'Barcelona')
2130300000000.0	Mercer House B ria BCN	ES	Barcelona	41.3846844	2.1791065	('ES', 'Barcelona')
2001450000000.0	Hotel Alimara	ES	Barcelona	41.4337561	2.147327	('ES', 'Barcelona')
2147480000000.0	Eurohotel Diagonal Port	ES	Barcelona	41.4006708	2.2087844	('ES', 'Barcelona')
2465310000000.0	K K Hotel Picasso	ES	Barcelona	41.3866227	2.1840722	('ES', 'Barcelona')
2430950000000.0	Hotel Garbi Millenni	ES	Barcelona	41.3759896	2.167148	('ES', 'Barcelona')
2370820000000.0	Upper Diagonal	ES	Barcelona	41.39038	2.121	('ES', 'Barcelona')
2078760000000.0	Hotel Derby	ES	Barcelona	41.3897735	2.1419762	('ES', 'Barcelona')
2628520000000.0	Gran Hotel La Florida	ES	Barcelona	41.4253332	2.1211028	('ES', 'Barcelona')
3238410000000.0	Zenit Borrell	ES	Barcelona	41.3859873	2.1514021	('ES', 'Barcelona')
3315710000000.0	Vincci Maritimo	ES	Barcelona	41.4082054	2.2124626	('ES', 'Barcelona')
2594160000000.0	Sixtytwo Hotel	ES	Barcelona	41.3930168	2.1646148	('ES', 'Barcelona')
1743760000000.0	Hotel G tico	ES	Barcelona	41.3835584	2.178311	('ES', 'Barcelona')
3040840000000.0	Monument Hotel	ES	Barcelona	41.3939082	2.1622556	('ES', 'Barcelona')
2388000000000.0	H10 Universitat	ES	Barcelona	41.3869565	2.1665338	('ES', 'Barcelona')
3032250000000.0	Occidental Atenea Mar Adults Only	ES	Barcelona	41.4023621	2.2119049	('ES', 'Barcelona')
3023660000000.0	Hotel Casa Fuster G L Monumento	ES	Barcelona	41.3980162	2.1581229	('ES', 'Barcelona')
2430950000000.0	Acta CITY47	ES	Barcelona	41.383515	2.1407396	('ES', 'Barcelona')
2448130000000.0	NH Collection Barcelona Constanza	ES	Barcelona	41.3885274	2.1360471	('ES', 'Barcelona')
2473900000000.0	AC Hotel Diagonal L Illa a Marriott Lifestyle Hotel	ES	Barcelona	41.3899609	2.135684	('ES', 'Barcelona')
3375840000000.0	Abba Sants	ES	Barcelona	41.3825777	2.1400103	('ES', 'Barcelona')
2482490000000.0	Catalonia Ramblas 4 Sup	ES	Barcelona	41.3856387	2.1668274	('ES', 'Barcelona')
3358660000000.0	H10 Urquinaona Plaza	ES	Barcelona	41.3892128	2.1726015	('ES', 'Barcelona')
3238410000000.0	Hotel Ronda Lesseps	ES	Barcelona	41.408641	2.1478143	('ES', 'Barcelona')
2576980000000.0	Hotel mbit Barcelona	ES	Barcelona	41.3907821	2.1717426	('ES', 'Barcelona')
3315710000000.0	The Corner Hotel	ES	Barcelona	41.3890578	2.1565948	('ES', 'Barcelona')
2327870000000.0	Avenida Palace	ES	Barcelona	41.3891168	2.1671986	('ES', 'Barcelona')
2568390000000.0	Hotel Rekord	ES	Barcelona	41.3985449	2.1438237	('ES', 'Barcelona')
2594160000000.0	AC Hotel Victoria Suites a Marriott Lifestyle Hotel	ES	Barcelona	41.3893478	2.1209755	('ES', 'Barcelona')
3281360000000.0	NH Barcelona Stadium	ES	Barcelona	41.3812574	2.1269078	('ES', 'Barcelona')
2602750000000.0	Hotel Barcelona Center	ES	Barcelona	41.3917169	2.1592614	('ES', 'Barcelona')
2611340000000.0	Hotel Casa Camper	ES	Barcelona	41.3832414	2.1685298	('ES', 'Barcelona')
2680060000000.0	Attica 21 Barcelona Mar	ES	Barcelona	41.4052324	2.2117289	('ES', 'Barcelona')
3229820000000.0	Olivia Balmes Hotel	ES	Barcelona	41.392095	2.158493	('ES', 'Barcelona')
2697240000000.0	The Gates Diagonal Barcelona	ES	Barcelona	41.4036219	2.1902808	('ES', 'Barcelona')
3221230000000.0	Catalonia Barcelona Plaza	ES	Barcelona	41.3750293	2.1491172	('ES', 'Barcelona')
2714420000000.0	Novotel Barcelona City	ES	Barcelona	41.4038774	2.1911894	('ES', 'Barcelona')
2748780000000.0	Gran Hotel Torre Catalunya	ES	Barcelona	41.3795572	2.1425457	('ES', 'Barcelona')
3204050000000.0	The Wittmore Adults Only	ES	Barcelona	41.380939	2.1796095	('ES', 'Barcelona')
2826090000000.0	Catalonia Port	ES	Barcelona	41.378751	2.17873	('ES', 'Barcelona')
2602750000000.0	Cram	ES	Barcelona	41.3880549	2.1599602	('ES', 'Barcelona')
2619930000000.0	Hotel Arts Barcelona	ES	Barcelona	41.3865424	2.1969665	('ES', 'Barcelona')
2929170000000.0	Hotel Barcelona Catedral	ES	Barcelona	41.384829	2.1751277	('ES', 'Barcelona')
3100970000000.0	Vincci Gala	ES	Barcelona	41.3895263	2.1747136	('ES', 'Barcelona')
2302100000000.0	Catalonia Park Putxet	ES	Barcelona	41.4072812	2.1443116	('ES', 'Barcelona')
1769530000000.0	Hotel Omm	ES	Barcelona	41.3962468	2.1609551	('ES', 'Barcelona')
2241970000000.0	Hotel Miramar Barcelona GL	ES	Barcelona	41.3703041	2.17141	('ES', 'Barcelona')
1752350000000.0	Royal Ramblas	ES	Barcelona	41.3842838	2.1707092	('ES', 'Barcelona')
2181840000000.0	Acevi Villarroel	ES	Barcelona	41.3853781	2.1567228	('ES', 'Barcelona')
2173250000000.0	Best Western Premier Hotel Dante	ES	Barcelona	41.3894195	2.1564886	('ES', 'Barcelona')
2302100000000.0	Majestic Hotel Spa Barcelona GL	ES	Barcelona	41.3935179	2.1639813	('ES', 'Barcelona')
2147480000000.0	Ilunion Almirante	ES	Barcelona	41.3860521	2.176157	('ES', 'Barcelona')
2130300000000.0	Ayre Hotel Caspe	ES	Barcelona	41.3961021	2.1794688	('ES', 'Barcelona')
1829660000000.0	Hotel America Barcelona	ES	Barcelona	41.3919083	2.1573318	('ES', 'Barcelona')
2095940000000.0	Catalonia Magdalenes	ES	Barcelona	41.3861283	2.1745291	('ES', 'Barcelona')
1864020000000.0	Aparthotel Atenea Barcelona	ES	Barcelona	41.3862689	2.1291786	('ES', 'Barcelona')
3332890000000.0	Axel Hotel Barcelona Urban Spa Adults Only	ES	Barcelona	41.3873478	2.1603987	('ES', 'Barcelona')
1915560000000.0	Catalonia Atenas	ES	Barcelona	41.4110056	2.1866009	('ES', 'Barcelona')
2061580000000.0	Hotel Margot House	ES	Barcelona	41.3918805	2.1660363	('ES', 'Barcelona')
2336460000000.0	Catalonia Passeig de Gr cia 4 Sup	ES	Barcelona	41.3901396	2.1696699	('ES', 'Barcelona')
2027220000000.0	H10 Casa Mimosa 4 Sup	ES	Barcelona	41.3962106	2.1621171	('ES', 'Barcelona')
1984270000000.0	NH Hesperia Barcelona del Mar	ES	Barcelona	41.4014399	2.2100745	('ES', 'Barcelona')
3281360000000.0	Hotel SB Icaria Barcelona	ES	Barcelona	41.3935591	2.1993915	('ES', 'Barcelona')
3126740000000.0	Ayre Hotel Gran V a	ES	Barcelona	41.3732462	2.1474351	('ES', 'Barcelona')
2250560000000.0	Room Mate Carla	ES	Barcelona	41.3962658	2.1662153	('ES', 'Barcelona')
2465310000000.0	Pullman Barcelona Skipper	ES	Barcelona	41.3860183	2.19473	('ES', 'Barcelona')
3169690000000.0	Catalonia Eixample 1864	ES	Barcelona	41.393599	2.1684151	('ES', 'Barcelona')
1846840000000.0	AC Hotel Sants a Marriott Lifestyle Hotel	ES	Barcelona	41.3775577	2.1384686	('ES', 'Barcelona')
1864020000000.0	Hotel Vueling Bcn by HC	ES	Barcelona	41.3831641	2.1604736	('ES', 'Barcelona')
3109560000000.0	Catalonia Diagonal Centro	ES	Barcelona	41.3938632	2.1568039	('ES', 'Barcelona')
2388000000000.0	Eurostars Grand Marina Hotel GL	ES	Barcelona	41.371308	2.181698	('ES', 'Barcelona')
2104530000000.0	The Mirror Barcelona	ES	Barcelona	41.3930406	2.1545393	('ES', 'Barcelona')
2095940000000.0	Capri by Fraser Barcelona	ES	Barcelona	41.3976233	2.188975	('ES', 'Barcelona')
2052990000000.0	Hotel Casa Bonay	ES	Barcelona	41.3935967	2.1742718	('ES', 'Barcelona')
3255590000000.0	AC Hotel Barcelona Forum a Marriott Lifestyle Hotel	ES	Barcelona	41.4101306	2.2188047	('ES', 'Barcelona')
3264180000000.0	Vincci Bit	ES	Barcelona	41.4114188	2.211756	('ES', 'Barcelona')
2001450000000.0	Hotel Abbot	ES	Barcelona	41.3815028	2.1449138	('ES', 'Barcelona')
1906970000000.0	Gallery Hotel	ES	Barcelona	41.3949242	2.1593099	('ES', 'Barcelona')
2920580000000.0	Hotel Villa Emilia	ES	Barcelona	41.3802469	2.1541149	('ES', 'Barcelona')
3341480000000.0	Col n Hotel Barcelona	ES	Barcelona	41.3849613	2.1756666	('ES', 'Barcelona')
2714420000000.0	Hotel Murmuri Barcelona	ES	Barcelona	41.3941625	2.1597836	('ES', 'Barcelona')
3161100000000.0	Eurostars Angli	ES	Barcelona	41.4031654	2.1231637	('ES', 'Barcelona')
2680060000000.0	H10 Metropolitan 4 Sup	ES	Barcelona	41.3875467	2.1673975	('ES', 'Barcelona')
3204050000000.0	Hotel 4 Barcelona	ES	Barcelona	41.3959587	2.2008981	('ES', 'Barcelona')
2997890000000.0	Catalonia Barcelona 505	ES	Barcelona	41.4034965	2.1370426	('ES', 'Barcelona')
2980710000000.0	W Barcelona	ES	Barcelona	41.368437	2.1901534	('ES', 'Barcelona')
3075200000000.0	Silken Gran Hotel Havana	ES	Barcelona	41.3927101	2.1722139	('ES', 'Barcelona')
3161100000000.0	Catalonia Plaza Catalunya	ES	Barcelona	41.3865289	2.1682919	('ES', 'Barcelona')
3040840000000.0	Catalonia Catedral	ES	Barcelona	41.3846637	2.1740902	('ES', 'Barcelona')
2954940000000.0	Olivia Plaza Hotel	ES	Barcelona	41.3861459	2.1711594	('ES', 'Barcelona')
3032250000000.0	Sunotel Central	ES	Barcelona	41.3841429	2.1616896	('ES', 'Barcelona')
2980710000000.0	Hotel Palace GL	ES	Barcelona	41.3916258	2.1716378	('ES', 'Barcelona')
2637110000000.0	Melia Barcelona Sarri	ES	Barcelona	41.391058	2.141706	('ES', 'Barcelona')
2662880000000.0	Le M ridien Barcelona	ES	Barcelona	41.3837453	2.171014	('ES', 'Barcelona')
3075200000000.0	Catalonia Square 4 Sup	ES	Barcelona	41.3885658	2.1712991	('ES', 'Barcelona')
2662880000000.0	Hotel SB Diagonal Zero Barcelona 4 Sup	ES	Barcelona	41.4111652	2.2192012	('ES', 'Barcelona')
2937760000000.0	H10 Marina Barcelona	ES	Barcelona	41.393227	2.1927427	('ES', 'Barcelona')
2697240000000.0	Catalonia La Pedrera	ES	Barcelona	41.3986093	2.1625037	('ES', 'Barcelona')
2972120000000.0	Wilson Boutique Hotel	ES	Barcelona	41.3944029	2.150194	('ES', 'Barcelona')
1864020000000.0	Hotel Les Bains Paris	FR	Paris	48.863828	2.3519345	('FR', 'Paris')
2723010000000.0	Melia Paris Champs Elys es	FR	Paris	48.8688962	2.2827459	('FR', 'Paris')
1881200000000.0	H tel De Sers Champs Elys es Paris	FR	Paris	48.8683593	2.3002117	('FR', 'Paris')
1906970000000.0	Hotel Duminy Vendome	FR	Paris	48.8654726	2.3292934	('FR', 'Paris')
2791730000000.0	Mill sime H tel	FR	Paris	48.8550236	2.3350786	('FR', 'Paris')
2911990000000.0	H tel Square Louvois	FR	Paris	48.8684165	2.336869	('FR', 'Paris')
1924150000000.0	My Home In Paris	FR	Paris	48.8636049	2.3688352	('FR', 'Paris')
1941330000000.0	Hotel de Seze	FR	Paris	48.8705741	2.3264194	('FR', 'Paris')
1864020000000.0	Maxim Op ra	FR	Paris	48.8738557	2.3444232	('FR', 'Paris')
2740190000000.0	Best Western Op ra Batignolles	FR	Paris	48.8870573	2.3143297	('FR', 'Paris')
1992860000000.0	Hotel Louvre Montana	FR	Paris	48.8644627	2.3318473	('FR', 'Paris')
1838250000000.0	Mercure Paris Porte d Orleans	FR	Paris	48.8178079	2.3293636	('FR', 'Paris')
2362230000000.0	Hotel Parc Saint Severin Esprit de France	FR	Paris	48.8518584	2.3447798	('FR', 'Paris')
2353640000000.0	H tel des Champs Elys es	FR	Paris	48.8722884	2.3090359	('FR', 'Paris')
2731600000000.0	Novotel Paris Centre Bercy	FR	Paris	48.8384558	2.3805885	('FR', 'Paris')
2370820000000.0	Park Hyatt Paris Vendome	FR	Paris	48.8688155	2.3305236	('FR', 'Paris')
3186870000000.0	Suites H tel Helzear Champs Elys es	FR	Paris	48.8691399	2.2981024	('FR', 'Paris')
1889790000000.0	La Villa Royale	FR	Paris	48.8821595	2.3367444	('FR', 'Paris')
1778120000000.0	Hotel Odeon Saint Germain	FR	Paris	48.8513515	2.3375084	('FR', 'Paris')
1992860000000.0	Monhotel Lounge SPA	FR	Paris	48.8743481	2.2897334	('FR', 'Paris')
1786710000000.0	Best Western Plus Elys e Secret	FR	Paris	48.8701247	2.311141	('FR', 'Paris')
3178280000000.0	H tel Du Jeu De Paume	FR	Paris	48.8520377	2.3557092	('FR', 'Paris')
2688650000000.0	Royal Garden Champs Elysees	FR	Paris	48.8757155	2.3038781	('FR', 'Paris')
1975680000000.0	Hotel Spa La Belle Juliette	FR	Paris	48.8474426	2.3223783	('FR', 'Paris')
1975680000000.0	Le Tourville Eiffel	FR	Paris	48.8542681	2.3078116	('FR', 'Paris')
1795300000000.0	Mercure Paris Place d Italie	FR	Paris	48.830196	2.3529539	('FR', 'Paris')
2482490000000.0	H tel Hor	FR	Paris	48.8793427	2.3577745	('FR', 'Paris')
1803890000000.0	Les Jardins Du Marais	FR	Paris	48.8605219	2.3680239	('FR', 'Paris')
1949920000000.0	Hotel Le Squara	FR	Paris	48.884165	2.3328261	('FR', 'Paris')
1924150000000.0	Little Palace Hotel	FR	Paris	48.8675674	2.3539896	('FR', 'Paris')
2808910000000.0	H tel Le Marianne	FR	Paris	48.8725794	2.3075779	('FR', 'Paris')
1906970000000.0	Hotel West End	FR	Paris	48.8671391	2.3038447	('FR', 'Paris')
2439540000000.0	H tel Cristal Champs Elys es	FR	Paris	48.8726814	2.3020866	('FR', 'Paris')
2800320000000.0	Pullman Paris Montparnasse	FR	Paris	48.8382943	2.3210421	('FR', 'Paris')
2705830000000.0	Arioso	FR	Paris	48.8746066	2.3167195	('FR', 'Paris')
2972120000000.0	H tel Th r se	FR	Paris	48.8816306	2.2992146	('FR', 'Paris')
1889790000000.0	La Clef Tour Eiffel	FR	Paris	48.8647019	2.2886425	('FR', 'Paris')
1889790000000.0	Hotel Panache	FR	Paris	48.8732543	2.343239	('FR', 'Paris')
2954940000000.0	Suites H tel Helzear Montparnasse	FR	Paris	48.8346811	2.3255098	('FR', 'Paris')
2765960000000.0	Hotel Eiffel Blomet	FR	Paris	48.8416787	2.3022862	('FR', 'Paris')
2345050000000.0	Splendid Etoile	FR	Paris	48.874707	2.2936761	('FR', 'Paris')
2130300000000.0	Bassano	FR	Paris	48.8690596	2.2971078	('FR', 'Paris')
2920580000000.0	Hotel Malte Astotel	FR	Paris	48.8672474	2.33738	('FR', 'Paris')
3289940000000.0	H tel Victor Hugo Paris Kl ber	FR	Paris	48.8690198	2.2891278	('FR', 'Paris')
3393020000000.0	Forest Hill Paris la Villette	FR	Paris	48.8969854	2.3852745	('FR', 'Paris')
2310690000000.0	Ibis Styles Paris Gare Saint Lazare	FR	Paris	48.8796596	2.3209155	('FR', 'Paris')
3375840000000.0	Best Western Premier Louvre Saint Honor	FR	Paris	48.861711	2.340674	('FR', 'Paris')
3375840000000.0	Bradford Elys es Astotel	FR	Paris	48.8729676	2.3081178	('FR', 'Paris')
2748780000000.0	H tel Pont Royal	FR	Paris	48.8565629	2.3273623	('FR', 'Paris')
2164660000000.0	Op ra Marigny	FR	Paris	48.871723	2.3235377	('FR', 'Paris')
2319280000000.0	H tel Thoumieux	FR	Paris	48.8595985	2.3088076	('FR', 'Paris')
2894810000000.0	COQ Hotel Paris	FR	Paris	48.8328764	2.3572531	('FR', 'Paris')
3350070000000.0	Best Western Nouvel Orl ans Montparnasse	FR	Paris	48.8309896	2.3297301	('FR', 'Paris')
2181840000000.0	Mercure Paris Opera Grands Boulevards	FR	Paris	48.8740668	2.3502172	('FR', 'Paris')
3341480000000.0	Best Western Le 18 Paris	FR	Paris	48.8966167	2.3434843	('FR', 'Paris')
2851860000000.0	Legend Saint Germain by Elegancia	FR	Paris	48.8453774	2.3256427	('FR', 'Paris')
2886220000000.0	Holiday Inn Paris Saint Germain des Pr s	FR	Paris	48.846837	2.3258066	('FR', 'Paris')
2216200000000.0	Mercure Paris Centre Tour Eiffel	FR	Paris	48.8548641	2.2923181	('FR', 'Paris')
2284920000000.0	Le Relais Madeleine	FR	Paris	48.870961	2.3267678	('FR', 'Paris')
2276330000000.0	H tel Balzac	FR	Paris	48.8732785	2.3004174	('FR', 'Paris')
2740190000000.0	H tel Raphael	FR	Paris	48.8713239	2.2937849	('FR', 'Paris')
3358660000000.0	H tel Madison by MH	FR	Paris	48.8531641	2.3344097	('FR', 'Paris')
2748780000000.0	H tel Westminster	FR	Paris	48.8693409	2.3310263	('FR', 'Paris')
2817500000000.0	Villa Opera Drouot	FR	Paris	48.8732231	2.3436097	('FR', 'Paris')
2697240000000.0	H tel Original Paris	FR	Paris	48.8546989	2.3691899	('FR', 'Paris')
2954940000000.0	Hotel Plaza Elys es	FR	Paris	48.8746128	2.3056956	('FR', 'Paris')
2027220000000.0	Villa Alessandra	FR	Paris	48.8794223	2.2957628	('FR', 'Paris')
3023660000000.0	Buddha Bar Hotel Paris	FR	Paris	48.8694695	2.3208564	('FR', 'Paris')
3204050000000.0	Le Cinq Codet	FR	Paris	48.8547869	2.3084819	('FR', 'Paris')
2783140000000.0	Hotel Le Placide Saint Germain Des Pr s	FR	Paris	48.8498439	2.3244253	('FR', 'Paris')
2044400000000.0	H tel de Lille	FR	Paris	48.8585626	2.3299138	('FR', 'Paris')
2052990000000.0	Hotel Saint Petersbourg Opera	FR	Paris	48.872174	2.328075	('FR', 'Paris')
2946350000000.0	H tel Bedford	FR	Paris	48.8720593	2.3236802	('FR', 'Paris')
1786710000000.0	Hotel Dupond Smith	FR	Paris	48.857898	2.3571978	('FR', 'Paris')
2113120000000.0	Ritz Paris	FR	Paris	48.8679466	2.3289593	('FR', 'Paris')
2070170000000.0	Relais Saint Jacques	FR	Paris	48.8430523	2.3422519	('FR', 'Paris')
1760940000000.0	Maison Albar Hotel Paris C line	FR	Paris	48.8606187	2.344401	('FR', 'Paris')
3247000000000.0	Le G n ral H tel	FR	Paris	48.8662695	2.3668616	('FR', 'Paris')
2078760000000.0	H tel Le Royal Monceau Raffles Paris	FR	Paris	48.8756359	2.3004967	('FR', 'Paris')
1743760000000.0	Millennium Hotel Paris Opera	FR	Paris	48.8724588	2.3378004	('FR', 'Paris')
2336460000000.0	K K H tel Cayr Saint Germain des Pr s	FR	Paris	48.8553117	2.3254628	('FR', 'Paris')
2336460000000.0	Mercure Paris Montparnasse Raspail	FR	Paris	48.8412131	2.3302954	('FR', 'Paris')
2937760000000.0	Castille Paris Starhotels Collezione	FR	Paris	48.8682978	2.3268027	('FR', 'Paris')
2095940000000.0	Hotel Des Saints Peres Esprit de France	FR	Paris	48.8534026	2.3299043	('FR', 'Paris')
3418790000000.0	Mercure Paris 15 Porte de Versailles	FR	Paris	48.8382542	2.2903494	('FR', 'Paris')
1760940000000.0	Renaissance Paris Le Parc Trocadero Hotel	FR	Paris	48.8673099	2.2856528	('FR', 'Paris')
1769530000000.0	La Villa Maillot	FR	Paris	48.875551	2.2835191	('FR', 'Paris')
1752350000000.0	Best Western Paris Gare Saint Lazare	FR	Paris	48.8803752	2.319591	('FR', 'Paris')
2826090000000.0	Paris Marriott Champs Elysees Hotel	FR	Paris	48.8711365	2.3050482	('FR', 'Paris')
3075200000000.0	Le Dokhan s a Tribute Portfolio Hotel	FR	Paris	48.8663359	2.2867935	('FR', 'Paris')
3023660000000.0	Hotel Maison FL	FR	Paris	48.8396395	2.2663056	('FR', 'Paris')
2336460000000.0	Hotel Villa Saxe Eiffel	FR	Paris	48.849758	2.3095213	('FR', 'Paris')
2645700000000.0	Holiday Inn Paris Elys es	FR	Paris	48.8730437	2.3161144	('FR', 'Paris')
3238410000000.0	Le Relais M dicis	FR	Paris	48.8497618	2.3392336	('FR', 'Paris')
2568390000000.0	Novotel Paris Les Halles	FR	Paris	48.8607299	2.3465326	('FR', 'Paris')
3247000000000.0	Hotel Astra Opera Astotel	FR	Paris	48.8718321	2.3278866	('FR', 'Paris')
2319280000000.0	Hotel Mademoiselle	FR	Paris	48.8772493	2.3543043	('FR', 'Paris')
3032250000000.0	Franklin Roosevelt	FR	Paris	48.8678432	2.3033075	('FR', 'Paris')
2302100000000.0	Hotel Monge	FR	Paris	48.8447938	2.3524462	('FR', 'Paris')
3040840000000.0	Sofitel Paris Le Faubourg	FR	Paris	48.868414	2.3213247	('FR', 'Paris')
3255590000000.0	Hotel d Orsay Esprit de France	FR	Paris	48.8603599	2.3230778	('FR', 'Paris')
2594160000000.0	Hotel de Nell	FR	Paris	48.8732788	2.3466576	('FR', 'Paris')
2284920000000.0	Le Senat	FR	Paris	48.8491427	2.3397118	('FR', 'Paris')
2585570000000.0	Warwick Paris Former Warwick Champs Elysees	FR	Paris	48.8722019	2.3030866	('FR', 'Paris')
3272770000000.0	Hotel Stendhal Place Vend me Paris MGallery by Sofitel	FR	Paris	48.8681455	2.3313064	('FR', 'Paris')
2276330000000.0	Le Pradey	FR	Paris	48.8645309	2.3315532	('FR', 'Paris')
2662880000000.0	Mercure Paris 19 Philharmonie La Villette	FR	Paris	48.8886969	2.3945403	('FR', 'Paris')
3049430000000.0	Hotel Claridge Paris	FR	Paris	48.8684243	2.3036244	('FR', 'Paris')
2362230000000.0	Hilton Paris Opera	FR	Paris	48.8756604	2.3252075	('FR', 'Paris')
3221230000000.0	Francois 1er	FR	Paris	48.8701887	2.2997281	('FR', 'Paris')
2370820000000.0	Belfast	FR	Paris	48.8756435	2.2938788	('FR', 'Paris')
2370820000000.0	Plaza Tour Eiffel	FR	Paris	48.8645647	2.2821827	('FR', 'Paris')
3100970000000.0	H tel Chaplain Paris Rive Gauche	FR	Paris	48.8427564	2.3305636	('FR', 'Paris')
3109560000000.0	H tel de Banville	FR	Paris	48.8864673	2.2948911	('FR', 'Paris')
2920580000000.0	H tel Baume	FR	Paris	48.8501522	2.3392782	('FR', 'Paris')
2499670000000.0	Nell Hotel Suites	FR	Paris	48.8741002	2.3426357	('FR', 'Paris')
2628520000000.0	Boutique H tel Konfidentiel	FR	Paris	48.8612535	2.3426256	('FR', 'Paris')
2473900000000.0	Le Metropolitan a Tribute Portfolio Hotel	FR	Paris	48.8656973	2.2829776	('FR', 'Paris')
3126740000000.0	Le Burgundy Paris	FR	Paris	48.8680055	2.3260075	('FR', 'Paris')
2611340000000.0	Edouard 7 Paris Op ra	FR	Paris	48.8683133	2.3330851	('FR', 'Paris')
2465310000000.0	Best Western Le Jardin de Cluny	FR	Paris	48.8497553	2.3467616	('FR', 'Paris')
2267740000000.0	Balmoral Champs Elys es	FR	Paris	48.8759855	2.293938	('FR', 'Paris')
3161100000000.0	A La Villa Madame	FR	Paris	48.8488608	2.3315257	('FR', 'Paris')
2972120000000.0	Mercure Paris Gobelins Place d Italie	FR	Paris	48.8321231	2.3536172	('FR', 'Paris')
2980710000000.0	Le Pavillon de la Reine Spa	FR	Paris	48.8562725	2.3660412	('FR', 'Paris')
2997890000000.0	Windsor Opera	FR	Paris	48.8734851	2.3485111	('FR', 'Paris')
3186870000000.0	Waldorf Madeleine	FR	Paris	48.8715828	2.3224853	('FR', 'Paris')
3186870000000.0	Golden Tulip Bercy Gare de Lyon 209	FR	Paris	48.8393229	2.3892274	('FR', 'Paris')
2396590000000.0	Hotel des Tuileries Relais du Silence	FR	Paris	48.8661705	2.331561	('FR', 'Paris')
3204050000000.0	Mandarin Oriental Paris	FR	Paris	48.8671889	2.326927	('FR', 'Paris')
2559800000000.0	Mercure Vaugirard Paris Porte De Versailles	FR	Paris	48.8330649	2.2879617	('FR', 'Paris')
2602750000000.0	Novotel Paris Centre Gare Montparnasse	FR	Paris	48.838484	2.3150904	('FR', 'Paris')
2894810000000.0	Mercure Paris Montmartre Sacr Coeur	FR	Paris	48.8852794	2.3301021	('FR', 'Paris')
3066610000000.0	H tel Elysees Mermoz	FR	Paris	48.8715079	2.3122259	('FR', 'Paris')
2585570000000.0	Chambiges Elys es	FR	Paris	48.8668048	2.3039465	('FR', 'Paris')
2259150000000.0	Le Pavillon des Lettres	FR	Paris	48.8713699	2.3181191	('FR', 'Paris')
2834680000000.0	H tel Gustave	FR	Paris	48.8502052	2.289043	('FR', 'Paris')
3393020000000.0	Renaissance Paris Republique Hotel Spa	FR	Paris	48.8687804	2.3610196	('FR', 'Paris')
2113120000000.0	Le 123 Elysees Astotel	FR	Paris	48.8730823	2.309659	('FR', 'Paris')
3152510000000.0	Le Marquis Eiffel	FR	Paris	48.8516619	2.2979395	('FR', 'Paris')
2645700000000.0	H tel F licien by Elegancia	FR	Paris	48.8493082	2.2743626	('FR', 'Paris')
2834680000000.0	H tel des Ducs D Anjou	FR	Paris	48.8598229	2.347111	('FR', 'Paris')
2551210000000.0	Hotel Louis 2	FR	Paris	48.8516148	2.3381293	('FR', 'Paris')
3032250000000.0	H tel San R gis	FR	Paris	48.8665788	2.3084447	('FR', 'Paris')
2662880000000.0	Okko Hotels Paris Porte De Versailles	FR	Paris	48.8327729	2.2787597	('FR', 'Paris')
2671470000000.0	Hotel Montalembert	FR	Paris	48.8567042	2.3277805	('FR', 'Paris')
2499670000000.0	InterContinental Paris Avenue Marceau	FR	Paris	48.8706373	2.2982095	('FR', 'Paris')
2499670000000.0	Paris Marriott Rive Gauche Hotel	FR	Paris	48.8315962	2.3399796	('FR', 'Paris')
2044400000000.0	Timhotel Op ra Blanche Fontaine	FR	Paris	48.8825781	2.3334805	('FR', 'Paris')
3161100000000.0	Mercure Paris 17 me Saint Lazare Monceau	FR	Paris	48.8837472	2.3186342	('FR', 'Paris')
2671470000000.0	H tel des Academies et des Arts	FR	Paris	48.8420669	2.3304091	('FR', 'Paris')
2027220000000.0	Le Mathurin Hotel Spa	FR	Paris	48.8732068	2.3239015	('FR', 'Paris')
3092380000000.0	Holiday Inn Paris Notre Dame	FR	Paris	48.8528427	2.3422256	('FR', 'Paris')
1760940000000.0	H tel Beauchamps	FR	Paris	48.87096	2.3091617	('FR', 'Paris')
2018630000000.0	H tel Paris Bastille Boutet MGallery by Sofitel	FR	Paris	48.8519215	2.3839993	('FR', 'Paris')
2010040000000.0	H tel De Castiglione	FR	Paris	48.8691758	2.3205807	('FR', 'Paris')
1726580000000.0	Banke H tel	FR	Paris	48.8735736	2.335965	('FR', 'Paris')
2688650000000.0	Platine Hotel Spa	FR	Paris	48.8473459	2.2832408	('FR', 'Paris')
3100970000000.0	L H tel	FR	Paris	48.8562272	2.3351758	('FR', 'Paris')
2619930000000.0	Royal Saint Honore	FR	Paris	48.8658792	2.3298903	('FR', 'Paris')
3289940000000.0	Victoire Germain	FR	Paris	48.853299	2.337993	('FR', 'Paris')
3298530000000.0	H tel Amastan Paris	FR	Paris	48.8716831	2.3123759	('FR', 'Paris')
2594160000000.0	Best Western S vres Montparnasse	FR	Paris	48.843707	2.3155631	('FR', 'Paris')
2602750000000.0	Hotel Trianon Rive Gauche	FR	Paris	48.8487675	2.3410376	('FR', 'Paris')
2233380000000.0	Le Saint Hotel Paris	FR	Paris	48.8565421	2.3303504	('FR', 'Paris')
3307120000000.0	H tel La Comtesse by Elegancia	FR	Paris	48.853865	2.3072019	('FR', 'Paris')
3049430000000.0	Hotel Scribe Paris Opera by Sofitel	FR	Paris	48.8704175	2.3296832	('FR', 'Paris')
2199020000000.0	Hotel De Vigny	FR	Paris	48.8738672	2.3005894	('FR', 'Paris')
2190430000000.0	Le Belmont Champs Elys es	FR	Paris	48.8691984	2.2979052	('FR', 'Paris')
2628520000000.0	Le Relais Montmartre	FR	Paris	48.8854538	2.3335809	('FR', 'Paris')
2181840000000.0	Hotel Eug ne en Ville	FR	Paris	48.8750119	2.3416769	('FR', 'Paris')
3350070000000.0	H tel Arvor Saint Georges	FR	Paris	48.8785454	2.3384866	('FR', 'Paris')
2173250000000.0	H tel Bel Ami	FR	Paris	48.8550298	2.3332104	('FR', 'Paris')
2164660000000.0	Hotel Le Sainte Beuve	FR	Paris	48.8438998	2.3294858	('FR', 'Paris')
2869040000000.0	TRYP Paris Op ra	FR	Paris	48.8713619	2.3426375	('FR', 'Paris')
2568390000000.0	Hotel du Collectionneur Arc de Triomphe	FR	Paris	48.8769204	2.3069132	('FR', 'Paris')
2164660000000.0	Select Hotel	FR	Paris	48.8483053	2.3425596	('FR', 'Paris')
2156070000000.0	AC Hotel Paris Porte Maillot by Marriott	FR	Paris	48.8820046	2.2818538	('FR', 'Paris')
3375840000000.0	Villa d Estr es	FR	Paris	48.8535089	2.3425787	('FR', 'Paris')
2156070000000.0	Hotel Chavanel	FR	Paris	48.8721692	2.3262681	('FR', 'Paris')
2181840000000.0	Renaissance Paris Arc de Triomphe Hotel	FR	Paris	48.8772093	2.2968266	('FR', 'Paris')
2783140000000.0	Hotel OFF Paris Seine	FR	Paris	48.8427364	2.3672171	('FR', 'Paris')
3427380000000.0	H tel Barri re Le Fouquet s	FR	Paris	48.8710709	2.3013119	('FR', 'Paris')
3307120000000.0	Hotel Eden	FR	Paris	48.8405612	2.2991035	('FR', 'Paris')
2233380000000.0	Terrass H tel Montmartre by MH	FR	Paris	48.8865626	2.3329648	('FR', 'Paris')
1778120000000.0	Kube Hotel Ice Bar	FR	Paris	48.88657	2.3588332	('FR', 'Paris')
2405180000000.0	Prince de Galles a Luxury Collection hotel Paris	FR	Paris	48.869143	2.3006526	('FR', 'Paris')
2422360000000.0	Hotel La Villa Saint Germain Des Pr s	FR	Paris	48.8553486	2.3340736	('FR', 'Paris')
2430950000000.0	H tel France d Antin Op ra	FR	Paris	48.8692566	2.3339369	('FR', 'Paris')
1735170000000.0	Hotel Square	FR	Paris	48.851589	2.2777274	('FR', 'Paris')
2267740000000.0	Hotel Daniel Paris	FR	Paris	48.8728492	2.3073663	('FR', 'Paris')
3126740000000.0	Villa Panth on	FR	Paris	48.8488044	2.3469889	('FR', 'Paris')
3427380000000.0	Acad mie H tel Saint Germain	FR	Paris	48.855263	2.3305901	('FR', 'Paris')
2482490000000.0	Majestic Hotel Spa	FR	Paris	48.8703672	2.2938868	('FR', 'Paris')
3401610000000.0	Mercure Paris Opera Garnier	FR	Paris	48.8749511	2.3259532	('FR', 'Paris')
2302100000000.0	Best Western Amiral Hotel	FR	Paris	48.8252307	2.3569005	('FR', 'Paris')
3384430000000.0	H tel Juliana Paris	FR	Paris	48.8619373	2.3040298	('FR', 'Paris')
3375840000000.0	Amarante Champs Elys es	FR	Paris	48.8717649	2.2983855	('FR', 'Paris')
3324300000000.0	Novotel Paris Centre Tour Eiffel	FR	Paris	48.8500283	2.2834126	('FR', 'Paris')
3375840000000.0	Gardette Park Hotel	FR	Paris	48.8610265	2.3788974	('FR', 'Paris')
3367250000000.0	D clic Hotel	FR	Paris	48.8908018	2.3380204	('FR', 'Paris')
2516850000000.0	Hotel Astor Saint Honor	FR	Paris	48.8728324	2.3193886	('FR', 'Paris')
2525440000000.0	H tel Le Bellechasse Saint Germain	FR	Paris	48.8597024	2.3239701	('FR', 'Paris')
3092380000000.0	H tel Duo	FR	Paris	48.8581186	2.3529369	('FR', 'Paris')
3083790000000.0	Hotel Vignon	FR	Paris	48.8717146	2.3261812	('FR', 'Paris')
2542620000000.0	Nolinski Paris	FR	Paris	48.8654874	2.3348924	('FR', 'Paris')
2551210000000.0	Hotel Whistler	FR	Paris	48.879314	2.3560185	('FR', 'Paris')
2336460000000.0	Hotel le Lapin Blanc	FR	Paris	48.8491801	2.3423357	('FR', 'Paris')
3281360000000.0	Hotel Le Mareuil	FR	Paris	48.8659899	2.3674149	('FR', 'Paris')
3264180000000.0	Mercure Paris Op ra Faubourg Montmartre	FR	Paris	48.8729639	2.3444899	('FR', 'Paris')
2585570000000.0	Royal Hotel Champs Elys es	FR	Paris	48.8740463	2.300196	('FR', 'Paris')
3161100000000.0	Best Western Premier Le Swann	FR	Paris	48.8797331	2.3206003	('FR', 'Paris')
3075200000000.0	Mercure Paris Bastille Marais	FR	Paris	48.8571207	2.3805581	('FR', 'Paris')
2216200000000.0	Residence Henri IV	FR	Paris	48.8481917	2.3490316	('FR', 'Paris')
1838250000000.0	Pullman Paris Centre Bercy	FR	Paris	48.8315204	2.3870797	('FR', 'Paris')
3238410000000.0	BoB Hotel by Elegancia	FR	Paris	48.8335233	2.3191194	('FR', 'Paris')
2095940000000.0	Hotel L Antoine	FR	Paris	48.8524215	2.3743832	('FR', 'Paris')
2095940000000.0	Holiday Inn Paris Gare Montparnasse	FR	Paris	48.8382916	2.3230188	('FR', 'Paris')
2138890000000.0	Melia Paris Vendome	FR	Paris	48.8668228	2.3257729	('FR', 'Paris')
2199020000000.0	Hotel Park Lane Paris	FR	Paris	48.8745879	2.3188143	('FR', 'Paris')
3229820000000.0	Royal Saint Michel	FR	Paris	48.8528364	2.3440803	('FR', 'Paris')
2207610000000.0	Golden Tulip Opera de Noailles	FR	Paris	48.8696173	2.3346428	('FR', 'Paris')
2121710000000.0	Mercure Paris Gare De Lyon TGV	FR	Paris	48.8442949	2.3730938	('FR', 'Paris')
2216200000000.0	Radisson Blu Champs Elys es Paris	FR	Paris	48.8719212	2.2971404	('FR', 'Paris')
2963530000000.0	H tel Moli re	FR	Paris	48.8655293	2.3360102	('FR', 'Paris')
2087350000000.0	Amarante Beau Manoir	FR	Paris	48.870994	2.3235329	('FR', 'Paris')
2233380000000.0	Hotel Op ra Richepanse	FR	Paris	48.8686931	2.325211	('FR', 'Paris')
2130300000000.0	H tel D Aubusson	FR	Paris	48.8547329	2.3395277	('FR', 'Paris')
2164660000000.0	H tel Duc De St Simon	FR	Paris	48.8560685	2.3236846	('FR', 'Paris')
2293510000000.0	H tel Belloy Saint Germain By Happyculture	FR	Paris	48.8503901	2.3422527	('FR', 'Paris')
3204050000000.0	Le Marceau Bastille	FR	Paris	48.8490691	2.3697484	('FR', 'Paris')
2293510000000.0	Elys es R gencia	FR	Paris	48.8686434	2.2984054	('FR', 'Paris')
1984270000000.0	L Edmond H tel	FR	Paris	48.8823111	2.3132374	('FR', 'Paris')
1975680000000.0	1K Hotel	FR	Paris	48.8639318	2.3658744	('FR', 'Paris')
1949920000000.0	Hotel Le petit Paris	FR	Paris	48.8452789	2.342295	('FR', 'Paris')
1941330000000.0	Best Western Premier Op ra Li ge	FR	Paris	48.8795947	2.3280695	('FR', 'Paris')
2181840000000.0	Le Pigalle Hotel	FR	Paris	48.8816073	2.3371648	('FR', 'Paris')
1924150000000.0	Hotel Cambon	FR	Paris	48.866435	2.3251076	('FR', 'Paris')
2336460000000.0	H tel Exquis by Elegancia	FR	Paris	48.8536854	2.3805796	('FR', 'Paris')
1881200000000.0	Hotel du Petit Moulin	FR	Paris	48.8615843	2.3620652	('FR', 'Paris')
1864020000000.0	Hotel Les Bulles De Paris	FR	Paris	48.849147	2.3471935	('FR', 'Paris')
2353640000000.0	The Westin Paris Vend me	FR	Paris	48.8657394	2.3274415	('FR', 'Paris')
1812480000000.0	H tel Regina	FR	Paris	48.8637503	2.3320406	('FR', 'Paris')
2602750000000.0	W Paris Op ra	FR	Paris	48.8719697	2.3316014	('FR', 'Paris')
3212640000000.0	H tel de Jos phine BONAPARTE	FR	Paris	48.8555319	2.3621212	('FR', 'Paris')
3066610000000.0	Hotel Carlton s Montmartre	FR	Paris	48.8819068	2.3410005	('FR', 'Paris')
2843270000000.0	Garden Elys e	FR	Paris	48.8663444	2.2881979	('FR', 'Paris')
2834680000000.0	H tel Mayfair Paris	FR	Paris	48.8661363	2.3260648	('FR', 'Paris')
2834680000000.0	H tel Le Relais Saint Germain	FR	Paris	48.8519208	2.338878	('FR', 'Paris')
2989300000000.0	H tel Regina Op ra Grands Boulevards	FR	Paris	48.8708508	2.3515882	('FR', 'Paris')
2843270000000.0	H tel Ad le Jules	FR	Paris	48.8721062	2.3451384	('FR', 'Paris')
2808910000000.0	Derby Alma	FR	Paris	48.8605031	2.3006606	('FR', 'Paris')
2808910000000.0	Maison Albar H tel Paris Champs Elys es ex Mac Mahon	FR	Paris	48.8753837	2.2944651	('FR', 'Paris')
2851860000000.0	Holiday Inn Paris Gare de Lyon Bastille	FR	Paris	48.8468064	2.3714789	('FR', 'Paris')
2765960000000.0	H tel Aiglon Esprit de France	FR	Paris	48.8396623	2.3300582	('FR', 'Paris')
2757370000000.0	9Hotel Republique	FR	Paris	48.8708419	2.3605864	('FR', 'Paris')
2740190000000.0	Lyric H tel Paris	FR	Paris	48.8690126	2.3368708	('FR', 'Paris')
2723010000000.0	Montfleuri	FR	Paris	48.8747153	2.2906388	('FR', 'Paris')
2714420000000.0	Napoleon Paris	FR	Paris	48.8743885	2.2980915	('FR', 'Paris')
2860450000000.0	H tel Les Dames du Panth on	FR	Paris	48.845743	2.34493	('FR', 'Paris')
2688650000000.0	Grand Pigalle Hotel	FR	Paris	48.880856	2.3375085	('FR', 'Paris')
2869040000000.0	Le Tsuba Hotel	FR	Paris	48.8777621	2.293177	('FR', 'Paris')
2662880000000.0	H tel Vernet	FR	Paris	48.871859	2.2978177	('FR', 'Paris')
2654290000000.0	Villa Montparnasse	FR	Paris	48.8349272	2.3295913	('FR', 'Paris')
2525440000000.0	Hotel Saint Dominique	FR	Paris	48.8599998	2.3087425	('FR', 'Paris')
2628520000000.0	Mercure Paris Notre Dame Saint Germain des Pr s	FR	Paris	48.8503074	2.3450612	('FR', 'Paris')
2611340000000.0	Hotel Monsieur	FR	Paris	48.8735135	2.3217457	('FR', 'Paris')
2963530000000.0	Le A	FR	Paris	48.8723844	2.3088663	('FR', 'Paris')
2911990000000.0	Eiffel Trocad ro	FR	Paris	48.8613055	2.2862823	('FR', 'Paris')
2920580000000.0	Mercure Paris Arc de Triomphe Etoile	FR	Paris	48.8782679	2.294852	('FR', 'Paris')
2568390000000.0	Mercure Tour Eiffel Grenelle	FR	Paris	48.850448	2.2928845	('FR', 'Paris')
2568390000000.0	Novotel Suites Paris Nord 18 me	FR	Paris	48.9015941	2.3597783	('FR', 'Paris')
2937760000000.0	Hotel du Louvre in the Unbound Collection by Hyatt	FR	Paris	48.8639788	2.3352615	('FR', 'Paris')
2508260000000.0	Splendide Royal Paris	FR	Paris	48.8709627	2.3154141	('FR', 'Paris')
2499670000000.0	Hotel Atmospheres	FR	Paris	48.8485387	2.3479852	('FR', 'Paris')
2851860000000.0	Best Western Allegro Nation	FR	Paris	48.8430891	2.4049867	('FR', 'Paris')
2860450000000.0	Best Western Mercedes Arc de Triomphe	FR	Paris	48.8848292	2.3035189	('FR', 'Paris')
2353640000000.0	InterContinental Paris Le Grand	FR	Paris	48.8708391	2.3303651	('FR', 'Paris')
3178280000000.0	Hotel Ares Eiffel	FR	Paris	48.8503276	2.2982022	('FR', 'Paris')
3066610000000.0	Hotel Elys es Bassano	FR	Paris	48.8689307	2.2974503	('FR', 'Paris')
3178280000000.0	Mercure Paris Pigalle Sacre Coeur	FR	Paris	48.8823398	2.3364764	('FR', 'Paris')
3169690000000.0	Sofitel Paris Baltimore Tour Eiffel	FR	Paris	48.8663089	2.289609	('FR', 'Paris')
2628520000000.0	H tel Le Walt	FR	Paris	48.8547161	2.306642	('FR', 'Paris')
3152510000000.0	Villa Eugenie	FR	Paris	48.8871283	2.314205	('FR', 'Paris')
2637110000000.0	La Villa Haussmann	FR	Paris	48.8753446	2.3167161	('FR', 'Paris')
3143920000000.0	H tel Monna Lisa Champs Elys es	FR	Paris	48.874853	2.3245798	('FR', 'Paris')
3135330000000.0	Mercure Paris Bastille Saint Antoine	FR	Paris	48.849574	2.3798518	('FR', 'Paris')
2370820000000.0	H tel Fabric	FR	Paris	48.8629329	2.3723823	('FR', 'Paris')
2697240000000.0	H tel Crayon Rouge by Elegancia	FR	Paris	48.8644967	2.3405415	('FR', 'Paris')
3075200000000.0	Trinit Haussmann	FR	Paris	48.8800565	2.3342353	('FR', 'Paris')
2173250000000.0	Westside Arc de Triomphe Hotel	FR	Paris	48.8811741	2.2948337	('FR', 'Paris')
2705830000000.0	Hotel Le Saint Gregoire	FR	Paris	48.8471891	2.3260138	('FR', 'Paris')
3040840000000.0	La Maison Favart	FR	Paris	48.870808	2.3372737	('FR', 'Paris')
3032250000000.0	R Kipling by Happyculture	FR	Paris	48.8820838	2.3315849	('FR', 'Paris')
3023660000000.0	Au Manoir Saint Germain	FR	Paris	48.853688	2.3322667	('FR', 'Paris')
2989300000000.0	Mercure Paris Tour Eiffel Pont Mirabeau	FR	Paris	48.8460269	2.2788281	('FR', 'Paris')
2430950000000.0	Le 7 Eiffel Hotel	FR	Paris	48.8585193	2.3077243	('FR', 'Paris')
2791730000000.0	Victoires Opera	FR	Paris	48.8648997	2.3469433	('FR', 'Paris')
2946350000000.0	Hotel Villa Lafayette Paris IX	FR	Paris	48.8760884	2.3456465	('FR', 'Paris')
2929170000000.0	H tel Saint Paul Rive Gauche	FR	Paris	48.8496819	2.3402806	('FR', 'Paris')
2903400000000.0	Le Narcisse Blanc Spa	FR	Paris	48.8605125	2.3106533	('FR', 'Paris')
2800320000000.0	Le Grand H tel de Normandie	FR	Paris	48.8759461	2.3270955	('FR', 'Paris')
3015070000000.0	B Montmartre	FR	Paris	48.883631	2.3257643	('FR', 'Paris')
2482490000000.0	Best Western Plus de Neuville Arc de Triomphe	FR	Paris	48.8869128	2.3004034	('FR', 'Paris')
2808910000000.0	Hotel Monceau Wagram	FR	Paris	48.8808779	2.2989756	('FR', 'Paris')
3049430000000.0	Best Western Premier Op ra Opal	FR	Paris	48.8722588	2.3257608	('FR', 'Paris')
2181840000000.0	L Empire Paris	FR	Paris	48.8607764	2.3427564	('FR', 'Paris')
2104530000000.0	H tel Brighton Esprit de France	FR	Paris	48.8649306	2.3290844	('FR', 'Paris')
1864020000000.0	Hotel Bachaumont	FR	Paris	48.8663208	2.3450399	('FR', 'Paris')
1803890000000.0	La Maison Champs Elys es	FR	Paris	48.866676	2.3089908	('FR', 'Paris')
2954940000000.0	Four Seasons Hotel George V Paris	FR	Paris	48.8687512	2.3001692	('FR', 'Paris')
2954940000000.0	Hotel Lumen Paris Louvre	FR	Paris	48.8652582	2.3329632	('FR', 'Paris')
2946350000000.0	H tel De Vend me	FR	Paris	48.8668564	2.3286339	('FR', 'Paris')
2937760000000.0	Hotel Opera Cadet	FR	Paris	48.8754371	2.3434586	('FR', 'Paris')
1812480000000.0	Hotel Le Six	FR	Paris	48.8438352	2.3280708	('FR', 'Paris')
3367250000000.0	Hotel Le Chat Noir	FR	Paris	48.8836255	2.3340538	('FR', 'Paris')
2860450000000.0	Mercure Paris Terminus Nord	FR	Paris	48.8794843	2.3556545	('FR', 'Paris')
2259150000000.0	H tel Le M	FR	Paris	48.8397623	2.3235324	('FR', 'Paris')
1829660000000.0	H tel Powers	FR	Paris	48.8691409	2.3031503	('FR', 'Paris')
1864020000000.0	Relais Christine	FR	Paris	48.8542454	2.339956	('FR', 'Paris')
2800320000000.0	Renaissance Paris Vendome Hotel	FR	Paris	48.8654532	2.3295231	('FR', 'Paris')
1872610000000.0	Rochester Champs Elysees	FR	Paris	48.8724945	2.3091549	('FR', 'Paris')
2783140000000.0	H tel Lancaster Paris Champs Elys es	FR	Paris	48.8723438	2.3033378	('FR', 'Paris')
3358660000000.0	Artus Hotel by MH	FR	Paris	48.8535639	2.3360169	('FR', 'Paris')
2774550000000.0	Les Plumes Hotel	FR	Paris	48.8766269	2.3432886	('FR', 'Paris')
2765960000000.0	Best Western Bretagne Montparnasse	FR	Paris	48.8354314	2.321142	('FR', 'Paris')
1881200000000.0	H tel Waldorf Trocad ro	FR	Paris	48.8672694	2.2878666	('FR', 'Paris')
1889790000000.0	Hotel Royal Elys es	FR	Paris	48.8729666	2.2926226	('FR', 'Paris')
2731600000000.0	H tel Jos phine by Happyculture	FR	Paris	48.8823141	2.3316688	('FR', 'Paris')
2723010000000.0	Villa Beaumarchais	FR	Paris	48.8589516	2.3670407	('FR', 'Paris')
2688650000000.0	H tel Horset Op ra Best Western Premier Collection	FR	Paris	48.8691686	2.3337818	('FR', 'Paris')
2680060000000.0	Drawing Hotel	FR	Paris	48.8644382	2.3359148	('FR', 'Paris')
3358660000000.0	Atala Champs Elys es	FR	Paris	48.8735418	2.302442	('FR', 'Paris')
2645700000000.0	Hotel Les Rives de Notre Dame	FR	Paris	48.8532269	2.3457159	('FR', 'Paris')
2078760000000.0	Best Western Hotel Montmartre Sacr Coeur	FR	Paris	48.888539	2.3498459	('FR', 'Paris')
2628520000000.0	Mercure Paris Bercy Biblioth que	FR	Paris	48.8370334	2.372322	('FR', 'Paris')
2602750000000.0	Novotel Paris 17	FR	Paris	48.8920485	2.3023791	('FR', 'Paris')
1881200000000.0	H tel Montmartre Mon Amour	FR	Paris	48.886687	2.3449332	('FR', 'Paris')
2963530000000.0	Hotel Sezz Paris	FR	Paris	48.8566336	2.2852607	('FR', 'Paris')
2594160000000.0	Le Marcel	FR	Paris	48.8761376	2.3572681	('FR', 'Paris')
1803890000000.0	Idol Hotel	FR	Paris	48.8795369	2.3202966	('FR', 'Paris')
3375840000000.0	Hotel Tour d Auvergne Opera	FR	Paris	48.8789432	2.3448623	('FR', 'Paris')
3264180000000.0	Novotel Paris Vaugirard Montparnasse	FR	Paris	48.8399018	2.3031011	('FR', 'Paris')
3255590000000.0	H tel Regent s Garden	FR	Paris	48.8797513	2.2919634	('FR', 'Paris')
3375840000000.0	Best Western Ducs de Bourgogne	FR	Paris	48.8603483	2.3440535	('FR', 'Paris')
3393020000000.0	Shangri La Hotel Paris	FR	Paris	48.8637135	2.2934759	('FR', 'Paris')
3410200000000.0	Best Western Premier Faubourg 88	FR	Paris	48.8776756	2.3493159	('FR', 'Paris')
3221230000000.0	Mercure Paris Porte De Versailles Expo	FR	Paris	48.8268251	2.2912033	('FR', 'Paris')
3195460000000.0	H tel Da Vinci Spa	FR	Paris	48.8565778	2.3319767	('FR', 'Paris')
3186870000000.0	Residence Du Roy	FR	Paris	48.8657687	2.3090386	('FR', 'Paris')
1726580000000.0	H tel Saint Marc	FR	Paris	48.8708863	2.3382128	('FR', 'Paris')
3401610000000.0	H tel de La Tamise Esprit de France	FR	Paris	48.8648656	2.3295756	('FR', 'Paris')
3178280000000.0	Hotel Pulitzer Paris	FR	Paris	48.8731996	2.3425446	('FR', 'Paris')
1743760000000.0	Melia Paris Tour Eiffel	FR	Paris	48.8651994	2.3045076	('FR', 'Paris')
3161100000000.0	H tel California Champs Elys es	FR	Paris	48.8726335	2.3048084	('FR', 'Paris')
3126740000000.0	Crowne Plaza Paris R publique	FR	Paris	48.8673199	2.3656296	('FR', 'Paris')
3118150000000.0	The Chess Hotel	FR	Paris	48.8716017	2.3349768	('FR', 'Paris')
3109560000000.0	La Chambre du Marais	FR	Paris	48.8636168	2.3607998	('FR', 'Paris')
3384430000000.0	First Hotel Paris Tour Eiffel	FR	Paris	48.8475112	2.3022198	('FR', 'Paris')
3109560000000.0	Le Roch Hotel Spa	FR	Paris	48.8661991	2.3328826	('FR', 'Paris')
1717990000000.0	Maison Souquet	FR	Paris	48.88366	2.3313845	('FR', 'Paris')
3092380000000.0	Novotel Paris 14 Porte d Orl ans	FR	Paris	48.8196885	2.3263505	('FR', 'Paris')
1769530000000.0	Le Meurice	FR	Paris	48.8653685	2.328218	('FR', 'Paris')
3083790000000.0	Hotel Design Secret de Paris	FR	Paris	48.8814056	2.3282568	('FR', 'Paris')
3075200000000.0	La Villa des Ternes	FR	Paris	48.8803479	2.2858242	('FR', 'Paris')
1735170000000.0	Le Lavoisier	FR	Paris	48.8737702	2.3201063	('FR', 'Paris')
1743760000000.0	Holiday Inn Paris Gare de l Est	FR	Paris	48.8758981	2.3590504	('FR', 'Paris')
3066610000000.0	Hotel Plaza Athenee Paris	FR	Paris	48.8661932	2.3042141	('FR', 'Paris')
1778120000000.0	Relais Du Louvre	FR	Paris	48.8592264	2.340996	('FR', 'Paris')
1786710000000.0	Relais H tel du Vieux Paris	FR	Paris	48.8538608	2.3429487	('FR', 'Paris')
1795300000000.0	Les Jardins De La Villa Spa	FR	Paris	48.8801757	2.2859534	('FR', 'Paris')
1795300000000.0	Hotel Montaigne	FR	Paris	48.865467	2.3038811	('FR', 'Paris')
1958510000000.0	Madeleine Plaza	FR	Paris	48.8710402	2.3248014	('FR', 'Paris')
2954940000000.0	Holiday Inn Paris Op ra Grands Boulevards	FR	Paris	48.8715469	2.3439622	('FR', 'Paris')
2044400000000.0	Hotel Les Th tres	FR	Paris	48.8694768	2.3515065	('FR', 'Paris')
2259150000000.0	Hotel Le 10 BIS	FR	Paris	48.8780363	2.2864907	('FR', 'Paris')
2035810000000.0	Golden Tulip Washington Opera	FR	Paris	48.866242	2.3373169	('FR', 'Paris')
2267740000000.0	Saint James Albany Paris Hotel Spa	FR	Paris	48.8642689	2.3308179	('FR', 'Paris')
2044400000000.0	Holiday Inn Paris Montparnasse Pasteur	FR	Paris	48.8376887	2.3063102	('FR', 'Paris')
2405180000000.0	H tel R de Paris Boutique Hotel	FR	Paris	48.8799239	2.3288332	('FR', 'Paris')
2284920000000.0	Best Western Premier Op ra Faubourg Ex Hotel Jules	FR	Paris	48.8753359	2.3414617	('FR', 'Paris')
2044400000000.0	H tel Diva Opera	FR	Paris	48.8732706	2.3450746	('FR', 'Paris')
1958510000000.0	Le 123 S bastopol Astotel	FR	Paris	48.8675886	2.3531018	('FR', 'Paris')
1967100000000.0	Novotel Suites Paris Expo Porte de Versailles	FR	Paris	48.827388	2.305478	('FR', 'Paris')
2422360000000.0	Goralska R sidences H tel Paris Bastille	FR	Paris	48.8482842	2.3657251	('FR', 'Paris')
1975680000000.0	Hotel Indigo Paris Opera	FR	Paris	48.8704371	2.329236	('FR', 'Paris')
2370820000000.0	H tel du Minist re	FR	Paris	48.8712877	2.3191903	('FR', 'Paris')
2035810000000.0	H tel Champs lys es Plaza	FR	Paris	48.8737043	2.3061477	('FR', 'Paris')
2087350000000.0	Chateau Frontenac	FR	Paris	48.8689468	2.3026559	('FR', 'Paris')
3298530000000.0	H tel Etoile Saint Honor by Happyculture	FR	Paris	48.8756508	2.3041568	('FR', 'Paris')
2138890000000.0	Best Western Premier Trocadero La Tour	FR	Paris	48.8583127	2.2795075	('FR', 'Paris')
1992860000000.0	Monsieur Cadet Hotel Spa Ex Meyerhold Spa	FR	Paris	48.8742767	2.3426276	('FR', 'Paris')
2345050000000.0	Victoria Palace Hotel	FR	Paris	48.8457587	2.3243071	('FR', 'Paris')
2104530000000.0	Hotel Maison Ath n e	FR	Paris	48.8713421	2.3280723	('FR', 'Paris')
2121710000000.0	H tel Mathis Elys es	FR	Paris	48.8700325	2.3112736	('FR', 'Paris')
2061580000000.0	Amp re	FR	Paris	48.8848583	2.2997023	('FR', 'Paris')
2250560000000.0	Vice Versa	FR	Paris	48.8363819	2.2897793	('FR', 'Paris')
2027220000000.0	Mercure Paris Opera Louvre	FR	Paris	48.8710895	2.3393461	('FR', 'Paris')
2018630000000.0	Hotel Mercure La Sorbonne Saint Germain des Pr s	FR	Paris	48.8493499	2.3430569	('FR', 'Paris')
2568390000000.0	Le Parisis Paris Tour Eiffel	FR	Paris	48.8494851	2.2955063	('FR', 'Paris')
2559800000000.0	Mercure Paris Champs Elys es	FR	Paris	48.8699731	2.2909401	('FR', 'Paris')
2542620000000.0	Paris Marriott Opera Ambassador Hotel	FR	Paris	48.8728351	2.3362507	('FR', 'Paris')
1975680000000.0	Timhotel Op ra Grands Magasins	FR	Paris	48.8794682	2.3334957	('FR', 'Paris')
2190430000000.0	H tel Recamier	FR	Paris	48.8503493	2.3344305	('FR', 'Paris')
2525440000000.0	Le M ridien Etoile	FR	Paris	48.8794646	2.2849548	('FR', 'Paris')
2516850000000.0	Grand Hotel Saint Michel	FR	Paris	48.8478399	2.342254	('FR', 'Paris')
1906970000000.0	L Hotel Pergol se Paris	FR	Paris	48.8756618	2.2863468	('FR', 'Paris')
2199020000000.0	Hotel Verneuil Saint Germain	FR	Paris	48.8573706	2.3314669	('FR', 'Paris')
2508260000000.0	H tel Mansart Esprit de France	FR	Paris	48.8684776	2.3298238	('FR', 'Paris')
2430950000000.0	H tel De Buci by MH	FR	Paris	48.8538752	2.3366123	('FR', 'Paris')
3324300000000.0	Grand H tel Du Palais Royal	FR	Paris	48.8630829	2.3378592	('FR', 'Paris')
2207610000000.0	Pershing Hall	FR	Paris	48.8691325	2.3021659	('FR', 'Paris')
2241970000000.0	H tel de la Bourdonnais	FR	Paris	48.8550466	2.304583	('FR', 'Paris')
1932740000000.0	Best Western Premier Kapital Op ra	FR	Paris	48.8814425	2.3235592	('FR', 'Paris')
2499670000000.0	H tel Bourgogne Montana by MH	FR	Paris	48.8601927	2.318423	('FR', 'Paris')
2491080000000.0	MARQUIS Faubourg St Honor Relais Ch teaux	FR	Paris	48.8698184	2.3208729	('FR', 'Paris')
2156070000000.0	H tel L Echiquier Op ra Paris MGallery by Sofitel	FR	Paris	48.8719889	2.3492913	('FR', 'Paris')
2010040000000.0	Novotel Paris Gare De Lyon	FR	Paris	48.8453785	2.3753036	('FR', 'Paris')
1941330000000.0	Mercure Paris Alesia	FR	Paris	48.8237487	2.324056	('FR', 'Paris')
3315710000000.0	Le Littr	FR	Paris	48.8454447	2.3242814	('FR', 'Paris')
3393020000000.0	Bentley London	GB	London	51.4928147	-0.1841753	('GB', 'London')
3212640000000.0	Park Grand London Lancaster Gate	GB	London	51.5132069	-0.1807816	('GB', 'London')
3221230000000.0	The Portobello Hotel	GB	London	51.512257	-0.2034244	('GB', 'London')
2568390000000.0	Thistle Holborn The Kingsley	GB	London	51.5179659	-0.1234343	('GB', 'London')
2302100000000.0	Park International Hotel	GB	London	51.4945144	-0.1866172	('GB', 'London')
2370820000000.0	The Academy	GB	London	51.5205441	-0.1308091	('GB', 'London')
3401610000000.0	London Suites	GB	London	51.5215508	-0.0469238	('GB', 'London')
2293510000000.0	The Kensington Hotel	GB	London	51.4925478	-0.1780611	('GB', 'London')
2388000000000.0	Lansbury Heritage Hotel	GB	London	51.5090985	-0.0157302	('GB', 'London')
2267740000000.0	Ten Manchester Street Hotel	GB	London	51.5188	-0.153839	('GB', 'London')
3109560000000.0	The Zetter Townhouse Marylebone	GB	London	51.514839	-0.1586656	('GB', 'London')
2422360000000.0	Shepherd s Bush Boutique Hotel	GB	London	51.5054544	-0.2262216	('GB', 'London')
2345050000000.0	The Chelsea Harbour Hotel	GB	London	51.4756558	-0.1813888	('GB', 'London')
3341480000000.0	The Cleveland	GB	London	51.5139692	-0.1828202	('GB', 'London')
2491080000000.0	Novotel London Tower Bridge	GB	London	51.5106538	-0.0773676	('GB', 'London')
3118150000000.0	Milestone Hotel Kensington	GB	London	51.5020425	-0.1866541	('GB', 'London')
2327870000000.0	The Connaught	GB	London	51.5101556	-0.1496314	('GB', 'London')
3143920000000.0	Mercure London Kensington Hotel	GB	London	51.4950098	-0.1906195	('GB', 'London')
3152510000000.0	Intercontinental London The O2	GB	London	51.5024348	-0.0002497	('GB', 'London')
2508260000000.0	The Montague On The Gardens	GB	London	51.520181	-0.1256957	('GB', 'London')
2525440000000.0	The Lanesborough	GB	London	51.50303	-0.15242	('GB', 'London')
3049430000000.0	Megaro Hotel	GB	London	51.5294411	-0.1233745	('GB', 'London')
2473900000000.0	Rafayel Hotel Spa	GB	London	51.4703604	-0.1779869	('GB', 'London')
3161100000000.0	The Cumberland A Guoman Hotel	GB	London	51.514879	-0.1606501	('GB', 'London')
3195460000000.0	Simply Rooms Suites	GB	London	51.4944875	-0.2070605	('GB', 'London')
2422360000000.0	Charlotte Street Hotel	GB	London	51.5184158	-0.1348509	('GB', 'London')
3049430000000.0	Henry VIII	GB	London	51.5124655	-0.182274	('GB', 'London')
3040840000000.0	The Montcalm At Brewery London City	GB	London	51.5208155	-0.0915319	('GB', 'London')
3023660000000.0	Arbor Hyde Park	GB	London	51.5126488	-0.1803795	('GB', 'London')
3307120000000.0	Park Plaza Sherlock Holmes London	GB	London	51.5209191	-0.1566567	('GB', 'London')
2413770000000.0	Hilton London Angel Islington	GB	London	51.5360906	-0.1048176	('GB', 'London')
3375840000000.0	Hotel Xanadu	GB	London	51.5117907	-0.306071	('GB', 'London')
3264180000000.0	Grange Beauchamp Hotel	GB	London	51.5203266	-0.1245891	('GB', 'London')
2396590000000.0	Amba Hotel Charing Cross	GB	London	51.508236	-0.1261963	('GB', 'London')
2396590000000.0	DoubleTree by Hilton Hotel London Marble Arch	GB	London	51.514573	-0.15666	('GB', 'London')
2379410000000.0	Holiday Inn London Bloomsbury	GB	London	51.5241248	-0.1258066	('GB', 'London')
2774550000000.0	Eccleston Square Hotel	GB	London	51.4911924	-0.1449474	('GB', 'London')
2903400000000.0	Caesar Hotel	GB	London	51.5134603	-0.1833081	('GB', 'London')
3143920000000.0	Grange Buckingham Hotel	GB	London	51.5196124	-0.1239628	('GB', 'London')
3135330000000.0	St James Court A Taj Hotel London	GB	London	51.4986732	-0.1376867	('GB', 'London')
3126740000000.0	Clayton Hotel Chiswick	GB	London	51.4924184	-0.2784701	('GB', 'London')
3109560000000.0	Danubius Hotel Regents Park	GB	London	51.529257	-0.168358	('GB', 'London')
2001450000000.0	The Cranley Hotel	GB	London	51.4916378	-0.1832833	('GB', 'London')
2044400000000.0	The Westbury A Luxury Collection Hotel Mayfair London	GB	London	51.5144418	-0.146432	('GB', 'London')
3092380000000.0	Novotel London Canary Wharf	GB	London	51.5011704	-0.0232607	('GB', 'London')
2052990000000.0	The Whitechapel	GB	London	51.5161286	-0.0624458	('GB', 'London')
3083790000000.0	Aloft London Excel	GB	London	51.5083719	0.0355768	('GB', 'London')
2095940000000.0	The LaLit London	GB	London	51.5032524	-0.078179	('GB', 'London')
3075200000000.0	citizenM London Bankside	GB	London	51.5051507	-0.1004724	('GB', 'London')
2113120000000.0	The Premier Notting Hill	GB	London	51.5127453	-0.1926437	('GB', 'London')
2130300000000.0	citizenM Tower of London	GB	London	51.510237	-0.0764428	('GB', 'London')
2147480000000.0	Park Grand London Kensington	GB	London	51.4938468	-0.1917582	('GB', 'London')
3049430000000.0	Pullman London St Pancras	GB	London	51.5286766	-0.1283489	('GB', 'London')
2156070000000.0	The Rembrandt	GB	London	51.4959227	-0.1702917	('GB', 'London')
3032250000000.0	Best Western PLUS Epping Forest	GB	London	51.603207	0.010607	('GB', 'London')
3023660000000.0	The Leonard Hotel	GB	London	51.5147071	-0.1578291	('GB', 'London')
2164660000000.0	Blakemore Hyde Park	GB	London	51.5129736	-0.1837431	('GB', 'London')
2173250000000.0	Radisson Blu Portman Hotel London	GB	London	51.5161911	-0.1579487	('GB', 'London')
2181840000000.0	Ace Hotel London Shoreditch	GB	London	51.5254162	-0.0772849	('GB', 'London')
1949920000000.0	Royal Garden Hotel	GB	London	51.5027022	-0.1882164	('GB', 'London')
2190430000000.0	The Bryson Hotel	GB	London	51.5220869	-0.1082443	('GB', 'London')
1941330000000.0	Fielding Hotel	GB	London	51.5139315	-0.1219893	('GB', 'London')
3178280000000.0	Crowne Plaza London Kensington	GB	London	51.495179	-0.183827	('GB', 'London')
3358660000000.0	Conrad London St James	GB	London	51.4993927	-0.1329128	('GB', 'London')
3332890000000.0	Montcalm Royal London House City of London	GB	London	51.5218066	-0.0856081	('GB', 'London')
3307120000000.0	The Hoxton Shoreditch	GB	London	51.5255136	-0.082927	('GB', 'London')
3298530000000.0	The Exhibitionist Hotel	GB	London	51.4947754	-0.177789	('GB', 'London')
3289940000000.0	The Stafford London	GB	London	51.5059087	-0.1403795	('GB', 'London')
3410200000000.0	Britannia International Hotel Canary Wharf	GB	London	51.5019097	-0.0232208	('GB', 'London')
3418790000000.0	Radisson Blu Edwardian Grafton	GB	London	51.5241386	-0.1380807	('GB', 'London')
3272770000000.0	The Athenaeum	GB	London	51.504716	-0.1475618	('GB', 'London')
3264180000000.0	Grange Clarendon Hotel	GB	London	51.5197933	-0.1241844	('GB', 'London')
1726580000000.0	Nottingham Place Hotel	GB	London	51.522143	-0.153385	('GB', 'London')
1760940000000.0	Millennium Hotel London Knightsbridge	GB	London	51.4999683	-0.1599927	('GB', 'London')
1769530000000.0	Mandarin Oriental Hyde Park London	GB	London	51.5022081	-0.1599428	('GB', 'London')
3221230000000.0	DoubleTree by Hilton London West End	GB	London	51.5201065	-0.1221393	('GB', 'London')
1778120000000.0	The Marble Arch London	GB	London	51.5151247	-0.1600656	('GB', 'London')
1795300000000.0	Novotel London City South	GB	London	51.5054832	-0.0951196	('GB', 'London')
1812480000000.0	Best Western The Boltons Hotel London Kensington	GB	London	51.4907493	-0.1934627	('GB', 'London')
1812480000000.0	The May Fair Hotel	GB	London	51.5078943	-0.1436707	('GB', 'London')
1829660000000.0	The Belgrave Hotel	GB	London	51.4901051	-0.1381355	('GB', 'London')
1855430000000.0	Avo Hotel	GB	London	51.5460628	-0.0700817	('GB', 'London')
1881200000000.0	The Drayton Court Hotel	GB	London	51.5141842	-0.3192925	('GB', 'London')
1906970000000.0	South Place Hotel	GB	London	51.5189182	-0.0866009	('GB', 'London')
3169690000000.0	The Justin James Hotel	GB	London	51.4202661	-0.211268	('GB', 'London')
2207610000000.0	The Park City Grand Plaza Kensington Hotel	GB	London	51.4954976	-0.1893691	('GB', 'London')
3006480000000.0	The Colonnade	GB	London	51.5243286	-0.1846623	('GB', 'London')
2954940000000.0	Shaftesbury Suites London Marble Arch	GB	London	51.515755	-0.1603335	('GB', 'London')
2568390000000.0	The Park Tower Knightsbridge a Luxury Collection Hotel	GB	London	51.5014191	-0.1625805	('GB', 'London')
2748780000000.0	Holiday Inn London Stratford City	GB	London	51.5426054	-0.0072708	('GB', 'London')
2602750000000.0	Hotel Indigo London Kensington	GB	London	51.4920287	-0.1917801	('GB', 'London')
2611340000000.0	K West Hotel Spa	GB	London	51.5013149	-0.2174459	('GB', 'London')
2723010000000.0	The Hari London	GB	London	51.4973203	-0.1562558	('GB', 'London')
2705830000000.0	Dukes Hotel	GB	London	51.5055381	-0.1396885	('GB', 'London')
2688650000000.0	Great Northern Hotel A Tribute Portfolio Hotel London	GB	London	51.531427	-0.126133	('GB', 'London')
2671470000000.0	Hotel 55	GB	London	51.5213303	-0.2915052	('GB', 'London')
2688650000000.0	The Grosvenor	GB	London	51.4956657	-0.1452793	('GB', 'London')
2680060000000.0	Grange City Hotel	GB	London	51.5110114	-0.0771251	('GB', 'London')
2723010000000.0	The Levin Hotel	GB	London	51.4998574	-0.161717	('GB', 'London')
2654290000000.0	Crowne Plaza London The City	GB	London	51.5122429	-0.1045036	('GB', 'London')
2757370000000.0	The Mandeville Hotel	GB	London	51.5165165	-0.1509735	('GB', 'London')
2783140000000.0	Ham Yard Hotel	GB	London	51.511174	-0.1349904	('GB', 'London')
2628520000000.0	Durrants Hotel	GB	London	51.5179386	-0.1529794	('GB', 'London')
2800320000000.0	The Langham London	GB	London	51.517876	-0.1440647	('GB', 'London')
2808910000000.0	Club Quarters Hotel Trafalgar Square	GB	London	51.506935	-0.126012	('GB', 'London')
2611340000000.0	The Capital	GB	London	51.4997486	-0.1615242	('GB', 'London')
2602750000000.0	Blakes Hotel	GB	London	51.4892447	-0.1803196	('GB', 'London')
2851860000000.0	St George s Hotel Wembley	GB	London	51.5553678	-0.2864945	('GB', 'London')
2877630000000.0	The Trafalgar Hilton	GB	London	51.507374	-0.129135	('GB', 'London')
2534030000000.0	London Marriott Hotel Park Lane	GB	London	51.5131428	-0.1576714	('GB', 'London')
2757370000000.0	Kensington House Hotel	GB	London	51.5012329	-0.1859937	('GB', 'London')
2765960000000.0	Park Plaza London Riverbank	GB	London	51.4913737	-0.1214194	('GB', 'London')
2508260000000.0	Radisson Blu Edwardian Berkshire	GB	London	51.5146025	-0.1481978	('GB', 'London')
2259150000000.0	Apex London Wall Hotel	GB	London	51.5160484	-0.0880181	('GB', 'London')
2267740000000.0	H10 London Waterloo	GB	London	51.4988817	-0.1062888	('GB', 'London')
2276330000000.0	Holiday Inn London Regent s Park	GB	London	51.5222472	-0.1426128	('GB', 'London')
2937760000000.0	Novotel London Wembley	GB	London	51.5611271	-0.2787261	('GB', 'London')
2284920000000.0	45 Park Lane Dorchester Collection	GB	London	51.5063709	-0.1515359	('GB', 'London')
2929170000000.0	The Gore Hotel Starhotels Collezione	GB	London	51.5001979	-0.1795357	('GB', 'London')
2302100000000.0	The Henrietta Hotel	GB	London	51.5109079	-0.1238221	('GB', 'London')
2894810000000.0	DoubleTree by Hilton London Chelsea	GB	London	51.475172	-0.1870629	('GB', 'London')
2319280000000.0	Hotel du Vin Cannizaro House Wimbledon	GB	London	51.4242413	-0.2293503	('GB', 'London')
2345050000000.0	London Marriott Hotel Regents Park	GB	London	51.5421476	-0.1703073	('GB', 'London')
2585570000000.0	The Lodge Hotel Putney	GB	London	51.4572991	-0.2055425	('GB', 'London')
2362230000000.0	Great St Helen Hotel	GB	London	51.5149583	-0.0823869	('GB', 'London')
2370820000000.0	Hotel Cavendish	GB	London	51.5220522	-0.132414	('GB', 'London')
2379410000000.0	The Soho Hotel	GB	London	51.5139805	-0.1337948	('GB', 'London')
2851860000000.0	The Rockwell	GB	London	51.4948059	-0.1926525	('GB', 'London')
2388000000000.0	Sanderson A Morgans Hotel	GB	London	51.5174853	-0.1372109	('GB', 'London')
2388000000000.0	The Tower A Guoman Hotel	GB	London	51.5064721	-0.0716893	('GB', 'London')
2396590000000.0	Holiday Inn London Whitechapel	GB	London	51.5154006	-0.0572364	('GB', 'London')
2817500000000.0	Rathbone	GB	London	51.5186801	-0.1354055	('GB', 'London')
2456720000000.0	Novotel London Blackfriars	GB	London	51.5050165	-0.1049831	('GB', 'London')
2465310000000.0	Jumeirah Lowndes Hotel	GB	London	51.4993652	-0.1576613	('GB', 'London')
2491080000000.0	Innkeeper s Lodge London Greenwich	GB	London	51.4801631	-0.0097201	('GB', 'London')
2851860000000.0	Gainsborough Hotel	GB	London	51.4948416	-0.1772056	('GB', 'London')
2267740000000.0	Club Quarters Hotel Gracechurch	GB	London	51.5127964	-0.0847973	('GB', 'London')
2602750000000.0	United Lodge Hotel and Apartments	GB	London	51.5743549	-0.0977567	('GB', 'London')
2585570000000.0	The Hoxton Holborn	GB	London	51.5172398	-0.1220324	('GB', 'London')
1717990000000.0	Mimi s Hotel Soho	GB	London	51.5140329	-0.1320651	('GB', 'London')
1803890000000.0	Shaftesbury Hyde Park International	GB	London	51.5123968	-0.186124	('GB', 'London')
1743760000000.0	Sydney House Chelsea	GB	London	51.4910062	-0.1717691	('GB', 'London')
2190430000000.0	My Bloomsbury	GB	London	51.5188555	-0.1319172	('GB', 'London')
2190430000000.0	TheWesley	GB	London	51.5265353	-0.1361682	('GB', 'London')
2456720000000.0	Clayton Crown Hotel London	GB	London	51.5561548	-0.2141824	('GB', 'London')
1760940000000.0	Fifty Four Boutique Hotel	GB	London	51.4963008	-0.1796853	('GB', 'London')
1769530000000.0	Doubletree by Hilton London Kensington	GB	London	51.4925138	-0.1787917	('GB', 'London')
3401610000000.0	DoubleTree by Hilton London Westminster	GB	London	51.4932356	-0.1269082	('GB', 'London')
1778120000000.0	Baglioni Hotel London The Leading Hotels of the World	GB	London	51.5017224	-0.1846243	('GB', 'London')
2422360000000.0	London Marriott Hotel West India Quay	GB	London	51.5072713	-0.0211213	('GB', 'London')
2199020000000.0	Marlin Waterloo	GB	London	51.4990953	-0.1132136	('GB', 'London')
1803890000000.0	Karma Sanctum Soho Hotel	GB	London	51.5116049	-0.1383145	('GB', 'London')
3358660000000.0	Millennium Gloucester Hotel London	GB	London	51.4935083	-0.1834346	('GB', 'London')
1829660000000.0	Adria Boutique Hotel	GB	London	51.4933372	-0.1788931	('GB', 'London')
3298530000000.0	DoubleTree by Hilton London Docklands Riverside	GB	London	51.5043483	-0.0334436	('GB', 'London')
3264180000000.0	Sloane Square Hotel	GB	London	51.4927325	-0.1573708	('GB', 'London')
1846840000000.0	Holiday Inn London Wembley	GB	London	51.5590955	-0.284704	('GB', 'London')
3247000000000.0	The Ritz London	GB	London	51.5069446	-0.1415776	('GB', 'London')
3238410000000.0	Radisson Blu Edwardian Hampshire	GB	London	51.509963	-0.129797	('GB', 'London')
1864020000000.0	Hilton London Canary Wharf	GB	London	51.5007324	-0.01655	('GB', 'London')
3229820000000.0	DoubleTree by Hilton Hotel London Tower of London	GB	London	51.5108412	-0.0780581	('GB', 'London')
2224790000000.0	Radisson Blu Edwardian Sussex	GB	London	51.5144381	-0.1558337	('GB', 'London')
1872610000000.0	Radisson Blu Edwardian Kenilworth	GB	London	51.5179725	-0.1280495	('GB', 'London')
3186870000000.0	Staybridge Suites London Stratford	GB	London	51.5426351	-0.0073272	('GB', 'London')
1803890000000.0	Apex City Of London Hotel	GB	London	51.5104624	-0.0795502	('GB', 'London')
1829660000000.0	Park Plaza County Hall London	GB	London	51.5014001	-0.1160092	('GB', 'London')
1898380000000.0	Windermere Hotel	GB	London	51.4903724	-0.1459218	('GB', 'London')
1984270000000.0	Hilton London Olympia	GB	London	51.4967399	-0.2064723	('GB', 'London')
2388000000000.0	11 Cadogan Gardens	GB	London	51.4936161	-0.1592347	('GB', 'London')
2345050000000.0	The Berkeley	GB	London	51.5020912	-0.1577795	('GB', 'London')
2345050000000.0	Novotel London Excel	GB	London	51.5077198	0.0229805	('GB', 'London')
2113120000000.0	Hotel Xenia Autograph Collection	GB	London	51.4946905	-0.1910197	('GB', 'London')
2310690000000.0	Park Plaza London Waterloo	GB	London	51.4982412	-0.1134715	('GB', 'London')
2293510000000.0	The Ned	GB	London	51.5135929	-0.0907833	('GB', 'London')
2293510000000.0	London Marriott Hotel Grosvenor Square	GB	London	51.511579	-0.1500193	('GB', 'London')
2284920000000.0	St Pancras Renaissance Hotel London	GB	London	51.5267769	-0.1324905	('GB', 'London')
2267740000000.0	Mercure London Bridge	GB	London	51.5052587	-0.099176	('GB', 'London')
2267740000000.0	Best Western Seraphine Kensington Olympia	GB	London	51.4992791	-0.1973593	('GB', 'London')
2250560000000.0	Park Grand London Hyde Park	GB	London	51.5157316	-0.1802179	('GB', 'London')
2345050000000.0	Haymarket Hotel	GB	London	51.5084595	-0.1311382	('GB', 'London')
1889790000000.0	Sofitel London St James	GB	London	51.5076044	-0.132266	('GB', 'London')
3315710000000.0	Boundary Rooms Suites	GB	London	51.5244224	-0.0764614	('GB', 'London')
2138890000000.0	Ambassadors Bloomsbury	GB	London	51.5266618	-0.1296571	('GB', 'London')
2147480000000.0	Le Meridien Piccadilly	GB	London	51.5094835	-0.1362538	('GB', 'London')
2516850000000.0	citizenM London Shoreditch	GB	London	51.5241373	-0.0786983	('GB', 'London')
3410200000000.0	The Curtain	GB	London	51.5237209	-0.0806178	('GB', 'London')
2104530000000.0	41	GB	London	51.4981471	-0.1436492	('GB', 'London')
3418790000000.0	Number Sixteen	GB	London	51.4930905	-0.1755022	('GB', 'London')
2087350000000.0	The Waldorf Hilton	GB	London	51.5131979	-0.1174504	('GB', 'London')
2070170000000.0	Goodenough Club	GB	London	51.525535	-0.1180354	('GB', 'London')
2044400000000.0	Grand Royale London Hyde Park	GB	London	51.5109945	-0.1863417	('GB', 'London')
2035810000000.0	Arbor City	GB	London	51.5166755	-0.0697897	('GB', 'London')
2173250000000.0	The Abbey Court Notting Hill	GB	London	51.5101401	-0.1968951	('GB', 'London')
2001450000000.0	Park Plaza London Park Royal	GB	London	51.527262	-0.282992	('GB', 'London')
3324300000000.0	Draycott Hotel	GB	London	51.4930097	-0.159715	('GB', 'London')
2413770000000.0	Comfort Inn Suites Kings Cross St Pancras	GB	London	51.5289499	-0.1232979	('GB', 'London')
3152510000000.0	Millennium Hotel London Mayfair	GB	London	51.510574	-0.1509951	('GB', 'London')
2259150000000.0	The Dorchester Dorchester Collection	GB	London	51.5074007	-0.1524593	('GB', 'London')
2267740000000.0	Club Quarters Hotel St Paul s	GB	London	51.5139298	-0.101126	('GB', 'London')
2594160000000.0	Copthorne Tara Hotel London Kensington	GB	London	51.499046	-0.1917073	('GB', 'London')
2585570000000.0	London City Suites	GB	London	51.5206309	-0.0915341	('GB', 'London')
2138890000000.0	The Park Grand London Paddington	GB	London	51.5142184	-0.1809032	('GB', 'London')
2551210000000.0	Novotel London West	GB	London	51.4919588	-0.2200956	('GB', 'London')
2534030000000.0	The Royal Horseguards	GB	London	51.5054185	-0.1241499	('GB', 'London')
2147480000000.0	La Suite West Hyde Park	GB	London	51.5126758	-0.1867828	('GB', 'London')
2156070000000.0	Egerton House	GB	London	51.4968406	-0.1675498	('GB', 'London')
2156070000000.0	W12 Rooms	GB	London	51.5045326	-0.2191174	('GB', 'London')
2482490000000.0	Hotel 82 London	GB	London	51.5195857	-0.1584803	('GB', 'London')
2448130000000.0	Bulgari Hotel London	GB	London	51.5015721	-0.1628511	('GB', 'London')
2181840000000.0	Twenty Nevern Square Hotel	GB	London	51.4915712	-0.1963192	('GB', 'London')
2181840000000.0	Jumeirah Carlton Tower	GB	London	51.4973568	-0.1576728	('GB', 'London')
2413770000000.0	Park Lane Mews Hotel	GB	London	51.5059334	-0.1489418	('GB', 'London')
2405180000000.0	Sheraton Grand London Park Lane	GB	London	51.5092876	-0.1370062	('GB', 'London')
2396590000000.0	K K Hotel George	GB	London	51.4918878	-0.1949706	('GB', 'London')
2388000000000.0	Dorsett Shepherds Bush	GB	London	51.5039399	-0.2244232	('GB', 'London')
2379410000000.0	The Zetter Townhouse Clerkenwell	GB	London	51.5231564	-0.1035134	('GB', 'London')
2267740000000.0	Claridge s	GB	London	51.5125035	-0.1477438	('GB', 'London')
2302100000000.0	St George Hotel	GB	London	51.5182768	-0.1583511	('GB', 'London')
2362230000000.0	The Grand at Trafalgar Square	GB	London	51.506935	-0.126012	('GB', 'London')
2353640000000.0	Shangri La Hotel at The Shard London	GB	London	51.5044972	-0.0855562	('GB', 'London')
2336460000000.0	The Laslett	GB	London	51.5095259	-0.1967234	('GB', 'London')
2327870000000.0	Mondrian London	GB	London	51.5084036	-0.1067988	('GB', 'London')
2319280000000.0	The RE London Shoreditch	GB	London	51.531979	-0.061598	('GB', 'London')
2121710000000.0	The Sumner Hotel	GB	London	51.5152892	-0.160898	('GB', 'London')
2688650000000.0	Andaz London Liverpool Street	GB	London	51.5172825	-0.0812451	('GB', 'London')
2061580000000.0	Mayflower Hotel Apartments	GB	London	51.4916677	-0.1947475	('GB', 'London')
2697240000000.0	The Beaumont Hotel	GB	London	51.513055	-0.152257	('GB', 'London')
2585570000000.0	Grange Blooms Hotel	GB	London	51.5196913	-0.1254243	('GB', 'London')
3083790000000.0	Grange Tower Bridge Hotel	GB	London	51.5115509	-0.0714919	('GB', 'London')
2388000000000.0	Novotel London Greenwich	GB	London	51.4778583	-0.0137463	('GB', 'London')
2001450000000.0	The Ampersand Hotel	GB	London	51.4943077	-0.1755579	('GB', 'London')
2284920000000.0	Chiswick Rooms	GB	London	51.4937409	-0.244896	('GB', 'London')
2010040000000.0	Courthouse Hotel Shoreditch	GB	London	51.5273442	-0.0796152	('GB', 'London')
2018630000000.0	Malmaison London	GB	London	51.520943	-0.1004581	('GB', 'London')
3040840000000.0	DoubleTree by Hilton London Islington	GB	London	51.5322508	-0.1095714	('GB', 'London')
2018630000000.0	Taj 51 Buckingham Gate Suites and Residences	GB	London	51.498861	-0.1374897	('GB', 'London')
2370820000000.0	BEST WESTERN Maitrise Hotel Maida Vale	GB	London	51.5366053	-0.1919832	('GB', 'London')
3023660000000.0	Holiday Inn London West	GB	London	51.5210117	-0.2628618	('GB', 'London')
2293510000000.0	Mercure London Bloomsbury Hotel	GB	London	51.5210085	-0.1230966	('GB', 'London')
1967100000000.0	Kingsway Hall Hotel	GB	London	51.5158643	-0.1200625	('GB', 'London')
2980710000000.0	Hilton London Hyde Park	GB	London	51.51046	-0.1875844	('GB', 'London')
2877630000000.0	My Chelsea	GB	London	51.4919083	-0.1684398	('GB', 'London')
2869040000000.0	The Zetter Hotel	GB	London	51.522672	-0.1036841	('GB', 'London')
2851860000000.0	New Linden Hotel	GB	London	51.5133832	-0.1926617	('GB', 'London')
2851860000000.0	Batty Langley s	GB	London	51.5208575	-0.0779503	('GB', 'London')
2826090000000.0	De Vere Devonport House	GB	London	51.480672	-0.0071375	('GB', 'London')
2826090000000.0	Grange Langham Court Hotel	GB	London	51.5189077	-0.1421957	('GB', 'London')
2817500000000.0	W London Leicester Square	GB	London	51.510843	-0.1314287	('GB', 'London')
2044400000000.0	The Bloomsbury Hotel	GB	London	51.5171671	-0.1290534	('GB', 'London')
2783140000000.0	Knightsbridge Hotel	GB	London	51.4980052	-0.1643238	('GB', 'London')
2740190000000.0	Ashburn Hotel	GB	London	51.4945522	-0.1861213	('GB', 'London')
2044400000000.0	DoubleTree By Hilton London Excel	GB	London	51.507377	0.038657	('GB', 'London')
2705830000000.0	Best Western Palm Hotel	GB	London	51.5634756	-0.2042758	('GB', 'London')
2963530000000.0	Bloomsbury Palace Hotel	GB	London	51.5207945	-0.1310845	('GB', 'London')
2087350000000.0	The Bailey s Hotel London	GB	London	51.4938733	-0.1824963	('GB', 'London')
2241970000000.0	Hotel Indigo London Tower Hill	GB	London	51.5128032	-0.07586	('GB', 'London')
2310690000000.0	DoubleTree by Hilton London Hyde Park	GB	London	51.5100362	-0.190657	('GB', 'London')
3264180000000.0	Holiday Inn London Mayfair	GB	London	51.507746	-0.1422993	('GB', 'London')
1846840000000.0	Hyatt Regency London The Churchill	GB	London	51.5156471	-0.1572443	('GB', 'London')
2800320000000.0	Henley House Hotel	GB	London	51.4922348	-0.1914229	('GB', 'London')
3298530000000.0	Thistle Trafalgar Square The Royal Trafalgar	GB	London	51.509133	-0.130189	('GB', 'London')
2774550000000.0	COMO Metropolitan London	GB	London	51.5050355	-0.1500864	('GB', 'London')
2010040000000.0	The London EDITION	GB	London	51.5167472	-0.135965	('GB', 'London')
3178280000000.0	Pestana Chelsea Bridge Hotel Spa	GB	London	51.4815995	-0.1481053	('GB', 'London')
2018630000000.0	Georgian House Hotel	GB	London	51.490724	-0.143868	('GB', 'London')
3152510000000.0	The Nadler Soho	GB	London	51.5147387	-0.1341108	('GB', 'London')
2542620000000.0	The Pelham Starhotels Collezione	GB	London	51.4943935	-0.1750169	('GB', 'London')
3143920000000.0	The Montcalm Marble Arch	GB	London	51.5150522	-0.159239	('GB', 'London')
3118150000000.0	Radisson Blu Edwardian Bloomsbury Street	GB	London	51.517608	-0.1276253	('GB', 'London')
3109560000000.0	The Piccadilly London West End	GB	London	51.5121957	-0.1318384	('GB', 'London')
3083790000000.0	Grosvenor House Suites by Jumeirah Living	GB	London	51.509841	-0.1552193	('GB', 'London')
3066610000000.0	The Tophams Hotel	GB	London	51.4957436	-0.1477528	('GB', 'London')
3058020000000.0	The Marylebone Hotel	GB	London	51.5180207	-0.1500567	('GB', 'London')
3066610000000.0	Threadneedles Autograph Collection	GB	London	51.5140208	-0.0854919	('GB', 'London')
3049430000000.0	The Beaufort	GB	London	51.4978466	-0.164156	('GB', 'London')
2035810000000.0	Rosewood London	GB	London	51.5173303	-0.1180966	('GB', 'London')
2705830000000.0	Grange Strathmore Hotel	GB	London	51.4958184	-0.1813958	('GB', 'London')
3083790000000.0	Grange Holborn Hotel	GB	London	51.519616	-0.1218432	('GB', 'London')
3324300000000.0	The Cavendish London	GB	London	51.5077459	-0.1378733	('GB', 'London')
2800320000000.0	The Rookery	GB	London	51.520171	-0.102463	('GB', 'London')
2826090000000.0	The Savoy	GB	London	51.5111922	-0.1194006	('GB', 'London')
3332890000000.0	Four Seasons Hotel London at Park Lane	GB	London	51.504439	-0.149911	('GB', 'London')
1760940000000.0	St Paul s Hotel	GB	London	51.4934752	-0.2153256	('GB', 'London')
2851860000000.0	Grange St Paul s Hotel	GB	London	51.5127625	-0.0997157	('GB', 'London')
2869040000000.0	Dorset Square Hotel	GB	London	51.5226361	-0.1602871	('GB', 'London')
1821070000000.0	DoubleTree by Hilton London Victoria	GB	London	51.49398	-0.143372	('GB', 'London')
1812480000000.0	COMO The Halkin	GB	London	51.4988977	-0.1562015	('GB', 'London')
1812480000000.0	Staunton Hotel B B	GB	London	51.520378	-0.1303414	('GB', 'London')
1864020000000.0	Park Avenue Baker Street	GB	London	51.5241452	-0.1609907	('GB', 'London')
1743760000000.0	Grange White Hall Hotel	GB	London	51.5203469	-0.1260893	('GB', 'London')
1726580000000.0	London Marriott Maida Vale	GB	London	51.5357597	-0.1902591	('GB', 'London')
2551210000000.0	The Nadler Kensington	GB	London	51.4931086	-0.190208	('GB', 'London')
2980710000000.0	The Franklin Hotel Starhotels Collezione	GB	London	51.4960283	-0.1686355	('GB', 'London')
1717990000000.0	London Bridge Hotel	GB	London	51.5052188	-0.088166	('GB', 'London')
2980710000000.0	Rubens At The Palace	GB	London	51.4981471	-0.1436492	('GB', 'London')
1881200000000.0	Hotel Cafe Royal	GB	London	51.5100916	-0.1359431	('GB', 'London')
1898380000000.0	The Chesterfield Mayfair	GB	London	51.5076899	-0.1471358	('GB', 'London')
2834680000000.0	Club Quarters Hotel Lincoln s Inn Fields	GB	London	51.5160988	-0.1181749	('GB', 'London')
3006480000000.0	San Domenico House	GB	London	51.4917798	-0.1616049	('GB', 'London')
3401610000000.0	Rocco Forte Brown s Hotel	GB	London	51.5090558	-0.1421661	('GB', 'London')
3015070000000.0	The Arch London	GB	London	51.5159214	-0.1598794	('GB', 'London')
3384430000000.0	Good Hotel London	GB	London	51.5084195	0.0253216	('GB', 'London')
3367250000000.0	Hilton London Wembley	GB	London	51.5576962	-0.2835263	('GB', 'London')
3358660000000.0	Hotel La Place	GB	London	51.5215257	-0.1533039	('GB', 'London')
1872610000000.0	One Aldwych	GB	London	51.5117832	-0.1194172	('GB', 'London')
3109560000000.0	London Marriott Hotel County Hall	GB	London	51.5016102	-0.1191545	('GB', 'London')
3092380000000.0	Best Western Plus Seraphine Hammersmith Hotel	GB	London	51.4926269	-0.2288598	('GB', 'London')
2104530000000.0	Thistle Hyde Park	GB	London	51.5112451	-0.1808938	('GB', 'London')
2645700000000.0	Grange Wellington Hotel	GB	London	51.4944319	-0.1363756	('GB', 'London')
2637110000000.0	St James Hotel Club Mayfair	GB	London	51.5061587	-0.1402803	('GB', 'London')
3221230000000.0	Doubletree By Hilton London Greenwich	GB	London	51.474469	-0.019428	('GB', 'London')
2602750000000.0	The Westbridge Hotel	GB	London	51.5373904	-0.0023367	('GB', 'London')
2010040000000.0	The Pillar Hotel	GB	London	51.583236	-0.216868	('GB', 'London')
2611340000000.0	Park Plaza Victoria London	GB	London	51.4942539	-0.1414756	('GB', 'London')
3229820000000.0	Saint Georges Hotel	GB	London	51.517839	-0.1424476	('GB', 'London')
1735170000000.0	Apex Temple Court Hotel	GB	London	51.5137335	-0.1087512	('GB', 'London')
2602750000000.0	Old Ship Inn Hackney	GB	London	51.5458476	-0.0554113	('GB', 'London')
3238410000000.0	The Kings Head Hotel	GB	London	51.5079153	-0.2730145	('GB', 'London')
2568390000000.0	Hilton London Euston	GB	London	51.5265189	-0.1303689	('GB', 'London')
3255590000000.0	Hilton London Kensington Hotel	GB	London	51.5051084	-0.213266	('GB', 'London')
2551210000000.0	The Victoria	GB	London	51.4611219	-0.2756216	('GB', 'London')
2233380000000.0	ME London by Melia	GB	London	51.511879	-0.118552	('GB', 'London')
3289940000000.0	Grange Fitzrovia Hotel	GB	London	51.521759	-0.1425381	('GB', 'London')
1726580000000.0	The Wellesley Knightsbridge a Luxury Collection Hotel London	GB	London	51.502485	-0.1539265	('GB', 'London')
2491080000000.0	Flemings Mayfair	GB	London	51.5064607	-0.1454198	('GB', 'London')
2482490000000.0	The Nadler Victoria	GB	London	51.4990259	-0.1427453	('GB', 'London')
2448130000000.0	St Martins Lane A Morgans Original	GB	London	51.5104696	-0.1265824	('GB', 'London')
2439540000000.0	London Hilton on Park Lane	GB	London	51.5055513	-0.1501698	('GB', 'London')
3298530000000.0	The Principal London	GB	London	51.5226217	-0.1251602	('GB', 'London')
2070170000000.0	Holiday Inn London Camden Lock	GB	London	51.5404555	-0.1460833	('GB', 'London')
2559800000000.0	Novotel London Waterloo	GB	London	51.4948465	-0.1187481	('GB', 'London')
2697240000000.0	London Marriott Hotel Kensington	GB	London	51.4944849	-0.1884174	('GB', 'London')
3221230000000.0	The Goring	GB	London	51.4975621	-0.145551	('GB', 'London')
1992860000000.0	Holiday Inn London Brent Cross	GB	London	51.5731061	-0.2233332	('GB', 'London')
2628520000000.0	Bermondsey Square Hotel A Bespoke Hotel	GB	London	51.4991134	-0.0790969	('GB', 'London')
2929170000000.0	M by Montcalm Shoreditch London Tech City	GB	London	51.5278465	-0.0889473	('GB', 'London')
1872610000000.0	DoubleTree by Hilton London Ealing	GB	London	51.511521	-0.290706	('GB', 'London')
1881200000000.0	Hilton London Bankside	GB	London	51.5056956	-0.101525	('GB', 'London')
2911990000000.0	InterContinental London Park Lane	GB	London	51.5038632	-0.1504132	('GB', 'London')
2671470000000.0	Radisson Blu Edwardian New Providence Wharf	GB	London	51.5065578	-0.004514	('GB', 'London')
1906970000000.0	Park Plaza Westminster Bridge London	GB	London	51.5009609	-0.1165913	('GB', 'London')
2860450000000.0	Strand Palace Hotel	GB	London	51.5110993	-0.1208673	('GB', 'London')
2121710000000.0	Hilton London Green Park	GB	London	51.5064534	-0.1456146	('GB', 'London')
3118150000000.0	Crowne Plaza London Battersea	GB	London	51.4689559	-0.1787256	('GB', 'London')
3126740000000.0	Radisson Blu Edwardian Vanderbilt	GB	London	51.4953691	-0.1818966	('GB', 'London')
2808910000000.0	Crowne Plaza London Kings Cross	GB	London	51.5263854	-0.1136042	('GB', 'London')
2628520000000.0	Hotel Moonlight	GB	London	51.4940285	-0.1910497	('GB', 'London')
1829660000000.0	The Queens Gate Hotel	GB	London	51.4981225	-0.1799693	('GB', 'London')
2800320000000.0	The Chamberlain	GB	London	51.5122457	-0.0757326	('GB', 'London')
2156070000000.0	88 Studios	GB	London	51.4992789	-0.2090733	('GB', 'London')
2765960000000.0	Staybridge Suites London Vauxhall	GB	London	51.4891226	-0.1205639	('GB', 'London')
3143920000000.0	Holiday Inn London Kensington	GB	London	51.499981	-0.1928791	('GB', 'London')
2181840000000.0	Grange Rochester Hotel	GB	London	51.4942654	-0.1366026	('GB', 'London')
1967100000000.0	Courthouse Hotel London	GB	London	51.5143624	-0.1394483	('GB', 'London')
2705830000000.0	Portobello House	GB	London	51.5199224	-0.2116636	('GB', 'London')
2688650000000.0	Washington Mayfair Hotel	GB	London	51.5060237	-0.151078	('GB', 'London')
3066610000000.0	Hotel La Spezia Gruppo MiniHotel	IT	Milan	45.4408963	9.1728003	('IT', 'Milan')
2156070000000.0	Hotel Dieci	IT	Milan	45.4738012	9.2239702	('IT', 'Milan')
2826090000000.0	TownHouse 33	IT	Milan	45.4693349	9.2142383	('IT', 'Milan')
2843270000000.0	Mokinba Hotels Baviera	IT	Milan	45.4782808	9.1997755	('IT', 'Milan')
2817500000000.0	Nhow Milan	IT	Milan	45.4510425	9.1606536	('IT', 'Milan')
2284920000000.0	Mokinba Hotels Montebianco	IT	Milan	45.4788051	9.1446276	('IT', 'Milan')
2104530000000.0	Hilton Milan	IT	Milan	45.4862032	9.200322	('IT', 'Milan')
2817500000000.0	Admiral Hotel	IT	Milan	45.480515	9.160063	('IT', 'Milan')
2542620000000.0	Ibis Styles Milano Palmanova	IT	Milan	45.5045259	9.246461	('IT', 'Milan')
2241970000000.0	AC Hotel Milano a Marriott Lifestyle Hotel	IT	Milan	45.4851799	9.1831189	('IT', 'Milan')
1778120000000.0	Atahotel Contessa Jolanda	IT	Milan	45.4984161	9.1904375	('IT', 'Milan')
2405180000000.0	Hotel Mercure Milano Solari	IT	Milan	45.4565757	9.1684824	('IT', 'Milan')
1752350000000.0	Andreola Central Hotel	IT	Milan	45.4836517	9.2078581	('IT', 'Milan')
1726580000000.0	Hotel Galileo	IT	Milan	45.4642651	9.1960569	('IT', 'Milan')
3135330000000.0	Senato Hotel Milano	IT	Milan	45.4714062	9.1965303	('IT', 'Milan')
2997890000000.0	Starhotels Anderson	IT	Milan	45.4852549	9.2069501	('IT', 'Milan')
1786710000000.0	Starhotels Ritz	IT	Milan	45.4779041	9.2094965	('IT', 'Milan')
2473900000000.0	Sina De La Ville	IT	Milan	45.465957	9.192297	('IT', 'Milan')
3195460000000.0	TownHouse Galleria	IT	Milan	45.4657842	9.1895321	('IT', 'Milan')
3393020000000.0	Leonardo Hotel Milan City Center	IT	Milan	45.482442	9.1756982	('IT', 'Milan')
3332890000000.0	Nu Hotel	IT	Milan	45.4911829	9.2393614	('IT', 'Milan')
2568390000000.0	IH Hotels Milano Gioia	IT	Milan	45.49952	9.206138	('IT', 'Milan')
2551210000000.0	STRAF a Member of Design Hotels	IT	Milan	45.465237	9.191247	('IT', 'Milan')
2534030000000.0	Best Western Plus Hotel Galles	IT	Milan	45.4805847	9.2117326	('IT', 'Milan')
3152510000000.0	Best Western Hotel Major	IT	Milan	45.4472099	9.2090967	('IT', 'Milan')
2413770000000.0	Qualys Hotel Nasco	IT	Milan	45.4848809	9.1596461	('IT', 'Milan')
3066610000000.0	IH Hotels Milano Watt 13	IT	Milan	45.443791	9.152947	('IT', 'Milan')
2405180000000.0	Grand Hotel et de Milan	IT	Milan	45.4699058	9.1925024	('IT', 'Milan')
2250560000000.0	Glam Milano	IT	Milan	45.4838504	9.2034067	('IT', 'Milan')
2877630000000.0	Novotel Milano Linate Aeroporto	IT	Milan	45.4481878	9.2570459	('IT', 'Milan')
2954940000000.0	Radisson Blu Hotel Milan	IT	Milan	45.500667	9.1445874	('IT', 'Milan')
2774550000000.0	Sina The Gray	IT	Milan	45.4655368	9.1914986	('IT', 'Milan')
2259150000000.0	Sheraton Diana Majestic	IT	Milan	45.4736557	9.2066824	('IT', 'Milan')
2035810000000.0	Carlyle Brera Hotel	IT	Milan	45.4769923	9.1844899	('IT', 'Milan')
2267740000000.0	IH Hotels Milano Puccini	IT	Milan	45.4794406	9.2096756	('IT', 'Milan')
2731600000000.0	Hotel Berna	IT	Milan	45.4826692	9.2034371	('IT', 'Milan')
2302100000000.0	Baglioni Hotel Carlton The Leading Hotels of the World	IT	Milan	45.4691663	9.1984454	('IT', 'Milan')
2723010000000.0	NH Milano Grand Hotel Verdi	IT	Milan	45.4814923	9.192023	('IT', 'Milan')
1984270000000.0	Grand Visconti Palace	IT	Milan	45.4471408	9.2070051	('IT', 'Milan')
2310690000000.0	UNA Hotel Mediterraneo	IT	Milan	45.451873	9.20548	('IT', 'Milan')
2396590000000.0	Bulgari Hotel Milano	IT	Milan	45.4701334	9.1897405	('IT', 'Milan')
1898380000000.0	Mercure Milano Regency	IT	Milan	45.4897688	9.1549451	('IT', 'Milan')
2542620000000.0	Meli Milano	IT	Milan	45.4792738	9.1459546	('IT', 'Milan')
2233380000000.0	Antares Hotel Accademia	IT	Milan	45.4921089	9.1476806	('IT', 'Milan')
1932740000000.0	Four Points Sheraton Milan Center	IT	Milan	45.4851889	9.198015	('IT', 'Milan')
3092380000000.0	LHP Hotel Napoleon	IT	Milan	45.4802415	9.2131919	('IT', 'Milan')
2362230000000.0	Camperio House Suites Apartments	IT	Milan	45.466598	9.183064	('IT', 'Milan')
3032250000000.0	Best Western Madison Hotel	IT	Milan	45.4881471	9.2016609	('IT', 'Milan')
3015070000000.0	Antares Hotel Rubens	IT	Milan	45.4670579	9.1427822	('IT', 'Milan')
2997890000000.0	NH Milano Palazzo Moscova	IT	Milan	45.480968	9.189977	('IT', 'Milan')
2929170000000.0	UNA Hotel Cusani	IT	Milan	45.4684251	9.1834161	('IT', 'Milan')
2826090000000.0	Ca Bianca Hotel Corte Del Naviglio	IT	Milan	45.443502	9.1377081	('IT', 'Milan')
2783140000000.0	Hotel Da Vinci	IT	Milan	45.5331372	9.1711019	('IT', 'Milan')
2680060000000.0	Starhotels Echo	IT	Milan	45.4847398	9.2072916	('IT', 'Milan')
1975680000000.0	The Yard Milano	IT	Milan	45.453152	9.179172	('IT', 'Milan')
2680060000000.0	Hotel VIU Milan	IT	Milan	45.488764	9.183057	('IT', 'Milan')
2843270000000.0	IH Hotels Milano Lorenteggio	IT	Milan	45.4436132	9.1161094	('IT', 'Milan')
2877630000000.0	The Square Milano Duomo	IT	Milan	45.4608604	9.1890215	('IT', 'Milan')
3049430000000.0	Hotel Mozart	IT	Milan	45.4834133	9.1666361	('IT', 'Milan')
2516850000000.0	Hotel Liberty	IT	Milan	45.4508673	9.1948659	('IT', 'Milan')
2499670000000.0	Hotel D Este	IT	Milan	45.4510397	9.1920911	('IT', 'Milan')
2954940000000.0	Hotel Tiziano Park Vita Parcour Gruppo MiniHotels	IT	Milan	45.4709657	9.1566242	('IT', 'Milan')
2413770000000.0	Bianca Maria Palace Hotel	IT	Milan	45.4635445	9.2068649	('IT', 'Milan')
2405180000000.0	DoubleTree By Hilton Milan	IT	Milan	45.5005657	9.1383663	('IT', 'Milan')
2181840000000.0	Hotel Carrobbio	IT	Milan	45.4606597	9.1810947	('IT', 'Milan')
2138890000000.0	Hotel Principe Di Savoia	IT	Milan	45.479888	9.1962982	('IT', 'Milan')
2121710000000.0	UNA Hotel Scandinavia	IT	Milan	45.4859983	9.1637603	('IT', 'Milan')
2147480000000.0	Starhotels Business Palace	IT	Milan	45.43784	9.230901	('IT', 'Milan')
2130300000000.0	Best Western Atlantic Hotel	IT	Milan	45.4830211	9.2033246	('IT', 'Milan')
1898380000000.0	Hotel Lombardia	IT	Milan	45.4872511	9.2237385	('IT', 'Milan')
1812480000000.0	Hotel Silver	IT	Milan	45.4589731	9.0687506	('IT', 'Milan')
2911990000000.0	Hotel Milano Scala	IT	Milan	45.4689376	9.1868891	('IT', 'Milan')
3204050000000.0	Ramada Plaza Milano	IT	Milan	45.501946	9.2277569	('IT', 'Milan')
1846840000000.0	Hotel Clerici	IT	Milan	45.4667717	9.1871001	('IT', 'Milan')
3324300000000.0	Hotel Capitol Milano	IT	Milan	45.4661781	9.1588367	('IT', 'Milan')
2250560000000.0	Maison Borella	IT	Milan	45.4521067	9.1758135	('IT', 'Milan')
2216200000000.0	The Westin Palace	IT	Milan	45.4790357	9.199028	('IT', 'Milan')
3393020000000.0	TownHouse 12	IT	Milan	45.4844028	9.1673528	('IT', 'Milan')
2138890000000.0	TH Street Duomo	IT	Milan	45.4657568	9.1916674	('IT', 'Milan')
2319280000000.0	Style Hotel	IT	Milan	45.4708973	9.1840992	('IT', 'Milan')
2087350000000.0	Park Hyatt Milano	IT	Milan	45.4654912	9.1889612	('IT', 'Milan')
2078760000000.0	Armani Hotel Milano	IT	Milan	45.470532	9.19302	('IT', 'Milan')
2001450000000.0	Hotel Dei Cavalieri	IT	Milan	45.4608547	9.1886179	('IT', 'Milan')
2362230000000.0	ME Milan Il Duca	IT	Milan	45.4793852	9.1961308	('IT', 'Milan')
1992860000000.0	Excelsior Hotel Gallia Luxury Collection Hotel	IT	Milan	45.4857027	9.2020127	('IT', 'Milan')
1735170000000.0	Barcel Milan	IT	Milan	45.51152	9.1241306	('IT', 'Milan')
3169690000000.0	Novotel Milano Nord Ca Granda	IT	Milan	45.506502	9.1965192	('IT', 'Milan')
2370820000000.0	ADI Doria Grand Hotel	IT	Milan	45.4853717	9.2115837	('IT', 'Milan')
1829660000000.0	NYX Milan	IT	Milan	45.4868745	9.2018406	('IT', 'Milan')
1769530000000.0	Brunelleschi Hotel	IT	Milan	45.461177	9.191047	('IT', 'Milan')
2448130000000.0	Hotel Michelangelo	IT	Milan	45.4845143	9.2057532	('IT', 'Milan')
1795300000000.0	Enterprise Hotel Design Boutique	IT	Milan	45.4867005	9.1575137	('IT', 'Milan')
1717990000000.0	Acca Palace	IT	Milan	45.5099969	9.1739942	('IT', 'Milan')
1795300000000.0	Windsor Hotel Milano	IT	Milan	45.4794587	9.1951427	('IT', 'Milan')
1821070000000.0	Hotel Cavour	IT	Milan	45.4726942	9.1943911	('IT', 'Milan')
3401610000000.0	Hotel Spadari Al Duomo	IT	Milan	45.463579	9.1869092	('IT', 'Milan')
2534030000000.0	Four Seasons Hotel Milano	IT	Milan	45.469339	9.195108	('IT', 'Milan')
3393020000000.0	Hotel Magna Pars Small Luxury Hotels of the World	IT	Milan	45.4524879	9.1669784	('IT', 'Milan')
2559800000000.0	ADI Hotel Poliziano Fiera	IT	Milan	45.4837173	9.1649371	('IT', 'Milan')
2405180000000.0	Hotel Manin	IT	Milan	45.4739801	9.1960671	('IT', 'Milan')
3212640000000.0	Starhotels Tourist	IT	Milan	45.5266395	9.2131549	('IT', 'Milan')
3143920000000.0	Hotel Regina	IT	Milan	45.459485	9.179511	('IT', 'Milan')
1752350000000.0	Hotel Portello Gruppo Minihotel	IT	Milan	45.4802503	9.1494925	('IT', 'Milan')
3221230000000.0	Holiday Inn Milan Garibaldi Station	IT	Milan	45.488764	9.183057	('IT', 'Milan')
3135330000000.0	Room Mate Giulia	IT	Milan	45.4651371	9.1895249	('IT', 'Milan')
2259150000000.0	Hotel Auriga	IT	Milan	45.4858877	9.2042827	('IT', 'Milan')
3040840000000.0	Best Western Antares Hotel Concorde	IT	Milan	45.502453	9.2218364	('IT', 'Milan')
1760940000000.0	Palazzo Segreti	IT	Milan	45.4672309	9.184154	('IT', 'Milan')
1769530000000.0	TownHouse Duomo	IT	Milan	45.4648822	9.1893265	('IT', 'Milan')
3032250000000.0	Best Western Hotel Ascot	IT	Milan	45.4580137	9.1913676	('IT', 'Milan')
1778120000000.0	NH Milano Machiavelli	IT	Milan	45.4776167	9.2016244	('IT', 'Milan')
3118150000000.0	Atahotel Linea Uno	IT	Milan	45.50054	9.2208089	('IT', 'Milan')
3023660000000.0	Hotel Mercure Milano Centro	IT	Milan	45.4747809	9.2059385	('IT', 'Milan')
2310690000000.0	Hotel Marconi	IT	Milan	45.4868744	9.2018407	('IT', 'Milan')
1881200000000.0	Mandarin Oriental Milan	IT	Milan	45.4694772	9.1909325	('IT', 'Milan')
1717990000000.0	Hotel Crivi s	IT	Milan	45.4529643	9.1962217	('IT', 'Milan')
2740190000000.0	Palazzo Parigi Hotel Grand Spa Milano	IT	Milan	45.473348	9.1910733	('IT', 'Milan')
2654290000000.0	Best Western Hotel Astoria	IT	Milan	45.4725167	9.1439198	('IT', 'Milan')
2611340000000.0	NH Milano Touring	IT	Milan	45.4769167	9.196665	('IT', 'Milan')
2319280000000.0	Mokinba Hotels King	IT	Milan	45.4656023	9.1778675	('IT', 'Milan')
1975680000000.0	Hotel Sunflower	IT	Milan	45.498503	9.1664111	('IT', 'Milan')
2319280000000.0	Idea Hotel Milano San Siro	IT	Milan	45.4720654	9.0777871	('IT', 'Milan')
3075200000000.0	Best Western Plus Hotel Felice Casati	IT	Milan	45.4787357	9.2041131	('IT', 'Milan')
2473900000000.0	Antica Locanda Dei Mercanti	IT	Milan	45.467298	9.1846982	('IT', 'Milan')
2413770000000.0	Hilton Garden Inn Milan North	IT	Milan	45.5161671	9.2272778	('IT', 'Milan')
2027220000000.0	Best Western Hotel City	IT	Milan	45.4858877	9.2042827	('IT', 'Milan')
2379410000000.0	Rosa Grand Milano Starhotels Collezione	IT	Milan	45.4638223	9.1940273	('IT', 'Milan')
2061580000000.0	Hotel Boutique Duomo	IT	Milan	45.4909585	9.1614268	('IT', 'Milan')
2070170000000.0	Hotel Manzoni	IT	Milan	45.470238	9.195347	('IT', 'Milan')
1915560000000.0	Hotel Wagner	IT	Milan	45.4684949	9.1550355	('IT', 'Milan')
2241970000000.0	NH Collection Milano President	IT	Milan	45.4630685	9.1979367	('IT', 'Milan')
3066610000000.0	Hotel degli Arcimboldi	IT	Milan	45.5257221	9.2150033	('IT', 'Milan')
3324300000000.0	Milan Suite Hotel	IT	Milan	45.5000245	9.1428722	('IT', 'Milan')
3375840000000.0	Boscolo Milano Autograph Collection	IT	Milan	45.46676	9.194293	('IT', 'Milan')
3384430000000.0	Hotel Lloyd	IT	Milan	45.4580781	9.1924205	('IT', 'Milan')
3393020000000.0	Art Hotel Navigli	IT	Milan	45.4501306	9.1696481	('IT', 'Milan')
3324300000000.0	Milan Marriott Hotel	IT	Milan	45.4611287	9.1542675	('IT', 'Milan')
2199020000000.0	Best Western Hotel Mirage	IT	Milan	45.4947129	9.1418864	('IT', 'Milan')
3358660000000.0	Hotel Mediolanum	IT	Milan	45.4813423	9.2039494	('IT', 'Milan')
3272770000000.0	Uptown Palace	IT	Milan	45.4574655	9.1919138	('IT', 'Milan')
3315710000000.0	Best Western Hotel St George	IT	Milan	45.4770906	9.2054208	('IT', 'Milan')
3393020000000.0	LaGare Hotel Milano Centrale MGallery by Sofitel	IT	Milan	45.484237	9.198858	('IT', 'Milan')
3375840000000.0	MiHotel	IT	Milan	45.4405621	9.1921165	('IT', 'Milan')
3169690000000.0	Colombia	IT	Milan	45.4829817	9.2041911	('IT', 'Milan')
3178280000000.0	Hotel Romana Residence	IT	Milan	45.4572218	9.1937008	('IT', 'Milan')
3161100000000.0	Hotel Vittoria	IT	Milan	45.463135	9.2102	('IT', 'Milan')
3418790000000.0	Worldhotel Cristoforo Colombo	IT	Milan	45.4758842	9.205791	('IT', 'Milan')
3418790000000.0	The Hub Hotel	IT	Milan	45.5138582	9.1194759	('IT', 'Milan')
3126740000000.0	Klima Hotel Milano Fiere	IT	Milan	45.5147974	9.116606	('IT', 'Milan')
3255590000000.0	Hotel Raffaello	IT	Milan	45.494861	9.141551	('IT', 'Milan')
1717990000000.0	UNA Hotel Century	IT	Milan	45.4841371	9.2001623	('IT', 'Milan')
2997890000000.0	WestCord Fashion Hotel Amsterdam	NL	Amsterdam	52.357655	4.844576	('NL', 'Amsterdam')
2156070000000.0	Bilderberg Garden Hotel	NL	Amsterdam	52.3511447	4.8740764	('NL', 'Amsterdam')
2345050000000.0	NH Collection Amsterdam Grand Hotel Krasnapolsky	NL	Amsterdam	52.3727067	4.8943658	('NL', 'Amsterdam')
3393020000000.0	Banks Mansion All Inclusive Hotel	NL	Amsterdam	52.3653868	4.8931979	('NL', 'Amsterdam')
3006480000000.0	Urban Lodge Hotel	NL	Amsterdam	52.3856494	4.834443	('NL', 'Amsterdam')
2362230000000.0	InterContinental Amstel Amsterdam	NL	Amsterdam	52.3600068	4.9051643	('NL', 'Amsterdam')
3143920000000.0	NH Amsterdam Noord	NL	Amsterdam	52.3923684	4.9110442	('NL', 'Amsterdam')
2534030000000.0	Sofitel Legend The Grand Amsterdam	NL	Amsterdam	52.370835	4.895403	('NL', 'Amsterdam')
2130300000000.0	The Toren	NL	Amsterdam	52.3758754	4.8859642	('NL', 'Amsterdam')
3092380000000.0	Albus Hotel Amsterdam City Centre	NL	Amsterdam	52.365823	4.893243	('NL', 'Amsterdam')
1941330000000.0	Hyatt Regency Amsterdam	NL	Amsterdam	52.3617751	4.9118187	('NL', 'Amsterdam')
3238410000000.0	Ambassade Hotel	NL	Amsterdam	52.369391	4.8871721	('NL', 'Amsterdam')
2310690000000.0	Hotel JL No76	NL	Amsterdam	52.3595919	4.8801587	('NL', 'Amsterdam')
2954940000000.0	art otel Amsterdam	NL	Amsterdam	52.377743	4.897057	('NL', 'Amsterdam')
2027220000000.0	Grand Hotel Amr th Amsterdam	NL	Amsterdam	52.3744149	4.9041443	('NL', 'Amsterdam')
2379410000000.0	Amadi Panorama Hotel	NL	Amsterdam	52.3588806	4.9886041	('NL', 'Amsterdam')
2010040000000.0	Golden Tulip Amsterdam West	NL	Amsterdam	52.385601	4.8470597	('NL', 'Amsterdam')
2980710000000.0	Element Amsterdam	NL	Amsterdam	52.3312406	4.8774466	('NL', 'Amsterdam')
1915560000000.0	Hotel Seven One Seven	NL	Amsterdam	52.3648077	4.8853962	('NL', 'Amsterdam')
1752350000000.0	Pillows Anna van den Vondel Amsterdam	NL	Amsterdam	52.3607413	4.8695315	('NL', 'Amsterdam')
2259150000000.0	Best Western Plus Hotel Blue Square	NL	Amsterdam	52.3786823	4.8207833	('NL', 'Amsterdam')
1941330000000.0	NH City Centre Amsterdam	NL	Amsterdam	52.3697554	4.8887815	('NL', 'Amsterdam')
2585570000000.0	citizenM Amsterdam	NL	Amsterdam	52.3419432	4.8759604	('NL', 'Amsterdam')
2628520000000.0	Holiday Inn Amsterdam	NL	Amsterdam	52.3351951	4.8885354	('NL', 'Amsterdam')
3418790000000.0	Room Mate Aitana	NL	Amsterdam	52.3846059	4.8941866	('NL', 'Amsterdam')
2551210000000.0	Novotel Amsterdam City	NL	Amsterdam	52.333803	4.8884708	('NL', 'Amsterdam')
2422360000000.0	Hotel Die Port van Cleve	NL	Amsterdam	52.3741426	4.8907741	('NL', 'Amsterdam')
2980710000000.0	Hotel Okura Amsterdam	NL	Amsterdam	52.3487635	4.8938829	('NL', 'Amsterdam')
2980710000000.0	Fletcher Hotel Amsterdam	NL	Amsterdam	52.2924567	4.9444338	('NL', 'Amsterdam')
2310690000000.0	NH Amsterdam Schiller	NL	Amsterdam	52.3657092	4.8966912	('NL', 'Amsterdam')
2216200000000.0	Mercure Hotel Amsterdam City South	NL	Amsterdam	52.335182	4.9138688	('NL', 'Amsterdam')
3109560000000.0	Canal House	NL	Amsterdam	52.3763099	4.8862701	('NL', 'Amsterdam')
2121710000000.0	Grand Hotel Downtown	NL	Amsterdam	52.36513	4.8729422	('NL', 'Amsterdam')
2113120000000.0	Savoy Hotel Amsterdam	NL	Amsterdam	52.3497431	4.8911908	('NL', 'Amsterdam')
2001450000000.0	Amsterdam Canal Residence	NL	Amsterdam	52.3594783	4.895853	('NL', 'Amsterdam')
3238410000000.0	Corendon Vitality Hotel Amsterdam	NL	Amsterdam	52.3466449	4.8310984	('NL', 'Amsterdam')
3255590000000.0	Hotel V Fizeaustraat	NL	Amsterdam	52.3451511	4.9252372	('NL', 'Amsterdam')
1726580000000.0	Hampton by Hilton Amsterdam Centre East	NL	Amsterdam	52.3714428	4.9346331	('NL', 'Amsterdam')
2662880000000.0	Hotel V Nesplein	NL	Amsterdam	52.3711037	4.8936787	('NL', 'Amsterdam')
2817500000000.0	Golden Tulip Amsterdam Riverside	NL	Amsterdam	52.3154533	4.9962997	('NL', 'Amsterdam')
2723010000000.0	Renaissance Amsterdam Hotel	NL	Amsterdam	52.377955	4.894641	('NL', 'Amsterdam')
2748780000000.0	NH Carlton Amsterdam	NL	Amsterdam	52.3663727	4.8930505	('NL', 'Amsterdam')
2241970000000.0	Waldorf Astoria Amsterdam	NL	Amsterdam	52.364768	4.896945	('NL', 'Amsterdam')
2284920000000.0	Mercure Hotel Amsterdam West	NL	Amsterdam	52.3375677	4.8178172	('NL', 'Amsterdam')
2199020000000.0	NH Amsterdam Caransa	NL	Amsterdam	52.3664077	4.8969091	('NL', 'Amsterdam')
2001450000000.0	Apollo Hotel Amsterdam	NL	Amsterdam	52.3486098	4.8844292	('NL', 'Amsterdam')
1958510000000.0	DoubleTree by Hilton Hotel Amsterdam NDSM Wharf	NL	Amsterdam	52.4001813	4.8936653	('NL', 'Amsterdam')
1941330000000.0	Andaz Amsterdam Prinsengracht A Hyatt Hotel	NL	Amsterdam	52.3678368	4.8830788	('NL', 'Amsterdam')
1838250000000.0	Chasse Hotel	NL	Amsterdam	52.3696719	4.8614475	('NL', 'Amsterdam')
3367250000000.0	The Hoxton Amsterdam	NL	Amsterdam	52.3718665	4.8873794	('NL', 'Amsterdam')
1821070000000.0	Conservatorium Hotel	NL	Amsterdam	52.358631	4.8786236	('NL', 'Amsterdam')
3418790000000.0	The College Hotel	NL	Amsterdam	52.3527675	4.88373	('NL', 'Amsterdam')
3212640000000.0	Luxury Suites Amsterdam	NL	Amsterdam	52.3702613	4.9032489	('NL', 'Amsterdam')
3143920000000.0	M venpick Hotel Amsterdam City Centre	NL	Amsterdam	52.3781016	4.9142508	('NL', 'Amsterdam')
2705830000000.0	Best Western Premier Hotel Couture	NL	Amsterdam	52.3511137	4.8411629	('NL', 'Amsterdam')
2911990000000.0	NH Amsterdam Museum Quarter	NL	Amsterdam	52.3560923	4.8858229	('NL', 'Amsterdam')
2731600000000.0	Hotel Roemer Amsterdam	NL	Amsterdam	52.3617577	4.8780052	('NL', 'Amsterdam')
2834680000000.0	Amadi Park Hotel	NL	Amsterdam	52.364962	4.873495	('NL', 'Amsterdam')
3427380000000.0	Hampshire Hotel Amsterdam American	NL	Amsterdam	52.363889	4.881302	('NL', 'Amsterdam')
2920580000000.0	Best Western Blue Tower Hotel	NL	Amsterdam	52.3793659	4.8457179	('NL', 'Amsterdam')
3315710000000.0	Hampshire Hotel The Manor Amsterdam	NL	Amsterdam	52.3591467	4.9263601	('NL', 'Amsterdam')
2018630000000.0	Boutique Hotel Notting Hill	NL	Amsterdam	52.3583821	4.8988777	('NL', 'Amsterdam')
3100970000000.0	INK Hotel Amsterdam MGallery by Sofitel	NL	Amsterdam	52.3754926	4.8929878	('NL', 'Amsterdam')
3040840000000.0	Inntel Hotels Amsterdam Centre	NL	Amsterdam	52.3760456	4.8943917	('NL', 'Amsterdam')
3023660000000.0	Hotel Amsterdam De Roode Leeuw	NL	Amsterdam	52.373704	4.893591	('NL', 'Amsterdam')
2413770000000.0	NH Amsterdam Centre	NL	Amsterdam	52.3630682	4.8794451	('NL', 'Amsterdam')
1795300000000.0	Hampshire Hotel Rembrandt Square Amsterdam	NL	Amsterdam	52.3663466	4.8985764	('NL', 'Amsterdam')
2362230000000.0	WestCord Art Hotel Amsterdam 4 stars	NL	Amsterdam	52.3924898	4.8683822	('NL', 'Amsterdam')
1881200000000.0	Park Plaza Victoria Amsterdam	NL	Amsterdam	52.377278	4.897818	('NL', 'Amsterdam')
1924150000000.0	De L Europe Amsterdam	NL	Amsterdam	52.3678779	4.8948936	('NL', 'Amsterdam')
2302100000000.0	Sir Albert Hotel	NL	Amsterdam	52.3544507	4.8875036	('NL', 'Amsterdam')
2284920000000.0	Amsterdam Marriott Hotel	NL	Amsterdam	52.362514	4.8800077	('NL', 'Amsterdam')
3393020000000.0	Hotel De Hallen	NL	Amsterdam	52.3677568	4.8682174	('NL', 'Amsterdam')
2121710000000.0	NH Collection Amsterdam Doelen	NL	Amsterdam	52.3681919	4.8957609	('NL', 'Amsterdam')
2181840000000.0	Best Western Delphi Hotel	NL	Amsterdam	52.3504558	4.8770194	('NL', 'Amsterdam')
3350070000000.0	Hotel Arena	NL	Amsterdam	52.3605759	4.9159683	('NL', 'Amsterdam')
2224790000000.0	Radisson Blu Hotel Amsterdam	NL	Amsterdam	52.3702469	4.8966743	('NL', 'Amsterdam')
2482490000000.0	Hotel Esther a	NL	Amsterdam	52.3705447	4.8886439	('NL', 'Amsterdam')
2525440000000.0	Ramada Apollo Amsterdam Centre	NL	Amsterdam	52.3681299	4.8440847	('NL', 'Amsterdam')
2576980000000.0	Park Plaza Vondelpark Amsterdam	NL	Amsterdam	52.3542655	4.8664365	('NL', 'Amsterdam')
1898380000000.0	Mercure Hotel Amsterdam Centre Canal District	NL	Amsterdam	52.3611852	4.8936341	('NL', 'Amsterdam')
2757370000000.0	Royal Amsterdam Hotel	NL	Amsterdam	52.3657281	4.8972883	('NL', 'Amsterdam')
2783140000000.0	Dikker en Thijs Fenice Hotel	NL	Amsterdam	52.364971	4.8839827	('NL', 'Amsterdam')
2989300000000.0	Swiss tel Amsterdam	NL	Amsterdam	52.3735266	4.8933041	('NL', 'Amsterdam')
1786710000000.0	Crowne Plaza Amsterdam South	NL	Amsterdam	52.3357326	4.8743947	('NL', 'Amsterdam')
1752350000000.0	NH Amsterdam Zuid	NL	Amsterdam	52.3266672	4.8800884	('NL', 'Amsterdam')
3049430000000.0	Park Hotel	NL	Amsterdam	52.3613814	4.8832594	('NL', 'Amsterdam')
3066610000000.0	Pulitzer Amsterdam	NL	Amsterdam	52.3728353	4.883326	('NL', 'Amsterdam')
2748780000000.0	Mercure Amsterdam Sloterdijk Station	NL	Amsterdam	52.3872884	4.8349748	('NL', 'Amsterdam')
2894810000000.0	Apollofirst Boutique Hotel	NL	Amsterdam	52.350396	4.8756404	('NL', 'Amsterdam')
2310690000000.0	NH Collection Amsterdam Barbizon Palace	NL	Amsterdam	52.3764175	4.9002201	('NL', 'Amsterdam')
2525440000000.0	W Amsterdam	NL	Amsterdam	52.3727871	4.8900059	('NL', 'Amsterdam')
85899345922.0	Quality Inn and Suites Eugene-springfield	US	Springfield	44.08588	-123.04228	('US', 'Springfield')
876173000000.0	Greenstay Hotel and Suites	US	Springfield	37.2085	-93.22816	('US', 'Springfield')
1357210000000.0	Holiday Inn Express	US	Springfield	44.083797	-123.03951	('US', 'Springfield')
704375000000.0	Comfort Suites	US	Springfield	39.89509	-83.81486	('US', 'Springfield')
695785000000.0	Holiday Inn Express	US	Springfield	37.9567	-122.331267	('US', 'Springfield')
687195000000.0	Holiday Inn	US	Springfield	40.684914	-74.33085	('US', 'Springfield')
481036000000.0	Comfort Inn - Springfield	US	Springfield	38.7756	-77.17851	('US', 'Springfield')
