	Address	Id	Latitude	Longitude	Name
169	Via Giacomo Watt, Moncucco-San Cristoforo, Milano, Milano, 25, IT, 20143	1889790000000.0	48.8732543	2.343239	Hotel Panache
170	29 Via Alessandro Manzoni, Brera, Milano, Milano, 25, IT, 20121	1889790000000.0	48.8647019	2.2886425	La Clef Tour Eiffel
171	24 Via Villapizzone, Villapizzone-Cagnola-Boldinasco, Milano, Milano, 25, IT, 20156	1906970000000.0	48.8671391	2.3038447	Hotel West End
172	42 Viale Piave, Buenos Aires-P. Venezia-P. Monforte, Milano, Milano, 25, IT, 20129	1924150000000.0	48.8675674	2.3539896	Little Palace Hotel
173	33 Corso Buenos Aires, Buenos Aires-P. Venezia-P. Monforte, Milano, Milano, 25, IT, 20124	1949920000000.0	48.884165	2.3328261	Hotel Le Squara
174	8 Via Melchiorre Gioia, Porta Garibaldi-Porta Nuova, Milano, Milano, 25, IT, 20124	1975680000000.0	48.8542681	2.3078116	Le Tourville Eiffel
175	14A Viale Isonzo, Porta Romana, Milano, Milano, 25, IT, 20135	1975680000000.0	48.8474426	2.3223783	Hotel Spa La Belle Juliette
176	7 Via Privata Fratelli Gabba, Brera, Milano, Milano, 25, IT, 20121	1992860000000.0	48.8743481	2.2897334	Monhotel Lounge SPA
177	14 Via Federico Ozanam, Buenos Aires-P. Venezia-P. Monforte, Milano, Milano, 25, IT, 20129	2010040000000.0	48.8691758	2.3205807	H tel De Castiglione
178	9 Via Giorgio Giulini, Duomo, Milano, Milano, 25, IT, 20123	2018630000000.0	48.8519215	2.3839993	H tel Paris Bastille Boutet MGallery by Sofitel
179	Via Pietro Rubens, Bande Nere, Milano, Milano, 25, IT, 20148	2027220000000.0	48.8732068	2.3239015	Le Mathurin Hotel Spa
180	6 Via Senigallia, Bruzzano, Milano, Milano, 25, IT, 20161	2044400000000.0	48.8825781	2.3334805	Timhotel Op ra Blanche Fontaine
181	23 Viale Bligny, Porta Vigentina-Porta Lodovica, Milano, Milano, 25, IT, 20136	2113120000000.0	48.8730823	2.309659	Le 123 Elysees Astotel
182	21 Via Napo Torriani, Stazione Centrale-Ponte Seveso, Milano, Milano, 25, IT, 20124	2156070000000.0	48.8721692	2.3262681	Hotel Chavanel
183	74 Viale Lombardia, Loreto-Casoretto-Nolo, Milano, Milano, 25, IT, 20131	2156070000000.0	48.8820046	2.2818538	AC Hotel Paris Porte Maillot by Marriott
184	9 Via Riccardo Lombardi, Assiano, Milano, Milano, 25, IT, 20153	2164660000000.0	48.8483053	2.3425596	Select Hotel
185	5 Via dell'Orso, Brera, Milano, Milano, 25, IT, 20121	2164660000000.0	48.8438998	2.3294858	Hotel Le Sainte Beuve
186	27 Via Stamira d'Ancona, Padova-Turro-Crescenzago, Milano, Milano, 25, IT, 20127	2173250000000.0	48.8550298	2.3332104	H tel Bel Ami
187	5 Via Clerici, Brera, Milano, Milano, 25, IT, 20121	2181840000000.0	48.8772093	2.2968266	Renaissance Paris Arc de Triomphe Hotel
188	6 Via Domenico Cimarosa, Porta Magenta, Milano, Milano, 25, IT, 20144	2181840000000.0	48.8750119	2.3416769	Hotel Eug ne en Ville
189	20 Piazza della Repubblica, Stazione Centrale-Ponte Seveso, Milano, Milano, 25, IT, 20124	2190430000000.0	48.8691984	2.2979052	Le Belmont Champs Elys es
190	14 Via Santa Radegonda, Duomo, Milano, Milano, 25, IT, 20121	2199020000000.0	48.8738672	2.3005894	Hotel De Vigny
191	31A Via Alessandro Manzoni, Brera, Milano, Milano, 25, IT, 20121	2233380000000.0	48.8565421	2.3303504	Le Saint Hotel Paris
192	9 Piazza Duca d'Aosta, Stazione Centrale-Ponte Seveso, Milano, Milano, 25, IT, 20124	2259150000000.0	48.8713699	2.3181191	Le Pavillon des Lettres
193	Via Angelo De Gasperis, Niguarda-Ca' Granda-Centenaro-Testi, Milano, Milano, 25, IT, 20162	2267740000000.0	48.8759855	2.293938	Balmoral Champs Elys es
194	3 Piazza 4 Novembre, Stazione Centrale-Ponte Seveso, Milano, Milano, 25, IT, 20124	2276330000000.0	48.8645309	2.3315532	Le Pradey
195	12 Via Flavio Baracchini, Duomo, Milano, Milano, 25, IT, 20122	2284920000000.0	48.8491427	2.3397118	Le Senat
196	6 Viale Monte Santo, Stazione Centrale-Ponte Seveso, Milano, Milano, 25, IT, 20124	2302100000000.0	48.8447938	2.3524462	Hotel Monge
197	6 Via Vincenzo Forcella, Porta Genova, Milano, Milano, 25, IT, 20144	2319280000000.0	48.8772493	2.3543043	Hotel Mademoiselle
198	15 Via Cesare Correnti, Duomo, Milano, Milano, 25, IT, 20123	2336460000000.0	48.849758	2.3095213	Hotel Villa Saxe Eiffel
199	Viale Monza, Padova-Turro-Crescenzago, Milano, Milano, 25, IT, 20127	2362230000000.0	48.8756604	2.3252075	Hilton Paris Opera
200	19A Piazza del Duomo, Duomo, Milano, Milano, 25, IT, 20121	2370820000000.0	48.8756435	2.2938788	Belfast
201	7 Via Lentasio, Duomo, Milano, Milano, 25, IT, 20122	2370820000000.0	48.8645647	2.2821827	Plaza Tour Eiffel
202	46 Corso di Porta Vigentina, Porta Vigentina-Porta Lodovica, Milano, Milano, 25, IT, 20122	2396590000000.0	48.8661705	2.331561	Hotel des Tuileries Relais du Silence
203	3 Piazza Fontana, Duomo, Milano, Milano, 25, IT, 20122	2465310000000.0	48.8497553	2.3467616	Best Western Le Jardin de Cluny
204	62 Via Francesco Caracciolo, Ghisolfa, Milano, Milano, 25, IT, 20155	2473900000000.0	48.8656973	2.2829776	Le Metropolitan a Tribute Portfolio Hotel
205	105 Via Varesina, Villapizzone-Cagnola-Boldinasco, Milano, Milano, 25, IT, 20156	2499670000000.0	48.8741002	2.3426357	Nell Hotel Suites
206	9 Viale Tunisia, Buenos Aires-P. Venezia-P. Monforte, Milano, Milano, 25, IT, 20124	2559800000000.0	48.8330649	2.2879617	Mercure Vaugirard Paris Porte De Versailles
207	26 Via dei Fontanili, Morivione, Milano, Milano, 25, IT, 20141	2568390000000.0	48.8607299	2.3465326	Novotel Paris Les Halles
208	15 Via Roberto Lepetit, Stazione Centrale-Ponte Seveso, Milano, Milano, 25, IT, 20124	2585570000000.0	48.8722019	2.3030866	Warwick Paris Former Warwick Champs Elysees
209	64 Corso di Porta Romana, Porta Vigentina-Porta Lodovica, Milano, Milano, 25, IT, 20122	2585570000000.0	48.8668048	2.3039465	Chambiges Elys es
210	34 Via Pietro Calvi, XXII Marzo, Milano, Milano, 25, IT, 20129	2594160000000.0	48.843707	2.3155631	Best Western S vres Montparnasse
211	3 Corso Buenos Aires, Buenos Aires-P. Venezia-P. Monforte, Milano, Milano, 25, IT, 20124	2602750000000.0	48.8487675	2.3410376	Hotel Trianon Rive Gauche
212	18 Via Fabio Filzi, Stazione Centrale-Ponte Seveso, Milano, Milano, 25, IT, 20124	2619930000000.0	48.8658792	2.3298903	Royal Saint Honore
213	300 Titus van Rijnstraat, Slotervaart, Amsterdam, Amsterdam, NH, NL, 1058 GB	2628520000000.0	48.8854538	2.3335809	Le Relais Montmartre
214	519 Herengracht, Amsterdam-Centrum, Amsterdam, Amsterdam, NH, NL, 1017 BV	2645700000000.0	48.8493082	2.2743626	H tel F licien by Elegancia
215	1 Professor Tulpplein, Amsterdam-Centrum, Amsterdam, Amsterdam, NH, NL, 1018 GX	2662880000000.0	48.8327729	2.2787597	Okko Hotels Paris Porte De Versailles
216	197 Oudezijds Voorburgwal, Amsterdam-Centrum, Amsterdam, Amsterdam, NH, NL, 1012 EX	2671470000000.0	48.8420669	2.3304091	H tel des Academies et des Arts
217	104 Sarphatistraat, Amsterdam-Centrum, Amsterdam, Amsterdam, NH, NL, 1018 GV	2688650000000.0	48.8473459	2.2832408	Platine Hotel Spa
218	33 Prins Hendrikkade, Amsterdam-Centrum, Amsterdam, Amsterdam, NH, NL, 1012 TM	2705830000000.0	48.8746066	2.3167195	Arioso
219	Prins Hendrikkade, Amsterdam-Centrum, Amsterdam, Amsterdam, NH, NL, 1011	2723010000000.0	48.8688962	2.2827459	Melia Paris Champs Elys es
220	1 Molenwerf, Bos en Lommer, Amsterdam, Amsterdam, NH, NL, 1014 AG	2731600000000.0	48.8384558	2.3805885	Novotel Paris Centre Bercy
221	143 Gelderlandplein, Zuideramstel, Amsterdam, Amsterdam, NH, NL, 1082 LV	2740190000000.0	48.8870573	2.3143297	Best Western Op ra Batignolles
222	717 Prinsengracht, Amsterdam-Centrum, Amsterdam, Amsterdam, NH, NL, 1017 JW	2748780000000.0	48.8693409	2.3310263	H tel Westminster
223	Roskamsteeg, Amsterdam-Centrum, Amsterdam, Amsterdam, NH, NL, 1012	2765960000000.0	48.8416787	2.3022862	Hotel Eiffel Blomet
224	30 Prinses Irenestraat, Zuideramstel, Amsterdam, Amsterdam, NH, NL, 1077 WX	2783140000000.0	48.8498439	2.3244253	Hotel Le Placide Saint Germain Des Pr s
225	2 De Boelelaan, Zuideramstel, Amsterdam, Amsterdam, NH, NL, 1083 HJ	2783140000000.0	48.8427364	2.3672171	Hotel OFF Paris Seine
226	Tweede van der Helststraat, Oud-Zuid, Amsterdam, Amsterdam, NH, NL, 1072 PG	2817500000000.0	48.8732231	2.3436097	Villa Opera Drouot
227	194 Ferdinand Bolstraat, Oud-Zuid, Amsterdam, Amsterdam, NH, NL, 1072 LW	2851860000000.0	48.8453774	2.3256427	Legend Saint Germain by Elegancia
228	38 Rusthofstraat, Oost / Watergraafsmeer, Amsterdam, Amsterdam, NH, NL, 1097	2886220000000.0	48.846837	2.3258066	Holiday Inn Paris Saint Germain des Pr s
229	188 Panamalaan, Zeeburg, Amsterdam, Amsterdam, NH, NL, 1019 AZ	2894810000000.0	48.8328764	2.3572531	COQ Hotel Paris
230	1 Kattengat, Amsterdam-Centrum, Amsterdam, Amsterdam, NH, NL, 1012 SZ	2920580000000.0	48.8672474	2.33738	Hotel Malte Astotel
231	18 Oude Haagseweg, Slotervaart, Amsterdam, Amsterdam, NH, NL, 1066 BW	2937760000000.0	48.8682978	2.3268027	Castille Paris Starhotels Collezione
232	12 Bakkersstraat, Amsterdam-Centrum, Amsterdam, Amsterdam, NH, NL, 1017 CW	2946350000000.0	48.8720593	2.3236802	H tel Bedford
233	1 Stadionweg, Oud-Zuid, Amsterdam, Amsterdam, NH, NL, 1077 RV	2954940000000.0	48.8746128	2.3056956	Hotel Plaza Elys es
234	NDSM-Plein, Amsterdam-Noord, Amsterdam, Amsterdam, NH, NL, 1033	2954940000000.0	48.8346811	2.3255098	Suites H tel Helzear Montparnasse
235	62 Chass√©straat, De Baarsjes, Amsterdam, Amsterdam, NH, NL, 1057 JJ	2972120000000.0	48.8816306	2.2992146	H tel Th r se
236	Delflandlaan, Slotervaart, Amsterdam, Amsterdam, NH, NL, 1062	3023660000000.0	48.8694695	2.3208564	Buddha Bar Hotel Paris
237	23D Pieter de Hoochstraat, Oud-Zuid, Amsterdam, Amsterdam, NH, NL, 1071 ED	3032250000000.0	48.8665788	2.3084447	H tel San R gis
238	28 Leidseplein, Amsterdam-Centrum, Amsterdam, Amsterdam, NH, NL, 1017 PT	3049430000000.0	48.8704175	2.3296832	Hotel Scribe Paris Opera by Sofitel
239	94 Damrak, Amsterdam-Centrum, Amsterdam, Amsterdam, NH, NL, 1012 LP	3075200000000.0	48.8663359	2.2867935	Le Dokhan s a Tribute Portfolio Hotel
240	306 Spaarndammerdijk, Westerpark, Amsterdam, Amsterdam, NH, NL, 1013 ZX	3092380000000.0	48.8528427	2.3422256	Holiday Inn Paris Notre Dame
241	46 Prins Hendrikkade, Amsterdam-Centrum, Amsterdam, Amsterdam, NH, NL, 1012 TM	3100970000000.0	48.8427564	2.3305636	H tel Chaplain Paris Rive Gauche
242	12 Nieuwe Doelenstraat, Amsterdam-Centrum, Amsterdam, Amsterdam, NH, NL, 1012 CP	3109560000000.0	48.8864673	2.2948911	H tel de Banville
243	24 Nieuwe Doelenstraat, Amsterdam-Centrum, Amsterdam, Amsterdam, NH, NL, 1012 CP	3126740000000.0	48.8680055	2.3260075	Le Burgundy Paris
244	410 Staalmeesterslaan, Slotervaart, Amsterdam, Amsterdam, NH, NL, 1057 PH	3161100000000.0	48.8488608	2.3315257	A La Villa Madame
245	444 Prinsengracht, Amsterdam-Centrum, Amsterdam, Amsterdam, NH, NL, 1017 KE	3186870000000.0	48.8715828	2.3224853	Waldorf Madeleine
246	97 Damrak, Amsterdam-Centrum, Amsterdam, Amsterdam, NH, NL, 1012 LP	3186870000000.0	48.8393229	2.3892274	Golden Tulip Bercy Gare de Lyon 209
247	29A-H Stadhouderskade, Oud-Zuid, Amsterdam, Amsterdam, NH, NL, 1071 ZD	3204050000000.0	48.8671889	2.326927	Mandarin Oriental Paris
248	123 Apollolaan, Oud-Zuid, Amsterdam, Amsterdam, NH, NL, 1077 AP	3221230000000.0	48.8701887	2.2997281	Francois 1er
249	3555 Gateway St, Springfield, Lane, OR, US, 97477-1059	3238410000000.0	48.8497618	2.3392336	Le Relais M dicis
250	N Ingram Mill Rd, Springfield, Greene, MO, US, 65802	3247000000000.0	48.8718321	2.3278866	Hotel Astra Opera Astotel
251	3480 Hutton St, Springfield, Lane, OR, US, 97477-1075	3255590000000.0	48.8603599	2.3230778	Hotel d Orsay Esprit de France
252	6553 Loisdale Ct, Springfield, Springfield, Fairfax, VA, US, 22150-1814	3272770000000.0	48.8681455	2.3313064	Hotel Stendhal Place Vend me Paris MGallery by Sofitel
