	Address	Id	Latitude	Longitude	Name
0	84 Passeig de Gràcia, Dreta de l'Eixample, Barcelona, Barcelona, CT, ES, 08008	1717990000000.0	48.2105243	16.3683592	Park Hyatt Vienna
1	2 Plaça de Valdívia, Les Corts, Barcelona, Barcelona, CT, ES, 08014	1743760000000.0	48.1950444	16.3844751	Austria Trend Hotel Savoyen Vienna
2	93 Avinguda de Roma, La Nova Esquerra de l'Eixample, Barcelona, Barcelona, CT, ES, 08029	1760940000000.0	48.1915401	16.3546263	Austria Trend Hotel Ananas Wien
3	64 Carrer d'Enric Granados, l'Antiga Esquerra de l'Eixample, Barcelona, Barcelona, CT, ES, 08008	1778120000000.0	48.1868107	16.3440157	Falkensteiner Hotel Wien Margareten
4	390 Carrer del Rosselló, Sagrada Familia, Barcelona, Barcelona, CT, ES, 08025	1812480000000.0	48.1979979	16.3483314	NH Collection Wien Zentrum
5	498 Carrer del Consell de Cent, Fort Pienc, Barcelona, Barcelona, CT, ES, 08013	1889790000000.0	48.2027296	16.3661211	Le Meridien Vienna
6	28 Carrer de Roger de Llúria, Dreta de l'Eixample, Barcelona, Barcelona, CT, ES, 08010	1898380000000.0	48.1825159	16.3322428	FourSide Hotel Vienna City Center
7	18 Carrer de Roger de Llúria, Dreta de l'Eixample, Barcelona, Barcelona, CT, ES, 08010	1967100000000.0	48.1629737	16.3404024	Austria Trend Hotel Bosei Wien
8	2 Carrer del Civader, S. Pere, Santa Caterina, i la Rib., Barcelona, Barcelona, CT, ES, 08003	2018630000000.0	48.1979514	16.336318	Arthotel ANA Westbahn
9	17 Carrer de Roger de Llúria, Dreta de l'Eixample, Barcelona, Barcelona, CT, ES, 08010	2173250000000.0	48.2110845	16.3838405	Aparthotel Adagio Vienna City
10	117 Carrer de Balmes, l'Antiga Esquerra de l'Eixample, Barcelona, Barcelona, CT, ES, 08008	2233380000000.0	48.2102677	16.3741269	Hotel Lam e
11	Plaça d'Espanya, Montjuïc, Barcelona, Barcelona, CT, ES, 08015	2241970000000.0	48.184732	16.3211959	Courtyard by Marriott Vienna Schoenbrunn
12	54 Carrer d'Aribau, l'Antiga Esquerra de l'Eixample, Barcelona, Barcelona, CT, ES, 08011	2276330000000.0	48.2062268	16.3833767	Hilton Vienna
13	4 Carrer dels Capellans, El Gòtic, Barcelona, Barcelona, CT, ES, 08002	2284920000000.0	48.2050967	16.3770928	Vienna Marriott Hotel
14	117 Carrer la Rambla, El Raval, Barcelona, Barcelona, CT, ES, 08002	2310690000000.0	48.251195	16.2989165	Hotel Schild
15	58 Carrer d'Enric Granados, l'Antiga Esquerra de l'Eixample, Barcelona, Barcelona, CT, ES, 08008	2336460000000.0	48.1935593	16.3616098	Holiday Inn Vienna City
16	7 Avinguda de la Catedral, El Gòtic, Barcelona, Barcelona, CT, ES, 08002	2525440000000.0	48.212857	16.37986	Sofitel Vienna Stephansdom
17	509 Carrer de Muntaner, Sant Gervasi-la Bonanova, Barcelona, Barcelona, CT, ES, 08022	2551210000000.0	48.2057193	16.3710878	Hotel Ambassador
18	102 Avenue Victor Hugo, 16e Arrondissement, Paris, Paris, IDF, FR, 75116	2637110000000.0	48.2185837	16.3881339	Der Wilhelmshof
19	2 Rue d'Artois, 8e Arrondissement, Paris, Paris, IDF, FR, 75008	2723010000000.0	48.2107358	16.382147	Best Western Hotel Pension Arenberg Wien Zentrum
20	81 Rue de Bercy, 12e Arrondissement, Paris, Paris, IDF, FR, 75012	2731600000000.0	48.2080479	16.375612	Hotel Domizil
21	3 Rue d'Argentine, 16e Arrondissement, Paris, Paris, IDF, FR, 75116	2765960000000.0	48.2178332	16.3821636	Hotel Nestroy Wien
22	7 Rue de Dunkerque, 10e Arrondissement, Paris, Paris, IDF, FR, 75010	2817500000000.0	48.1975497	16.3686397	Best Western Premier Kaiserhof Wien
23	83 Avenue Kléber, 16e Arrondissement, Paris, Paris, IDF, FR, 75116	2851860000000.0	48.2038793	16.3698086	Hotel Sacher Wien
24	78 Rue Blomet, 15e Arrondissement, Paris, Paris, IDF, FR, 75015	2869040000000.0	48.191339	16.3165873	Austria Trend Hotel Park Royal Palace Vienna
25	15 Rue de Bassano, 16e Arrondissement, Paris, Paris, IDF, FR, 75116	2886220000000.0	48.2047761	16.3512515	Small Luxury Hotel Altstadt Vienna
26	9 Rue de Constantinople, 8e Arrondissement, Paris, Paris, IDF, FR, 75008	2911990000000.0	48.1945774	16.346356	Austria Trend Hotel Anatol Wien
27	18 Rue de Constantinople, 8e Arrondissement, Paris, Paris, IDF, FR, 75008	3186870000000.0	48.1974036	16.3673003	Das Triest Hotel
28	18 Rue Clément Marot, 8e Arrondissement, Paris, Paris, IDF, FR, 75008	3247000000000.0	48.2238463	16.3138357	Hotel J ger
29	15 Rue Boissy d'Anglas, 8e Arrondissement, Paris, Paris, IDF, FR, 75008	3255590000000.0	48.2307014	16.3552189	Hotel Arkadenhof
30	10 Avenue Carnot, 17e Arrondissement, Paris, Paris, IDF, FR, 75017	3350070000000.0	48.2008957	16.3592496	Boutiquehotel Das Tyrol
31	32 Rue de Buci, 6e Arrondissement, Paris, Paris, IDF, FR, 75006	1803890000000.0	48.1899743	16.3567007	pentahotel Vienna
32	33 Rue Raymond Losserand, 14e Arrondissement, Paris, Paris, IDF, FR, 75014	1812480000000.0	48.2142766	16.3801779	Hotel Stefanie
33	97 Rue Lauriston, 16e Arrondissement, Paris, Paris, IDF, FR, 75116	1821070000000.0	48.2104468	16.3715781	Hotel Amadeus
34	10 Avenue d'Iéna, 16e Arrondissement, Paris, Paris, IDF, FR, 75116	1958510000000.0	48.1640345	16.3216061	Gartenhotel Altmannsdorf Hotel 1
35	10 Rue de Bruxelles, 9e Arrondissement, Paris, Paris, IDF, FR, 75009	2027220000000.0	48.2082385	16.3715725	DO CO Hotel Vienna
36	2 Rue Édouard VII, 9e Arrondissement, Paris, Paris, IDF, FR, 75009	2190430000000.0	48.210285	16.373579	Hotel Topazz
37	51 Rue Lauriston, 16e Arrondissement, Paris, Paris, IDF, FR, 75116	2293510000000.0	48.2565936	16.4031426	FourSide Hotel Suites Vienna
38	24 Bloomsbury Way, Bloomsbury, London, London, ENG, GB, WC1A 2	2396590000000.0	48.2058584	16.3766545	Palais Coburg Residenz
39	37 Eccleston Square, Pimlico, London, London, ENG, GB, SW1P 4	2602750000000.0	48.1925582	16.3576071	Arthotel ANA Prime
40	20 Bina Gardens, South Kensington, London, London, ENG, GB, SW5 0LA	2662880000000.0	48.1940487	16.2971831	Hotel Kavalier
41	5-7 Princes Square, Bayswater, London, London, ENG, GB, W2 4	2714420000000.0	48.2048494	16.343618	Falkensteiner Hotel Wien Zentrum Schottenfeld
42	34 Broadway, St James's Park, London, London, ENG, GB, SW1H 0	2817500000000.0	48.19183	16.3770876	Pakat Suites Hotel
43	92 Southampton Row, Bloomsbury, London, London, ENG, GB, WC1A 2	2920580000000.0	48.1954348	16.383429	NH Wien Belvedere
44	31 Great Cumberland Place, Marylebone, London, London, ENG, GB, W1H 7DP	2929170000000.0	48.1965878	16.3413729	IntercityHotel Wien
45	31 Roland Gardens, South Kensington, London, London, ENG, GB, SW7 3PF	3100970000000.0	48.2163149	16.3685103	Palais Hansen Kempinski Vienna
46	8 Great Swan Alley, City of London, London, London, ENG, GB, EC2R 7	3143920000000.0	48.2062103	16.3710387	Austria Trend Hotel Europa Wien
47	Soho, London, London, ENG, GB, W1D 3DH	3221230000000.0	48.2002872	16.3547746	NH Wien City
48	Fitzrovia, London, London, ENG, GB, W1T 1LB	3255590000000.0	48.1955998	16.3826989	Lindner Hotel Am Belvedere
49	52-55 Inverness Terrace, Bayswater, London, London, ENG, GB, W2 3	3324300000000.0	48.2071576	16.3765913	Appartement Hotel an der Riemergasse
50	Marsh Wall, Isle of Dogs, London, London, ENG, GB, E14 9	3418790000000.0	48.2038688	16.3887039	Mercure Grand Hotel Biedermeier Wien
51	7 Pepys Street, City of London, London, London, ENG, GB, EC3N 4AF	3427380000000.0	48.2196722	16.3863588	Hotel Vienna
52	25 Via Spezia, Tibaldi, Milano, Milano, 25, IT, 20142	1735170000000.0	48.2138096	16.3714293	K K Palais Hotel
53	33 Via Carlo Goldoni, Buenos Aires-P. Venezia-P. Monforte, Milano, Milano, 25, IT, 20129	1752350000000.0	48.204576	16.3563661	Hotel Sans Souci Wien
54	153/1 Via Palmanova, Padova-Turro-Crescenzago, Milano, Milano, 25, IT, 20132	1778120000000.0	48.1949694	16.3692624	Hotel Johann Strauss
55	17 Via Gioacchino Murat, Maciachini-Maggiolina, Milano, Milano, 25, IT, 20159	1786710000000.0	48.1935235	16.3669145	Suite Hotel 900 m zur Oper
56	8 Via Silvio Pellico, Duomo, Milano, Milano, 25, IT, 20121	1829660000000.0	48.2195864	16.3255339	Senator Hotel Vienna
57	2 Viale Isonzo, Porta Romana, Milano, Milano, 25, IT, 20135	1864020000000.0	48.1941905	16.3462578	Arthotel ANA Boutique Six
58	2 Via San Raffaele, Duomo, Milano, Milano, 25, IT, 20121	1915560000000.0	48.2114567	16.3738677	Mercure Vienna First
59	5 Via Senato, Duomo, Milano, Milano, 25, IT, 20121	1967100000000.0	48.191373	16.4082294	Vienna Sporthotel
60	12 Via Giuseppe Edoardo Arimondi, Ghisolfa, Milano, Milano, 25, IT, 20155	1992860000000.0	48.2026449	16.3671054	Das Opernring Hotel
61	8 Via Privata Leopoldo Gasparotto, Stazione Centrale-Ponte Seveso, Milano, Milano, 25, IT, 20124	2018630000000.0	48.2082256	16.3684123	Pertschy Palais Hotel
62	Via Lorenteggio, Giambellino, Milano, Milano, 25, IT, 20147	2078760000000.0	48.2155236	16.3646858	Hilton Vienna Plaza
63	12 Piazza Gerusalemme, Sarpi, Milano, Milano, 25, IT, 20154	2190430000000.0	48.1854312	16.404884	Austria Trend Hotel Doppio Wien
64	11 Via Angelo Poliziano, Sarpi, Milano, Milano, 25, IT, 20154	2319280000000.0	48.2022742	16.3762615	The Ritz Carlton Vienna
65	8B Via San Tomaso, Brera, Milano, Milano, 25, IT, 20121	2362230000000.0	48.2264063	16.3600628	Hotel Bellevue Wien
66	36 Via Lucio Giunio Columella, Gorla-Precotto, Milano, Milano, 25, IT, 20128	2448130000000.0	48.2021105	16.3720841	Grand Hotel Wien
67	26 Rembrandtplein, Amsterdam-Centrum, Amsterdam, Amsterdam, NH, NL, 1017 CV	2826090000000.0	48.2149414	16.3365285	Exe Vienna
68	7 Aletta Jacobslaan, Slotervaart, Amsterdam, Amsterdam, NH, NL, 1066 BP	2869040000000.0	48.200561	16.3647063	Mercure Secession Wien
69	587 Prinsengracht, Amsterdam-Centrum, Amsterdam, Amsterdam, NH, NL, 1016 HT	2954940000000.0	48.2111522	16.3788631	Hotel Capricorno
70	75 Oudeschans, Amsterdam-Centrum, Amsterdam, Amsterdam, NH, NL, 1011 KW	3006480000000.0	48.2024907	16.3702656	Hotel Bristol A Luxury Collection Hotel
71	19 Nieuwezijds Kolk, Amsterdam-Centrum, Amsterdam, Amsterdam, NH, NL, 1012 PV	3066610000000.0	48.2022415	16.3749336	Grand Ferdinand Vienna Your Hotel In The City Center
72	4 Breughelstraat, Oud-Zuid, Amsterdam, Amsterdam, NH, NL, 1077 LC	3126740000000.0	48.2340799	16.4210093	Park Inn by Radisson Uno City Vienna
73	44 Rembrandtplein, Amsterdam-Centrum, Amsterdam, Amsterdam, NH, NL, 1017 CV	3178280000000.0	48.2064745	16.3546297	25hours Hotel beim MuseumsQuartier
74	1 George Gershwinplein, Zuideramstel, Amsterdam, Amsterdam, NH, NL, 1082 MV	3186870000000.0	48.2112491	16.3776519	Alma Boutique Hotel
75	221 Van Leijenberghlaan, Zuideramstel, Amsterdam, Amsterdam, NH, NL, 1082 GG	3195460000000.0	48.1776236	16.3243588	Hotel Parco di Sch nbrunn Vienna
76	110 W Leffel Ln, Springfield, Clark, OH, US, 45506-3522	3255590000000.0	48.2163343	16.3595536	Hotel Regina
77	304 US-22, Springfield, Union, NJ, US, 07081-3510	3264180000000.0	48.1953229	16.3672882	Hotel Erzherzog Rainer
